school_name,url_address,address,postal_code,telephone_no,telephone_no_2,fax_no,fax_no_2,email_address,mrt_desc,bus_desc,principal_name,first_vp_name,second_vp_name,third_vp_name,fourth_vp_name,fifth_vp_name,sixth_vp_name,dgp_code,zone_code,type_code,nature_code,session_code,mainlevel_code,sap_ind,autonomous_ind,gifted_ind,ip_ind,mothertongue1_code,mothertongue2_code,mothertongue3_code,latitude_longitude,lat,lon
ADMIRALTY PRIMARY SCHOOL,https://admiraltypri.moe.edu.sg/,11   WOODLANDS CIRCLE,738907,63620598,na,63627512,na,ADMIRALTY_PS@MOE.EDU.SG,Admiralty Station,"TIBS 965, 964, 913",MR PEK WEE HAUR,MDM CHUA MUI LING,MDM NUR SABARIAH BTE MOHD IBRAHIM,,,,,WOODLANDS,NORTH,GOVERNMENT SCHOOL,CO-ED SCHOOL,FULL DAY,PRIMARY,No,No,No,No,Chinese,Malay,Tamil,"Admiralty Primary School, 11, Woodlands Circle, Woodlands, Northwest, 738907, Singapore",1.4429414,103.80034506744822
ADMIRALTY SECONDARY SCHOOL,http://www.admiraltysec.moe.edu.sg,31   WOODLANDS CRESCENT,737916,63651733,63654596,63652774,na,Admiralty_SS@moe.edu.sg,ADMIRALTY MRT,904,MR LAM YUI- P'NG,MR NG SONG LIM STEVEN,MR SHEIK ALAUDIN B MOHD ISMAIL,,,,,WOODLANDS,NORTH,GOVERNMENT SCHOOL,CO-ED SCHOOL,SINGLE SESSION,SECONDARY,No,No,No,No,Chinese,Malay,Tamil,"Admiralty Secondary School, 31, Woodlands Crescent, Woodlands, Northwest, 737916, Singapore",1.4459118499999999,103.80290805413242
AHMAD IBRAHIM PRIMARY SCHOOL,http://www.ahmadibrahimpri.moe.edu.sg,10   YISHUN STREET 11,768643,67592906,na,67592927,na,aips@moe.edu.sg,Yishun,"Yishun Ring Road - 812 (white plate); Yishun Ave 2 - 169, 804, 965, 117, 883",MISS ONG LEE CHOO,MADAM SULASNI BINTE ABDUL RAHMAN,,,,,,YISHUN,NORTH,GOVERNMENT SCHOOL,CO-ED SCHOOL,SINGLE SESSION,PRIMARY,No,No,No,No,Chinese,Malay,Tamil,"Ahmad Ibrahim Primary School, 10, Yishun Street 11, Yishun, Northwest, 768643, Singapore",1.4338487,103.83270977683569
AHMAD IBRAHIM SECONDARY SCHOOL,http://www.ahmadibrahimsec.moe.edu.sg,751  YISHUN AVENUE 7,768928,67585384,na,67557778,na,aiss@moe.edu.sg,"CANBERRA MRT, YISHUN MRT","117, 167, 169, 800, 811, 812, 883, 856, 858, 859, 965, 969, 980",MISS TAN KE XIN,MR YAO ZHIXUAN TERENCE,MISS LEA SHU HUI,,,,,YISHUN,NORTH,GOVERNMENT SCHOOL,CO-ED SCHOOL,SINGLE SESSION,SECONDARY,No,No,No,No,Chinese,Malay,Tamil,"Yishun Avenue 7, Yishun, Northwest, 758932, Singapore",1.4357167,103.826998
AI TONG SCHOOL,http://www.aitong.moe.edu.sg,100  Bright Hill Drive,579646,64547672,na,64532726,na,AITONG_SCH@MOE.EDU.SG,Bishan MRT,"410, 162, 52",MDM GOH LING LING DIANE,"MDM NG BEE ENG, CINDY",MR YAK BENG WEI,,,,,BISHAN,SOUTH,GOVERNMENT-AIDED SCH,CO-ED SCHOOL,SINGLE SESSION,PRIMARY,Yes,No,No,No,Chinese,na,na,"Ai Tong School, 100, Bright Hill Drive, Bishan, Central, 579646, Singapore",1.3607125500000001,103.83301753795786
ALEXANDRA PRIMARY SCHOOL,http://alexandrapri.moe.edu.sg,2A   Prince Charles Crescent,159016,62485400,na,62485409,na,alexandra_ps@moe.edu.sg,Redhill Station  Tiong Bahru Station,"51, 122, 139, 186, 970.",MDM TEO CHING LING,MDM NORAINI BTE MANSOOR,,,,,,BUKIT MERAH,SOUTH,GOVERNMENT SCHOOL,CO-ED SCHOOL,SINGLE SESSION,PRIMARY,No,No,No,No,Chinese,Malay,Tamil,"Alexandra Primary School, 2A, Prince Charles Crescent, Bukit Merah, Central, 159016, Singapore",1.2912837000000001,103.82406594082047
ANCHOR GREEN PRIMARY SCHOOL,http://www.anchorgreenpri.moe.edu.sg,31   Anchorvale Drive,544969,68861356,na,63159825,na,anchorgreen_ps@moe.edu.sg,MRT : NE16-Sengkang LRT : SW7-TongKang,"Bus 372, 110, 50",MDM NORLIZA BTE A RAHIM,MDM VASUNDHARA  REDDY,MDM NEO LAY PIN,,,,,SENG KANG,NORTH,GOVERNMENT SCHOOL,CO-ED SCHOOL,SINGLE SESSION,PRIMARY,No,No,No,No,Chinese,Malay,Tamil,"Anchor Green Primary School, 31, Anchorvale Drive, Seng Kang, Northeast, 544969, Singapore",1.3903797999999998,103.8873537933713
ANDERSON PRIMARY SCHOOL,http://www.andersonpri.moe.edu.sg,19   ANG MO KIO AVE 9,569785,64560340,na,65522310,na,anderson_ps@moe.edu.sg,Yio Chu Kang MRT Station,"Ang Mo Kio Ave 9 - Bus 76, 265, 268",MDM DELIA HOO,"MDM NGOH YING LI, JANE",,,,,,ANG MO KIO,NORTH,GOVERNMENT SCHOOL,CO-ED SCHOOL,SINGLE SESSION,PRIMARY,No,No,No,No,Chinese,Malay,Tamil,"Ang Mo Kio Avenue 9, Ang Mo Kio, Central, 560622, Singapore",1.3827225,103.8393515
ANDERSON SECONDARY SCHOOL,http://www.andersonsec.moe.edu.sg,10   ANG MO KIO STREET 53,569206,64598303,na,64586104,na,anderson_ss@moe.edu.sg,"ANG MO KIO MRT, YIO CHU KANG MRT","265, 548, 45, 50, 72",MDM THONG MAY TENG,MDM LOW CHIA YEE,MR JONAH LIM TUCK HWAY,,,,,ANG MO KIO,NORTH,GOVERNMENT SCHOOL,CO-ED SCHOOL,SINGLE SESSION,SECONDARY,No,Yes,No,No,Chinese,Malay,Tamil,"Anderson Secondary School, 10, Ang Mo Kio Street 53, Ang Mo Kio, Central, 569206, Singapore",1.37541705,103.85172271977174
ANDERSON SERANGOON JUNIOR COLLEGE,www.asrjc.moe.edu.sg,4500 ANG MO KIO AVENUE 6,569843,64596822,na,64598734,na,asrjc@moe.edu.sg,Yio Chu Kang MRT Station,"13, 45, 86, 162, 269, 825, 851, 852, 853, 860",MR MANOGARAN S/O SUPPIAH,MDM LOW BEE YEN,MR CHAN ZHENG MING,,,,,ANG MO KIO,NORTH,GOVERNMENT SCHOOL,CO-ED SCHOOL,FULL DAY,JUNIOR COLLEGE,No,No,No,No,Chinese,Malay,Tamil,"Anderson Serangoon Junior College, 4500, Ang Mo Kio Avenue 6, Ang Mo Kio, Central, 569843, Singapore",1.3791514999999999,103.84579741148241
ANG MO KIO PRIMARY SCHOOL,http://www.angmokiopri.moe.edu.sg,20   ANG MO KIO AVENUE 3,569920,64520794,na,64588121,na,AMKPS@MOE.EDU.SG,Ang Mo Kio MRT Station,"76,132,165,166,169,200,000,000",MRS LIM BEE LAY,MR KYAW SAW LYNN,MDM TAN SIEW KHIM (CHEN XIUQIN),,,,,ANG MO KIO,SOUTH,GOVERNMENT SCHOOL,CO-ED SCHOOL,SINGLE SESSION,PRIMARY,No,No,No,No,Chinese,Malay,Tamil,"Ang Mo Kio Primary School, 20, Ang Mo Kio Avenue 3, Ang Mo Kio, Central, 569920, Singapore",1.3691002,103.83936023522986
ANG MO KIO SECONDARY SCHOOL,http://www.angmokiosec.moe.edu.sg,6    ANG MO KIO STREET 22,569362,64548605,na,64582425,na,AMKSS@MOE.EDU.SG,ANG MO KIO MRT,"13, 74, 76, 88, 130, 132, 133, 136, 165, 169, 265, 268, 269, 851, 852",MR SHAW SWEE TAT,MDM TONG WAI HAN,MDM LEE KEE CHIN,,,,,ANG MO KIO,SOUTH,GOVERNMENT SCHOOL,CO-ED SCHOOL,SINGLE SESSION,SECONDARY,No,No,No,No,Chinese,Malay,Tamil,"Ang Mo Kio Secondary School, 6, Ang Mo Kio Street 22, Ang Mo Kio, Central, 569362, Singapore",1.3676706,103.8425942040293
ANGLICAN HIGH SCHOOL,http://www.anglicanhigh.moe.edu.sg,600  UPPER CHANGI ROAD,487012,62414866,na,64414690,na,AHS@MOE.EDU.SG,TANAH MERAH MRT,"2, 9, 12, 14, 24, 31, 35, 38, 45, 47, 48",MR KHOO TSE HORNG,MR GOH CHIN WEI,MR CHIN LIH KEONG,,,,,BEDOK,EAST,GOVERNMENT-AIDED SCH,CO-ED SCHOOL,SINGLE SESSION,SECONDARY,Yes,Yes,No,No,Chinese,na,na,"Anglican High School, 600, Upper Changi Road, Simpang Bedok, Bedok, Southeast, 487012, Singapore",1.33021825,103.94175939498882
ANGLO-CHINESE JUNIOR COLLEGE,http://www.acjc.edu.sg,25   DOVER CLOSE EAST,139745,67750511,na,67775479,na,acjc@acjc.edu.sg,Buona Vista,"74,95,100,105,106,111,145,147,191,196,198,602",DR CHEE YAN HOON SHIRLEEN,MDM SEOW HONG KIANG,"MISS LIM MEI LIN, AUDREY",,,,,QUEENSTOWN,WEST,GOVERNMENT-AIDED SCH,CO-ED SCHOOL,FULL DAY,JUNIOR COLLEGE,No,No,No,No,na,na,na,"Anglo-Chinese Junior College, 25, Dover Close East, Rochester Hill, Queenstown, Southwest, 139745, Singapore",1.3026072000000002,103.7856243272057
ANGLO-CHINESE SCHOOL (BARKER ROAD),http://www.acsbr.moe.edu.sg,60   BARKER ROAD,309919,62561633,na,62561366,na,acsbr@moe.edu.sg,"NEWTON MRT, STEVENS MRT","48, 66, 67, 170, 960, 972",MR LOO MING YAW,MRS AW MENG YIN,MR TAN WHYE WEE JEFFREY,,,,,NOVENA,SOUTH,GOVERNMENT-AIDED SCH,BOYS' SCHOOL,SINGLE SESSION,SECONDARY,No,No,No,No,Chinese,Malay,Tamil,"Anglo-Chinese School (Barker), 60, Barker Road, Novena, Central, 309919, Singapore",1.3197093999999998,103.83566144213304
ANGLO-CHINESE SCHOOL (INDEPENDENT),http://www.acsindep.moe.edu.sg,121  DOVER ROAD,139650,67731633,na,67731433,na,ACIS@MOE.EDU.SG,"DOVER MRT, BUONA VISTA MRT, ONE-NORTH MRT","33, 74, 166, 196",MR KOH SUNG- YI ARENE,MRS TEO LAI CHENG JUDY-HO,MISS CHOCK SIEW HWA,MDM YONG LEE HAR,MR SOO MUN KEONG PATRICK,MR CHIEW TECK TZER TERENCE,DR YONG YUN LEONG ANDREW,QUEENSTOWN,SOUTH,INDEPENDENT SCHOOL,CO-ED SCHOOL,SINGLE SESSION,MIXED LEVELS,No,No,Yes,Yes,Chinese,Malay,Tamil,"Anglo-Chinese School (Independent), 121, Dover Road, Rochester Hill, Queenstown, Southwest, 139650, Singapore",1.3029215,103.78055109171335
ANGLO-CHINESE SCHOOL (JUNIOR),www.acsj.moe.edu.sg,16   WINSTEDT ROAD,227988,67337911,67337912,67346518,na,acjs@moe.edu.sg,Newton MRT Station,"5, 54, 124, 143, 162, 162M, 167, 167e, 518, 518A, 972M",MRS CHAILLAN MUI TUAN,MR CHIA CHEE WENG RICHARD CHRIS,,,,,,CENTRAL,SOUTH,GOVERNMENT-AIDED SCH,BOYS' SCHOOL,SINGLE SESSION,PRIMARY,No,No,No,No,Chinese,Malay,Tamil,"Anglo-Chinese School (Junior), 16, Winstedt Road, Newton Circus, Newton, Central, 227988, Singapore",1.30928255,103.8413025008237
ANGLO-CHINESE SCHOOL (PRIMARY),http://www.acspri.moe.edu.sg/,50   BARKER ROAD,309918,62501633,na,63531366,na,acps@moe.edu.sg,Newton MRT Station,"Bus 48, 66, 67, 170, 603, 972M",DR NG SIEW PENG IRENE,MDM CHOH THIAN JENG CELIA,MR CHUA THIAN KEONG,,,,,NOVENA,SOUTH,GOVERNMENT-AIDED SCH,BOYS' SCHOOL,SINGLE SESSION,PRIMARY,No,No,Yes,No,Chinese,Malay,Tamil,"Anglo-Chinese School (Primary), 50, Barker Road, Novena, Central, 309918, Singapore",1.31875235,103.83507692293153
ANGSANA PRIMARY SCHOOL,www.angsanapri.moe.edu.sg,3    Tampines Street 22,529366,67830427,na,67845293,na,angsana_pri@moe.edu.sg,Tampines and Simei Stations,"Bus Service 8, 17, 18, 20, 28, 34, 39, 59, 518, Feeder Bus Service 292",MISS FOONG YIN WEI,MR BHIMBAHADUR GURUNG,,,,,,TAMPINES,EAST,GOVERNMENT SCHOOL,CO-ED SCHOOL,SINGLE SESSION,PRIMARY,No,No,No,No,Chinese,Malay,Tamil,"Griffiths Primary School, 3, Tampines Street 22, Tampines, Northeast, 529366, Singapore",1.34878235,103.95165163075276
ASSUMPTION ENGLISH SCHOOL,http://www.assumptionenglish.moe.edu.sg,622  UPPER BUKIT TIMAH ROAD,678117,65729100,na,67636560,na,AES@MOE.EDU.SG,CASHEW MRT,"67, 75, 170, 176, 178, 184, 961, 963, 970",MR KWOK CHIN POH BENJAMIN,MISS WONG KER SIN,,,,,,BUKIT PANJANG,WEST,GOVERNMENT-AIDED SCH,CO-ED SCHOOL,SINGLE SESSION,SECONDARY,No,No,No,No,Chinese,Malay,Tamil,"Upper Bukit Timah Road, Bukit Panjang, Northwest, 678211, Singapore",1.3628935,103.7675119
ASSUMPTION PATHWAY SCHOOL,http://www.aps.edu.sg,30   Cashew Road,679697,62793000,na,67622857,na,aps@schools.gov.sg,"DOWNTOWN LINE 2, CASHEW MRT","SBS Transit No 170    SMRT No 67, 75, 171, 176, 178, 184, 961, 963 & 970",MR STEPHEN CHIN,MR SHASHIDARAN S/O KANESON,,,,,,BUKIT PANJANG,WEST,SPECIALISED SCHOOL,CO-ED SCHOOL,SINGLE SESSION,SECONDARY,No,No,No,No,Chinese,Malay,Tamil,"Assumption Pathway School, 30, Cashew Road, Bukit Panjang, Northwest, 679697, Singapore",1.37022425,103.7664288991761
BARTLEY SECONDARY SCHOOL,http://www.bartleysec.moe.edu.sg,10   JALAN BUNGA RAMPAI,538403,62889013,na,62805595,na,bartley_ss@moe.edu.sg,"BARTLEY MRT, TAI SENG MRT","22, 24, 28, 43, 58, 62, 70, 70M, 76, 80, 80A, 93, 158",MR MOHD AZHAR B TERIMO,MRS TAN CHYE NA,MR NG CHOR YAM,,,,,TOA PAYOH,SOUTH,GOVERNMENT SCHOOL,CO-ED SCHOOL,SINGLE SESSION,SECONDARY,No,No,No,No,Chinese,Malay,Tamil,"Bartley Secondary School, 10, Jalan Bunga Rampai, Joo Seng, Southeast, 538403, Singapore",1.3406552,103.88232713686763
BEACON PRIMARY SCHOOL,https://beaconpri.moe.edu.sg/,36   Bukit Panjang Ring Road,679944,67697255,na,67697244,na,beaconprisch@moe.edu.sg,"Bangkit LRT, Fajar LRT Station","920, 922, 971, 972, 972A, 972M, 976",MISS PANG WEE MIAN,MR ONG HONG GHEE,MDM LELA BTE SHAMSUHADI,,,,,BUKIT PANJANG,WEST,GOVERNMENT SCHOOL,CO-ED SCHOOL,SINGLE SESSION,PRIMARY,No,No,No,No,Chinese,Malay,Tamil,"Beacon Primary School, 36, Bukit Panjang Ring Road, Bukit Panjang, Northwest, 679944, Singapore",1.3841149499999998,103.77380560574733
BEATTY SECONDARY SCHOOL,http://www.beattysec.moe.edu.sg,1    TOA PAYOH NORTH,318990,62569108,na,62542284,na,BEATTY_SS@MOE.EDU.SG,"BRADDELL MRT, TOA PAYOH MRT","28, 56, 73, 88, 93, 105, 153, 155, 157, 159, 163, 231, 232",MR LING KHOON CHOW,MR LIM SOON WAI,,,,,,TOA PAYOH,SOUTH,GOVERNMENT SCHOOL,CO-ED SCHOOL,SINGLE SESSION,SECONDARY,No,No,No,No,Chinese,Malay,Tamil,"Beatty Secondary School, 1, Toa Payoh North, Toa Payoh, Central, 318990, Singapore",1.3417851,103.85227338068876
BEDOK GREEN PRIMARY SCHOOL,http://www.bedokgreenpri.moe.edu.sg,1    BEDOK SOUTH AVE 2,469317,64425416,na,64491491,na,bgps@moe.edu.sg,"Bedok MRT Station, Tanah Merah MRT Station","Bus No. 2, 9, 12, 24, 31, 34 & 38",MR YONG YIK YEN BENJAMIN,MDM SHARIFAH FAIRUZ BTE S Y A,MR YEO SHO HOR,,,,,BEDOK,EAST,GOVERNMENT SCHOOL,CO-ED SCHOOL,SINGLE SESSION,PRIMARY,No,No,No,No,Chinese,Malay,Tamil,"Bedok Green Primary School, 1, Bedok South Avenue 2, Bedok, Southeast, 469317, Singapore",1.3240565000000002,103.93783056591907
BEDOK GREEN SECONDARY SCHOOL,http://www.bedokgreensec.moe.edu.sg,360  BEDOK NORTH AVE 3,469722,64463301,na,64465969,na,BGSS@MOE.EDU.SG,"BEDOK MRT, BEDOK RESERVOIR MRT","14, 17, 18, 28, 46, 66, 67, 69, 168, 222, 228, 506",MR BOY ENG SENG,MS FOO SHEUE FENG (FU XUEFENG),MISS SAKINAH BINTE MOHAMED SARIP,,,,,BEDOK,EAST,GOVERNMENT SCHOOL,CO-ED SCHOOL,SINGLE SESSION,SECONDARY,No,No,No,No,Chinese,Malay,Tamil,"Bedok Green Secondary School, 360, Bedok North Avenue 3, Bedok, Southeast, 469722, Singapore",1.334061,103.93585828465199
BEDOK SOUTH SECONDARY SCHOOL,http://www.bedoksouthsec.moe.edu.sg,1    JALAN LANGGAR BEDOK,468585,64414479,na,64491314,na,bsss@moe.edu.sg,TANAH MERAH MRT,"10, 14, 45",MR TEOH TEIK HOE,MISS AZLINDA BTE SAMSUDIN,MISS TAN PO CHIN,,,,,BEDOK,EAST,GOVERNMENT SCHOOL,CO-ED SCHOOL,SINGLE SESSION,SECONDARY,No,No,No,No,Chinese,Malay,Tamil,"Bedok South Secondary School, 1, Jalan Langgar Bedok, Simpang Bedok, Bedok, Southeast, 468585, Singapore",1.3255597,103.95102831010223
BEDOK VIEW SECONDARY SCHOOL,http://www.bedokviewsec.moe.edu.sg,6    BEDOK SOUTH AVENUE 3,469293,64430563,na,64494286,na,bedokview_ss@moe.edu.sg,TANAH MERAH MRT,"2, 9, 12, 14, 24, 25, 31, 35, 38, 45, 46, 47, 48, 506",MDM TEO YVONNE,MDM CH'NG YUEN PING,MR LAWRENCE KOH,,,,,BEDOK,EAST,GOVERNMENT SCHOOL,CO-ED SCHOOL,SINGLE SESSION,SECONDARY,No,No,No,No,Chinese,Malay,Tamil,"Bedok View Secondary School, 6, Bedok South Avenue 3, Bedok, Southeast, 469293, Singapore",1.3247404,103.94354363524812
BENDEMEER PRIMARY SCHOOL,http://www.bendemeerpri.moe.edu.sg/,91   BENDEMEER ROAD,339948,62982911,na,62995735,na,BENDEMEER_PS@MOE.EDU.SG,"Boon Keng, Kallang","13 23 31 61 64 65 65M 66 125, 125X ,133,140,147,853,857,985",MDM LIM KIM GEK,MRS SANTHI RAVINDRAN,,,,,,KALLANG,SOUTH,GOVERNMENT SCHOOL,CO-ED SCHOOL,SINGLE SESSION,PRIMARY,No,No,No,No,Chinese,Malay,Tamil,"Bendemeer Primary School, 91, Bendemeer Road, Kallang, Central, 339948, Singapore",1.3222938499999999,103.86508845
BENDEMEER SECONDARY SCHOOL,http://www.bendemeersec.moe.edu.sg,1    ST WILFRED ROAD,327919,62927616,na,62932594,na,BENDEMEER_SS@MOE.EDU.SG,BOON KENG MRT,"13,  23,  31,  64,  65,  66, 125, 133, 140, 147, 857, 985",MR CHEN FOOK PANG,MR LAWRENCE POON YEW LEE,MR HO CHI CHENG,,,,,KALLANG,SOUTH,GOVERNMENT SCHOOL,CO-ED SCHOOL,SINGLE SESSION,SECONDARY,No,No,No,No,Chinese,Malay,Tamil,"Bendemeer Secondary School, 1, St Wilfred Road, Kallang, Central, 327919, Singapore",1.3244863,103.86048595880919
BLANGAH RISE PRIMARY SCHOOL,http://www.blangahrisepri.moe.edu.sg/,91   TELOK BLANGAH HEIGHTS,109100,62717387,na,62763037,na,BRPS@MOE.EDU.SG,"Telok Blangah, Tiong Bahru & Redhill",SBS 273 & 124,MR FRANCIS FOO,MDM ONG AI SIAN,MRS LEONG-HO HIL MAY,,,,,BUKIT MERAH,SOUTH,GOVERNMENT SCHOOL,CO-ED SCHOOL,SINGLE SESSION,PRIMARY,No,No,No,No,Chinese,Malay,Tamil,"Blangah Rise Primary School, 91, Telok Blangah Heights, Alexandra, Southwest, 109100, Singapore",1.27640575,103.80880997314256
BOON LAY GARDEN PRIMARY SCHOOL,www.boonlaygardenpri.moe.edu.sg,20   BOON LAY DRIVE,649930,63160998,na,63160209,na,BLGPS@MOE.EDU.SG,Lakeside & Boon Lay,"30,99,154,178,180,187,240,246",MDM CHRISTINE LIM MIN HUI,MDM HOONG WHEE SIEN,,,,,,JURONG WEST,WEST,GOVERNMENT SCHOOL,CO-ED SCHOOL,SINGLE SESSION,PRIMARY,No,No,No,No,Chinese,Malay,Tamil,"Boon Lay Garden Primary School, 20, Boon Lay Drive, Boon Lay, Jurong West, Southwest, 649930, Singapore",1.3428882,103.71293314363199
BOON LAY SECONDARY SCHOOL,https://www.boonlaysec.moe.edu.sg,11   JURONG WEST STREET 65,648354,67940161,na,67941324,na,BLSS@MOE.EDU.SG,BOON LAY MRT,"99, 181, 192, 193, 242, 243, 257, 502, 502A",MR INDERJIT SINGH,MR ABDULATTIF S/O ABDULLAH,MISS SHARON SHEN QIUHUA,,,,,JURONG WEST,WEST,GOVERNMENT SCHOOL,CO-ED SCHOOL,SINGLE SESSION,SECONDARY,No,No,No,No,Chinese,Malay,Tamil,"Boon Lay Secondary School, 11, Jurong West Street 65, Jurong West, Southwest, 648354, Singapore",1.3427581000000002,103.70167376032693
BOWEN SECONDARY SCHOOL,http://www.bowensec.moe.edu.sg,2    LORONG NAPIRI,547529,63859466,na,63856559,na,BOWEN_SS@MOE.EDU.SG,"HOUGANG MRT, SERANGOON MRT, SENGKANG MRT","43, 70, 73, 103, 109, 156, 854, 25, 74, 74E, 76, 112, 132, 147, 165, 55",MR LIU EARNLER,MISS LIM GUIHAO,MR TAY YONG SEAH MELVIN,,,,,HOUGANG,NORTH,GOVERNMENT SCHOOL,CO-ED SCHOOL,SINGLE SESSION,SECONDARY,No,No,No,No,Chinese,Malay,Tamil,"Hougang, Northeast, 547529, Singapore",1.3707120974920144,103.87757681977912
BROADRICK SECONDARY SCHOOL,http://www.broadricksec.moe.edu.sg,61   DAKOTA CRESCENT,399935,63445025,na,64471427,na,BROADRICK_SS@MOE.EDU.SG,DAKOTA MRT,"10, 16, 30, 31, 32, 33",MDM TAN LAY HONG,MDM SUTINAH BINTE TAIB,"MR QUEK POH BENG, KENNETH",,,,,GEYLANG,EAST,GOVERNMENT SCHOOL,CO-ED SCHOOL,SINGLE SESSION,SECONDARY,No,No,No,No,Chinese,Malay,Tamil,"Broadrick Secondary School, 61, Dakota Crescent, Marine Parade, Southeast, 399935, Singapore",1.30726495,103.88688663729529
BUKIT BATOK SECONDARY SCHOOL,http://www.bukitbatoksec.moe.edu.sg,50   BUKIT BATOK WEST AVE 8,658962,65663121,na,65607006,na,bbss@moe.edu.sg,BUKIT BATOK MRT,"66, 66B, 157, 174, 174E, 178, 506, 941, 991",MR PHUA HUAT CHUAN,MR MAK YEW CHONG,MR WU TIAN HWEE,,,,,BUKIT BATOK,WEST,GOVERNMENT SCHOOL,CO-ED SCHOOL,SINGLE SESSION,SECONDARY,No,No,No,No,Chinese,Malay,Tamil,"Bukit Batok Secondary School, 50, Bukit Batok West Avenue 8, Bukit Batok, Southwest, 658962, Singapore",1.3484109000000002,103.7407153883717
BUKIT MERAH SECONDARY SCHOOL,http://www.bukitmerahsec.moe.edu.sg,10   LENGKOK BAHRU,159050,64748934,na,64744122,na,bmss@moe.edu.sg,REDHILL MRT,"14, 32, 33, 63, 64, 120, 132, 139, 145, 147, 196, 197, 855, 961",MR CHENG GHEE HOCK TIMOTHY,MR KOH YONG HWEE DARYL,MDM YAP SHARON,,,,,BUKIT MERAH,SOUTH,GOVERNMENT SCHOOL,CO-ED SCHOOL,SINGLE SESSION,SECONDARY,No,No,No,No,Chinese,Malay,Tamil,"Bukit Merah Secondary School, 10, Lengkok Bahru, Bukit Merah, Central, 159050, Singapore",1.2859241,103.81302160740091
BUKIT PANJANG GOVT. HIGH SCHOOL,http://www.bpghs.moe.edu.sg,7    CHOA CHU KANG AVE 4,689809,67691031,na,67626576,na,BPGHS@MOE.EDU.SG,CHOA CHU KANG MRT,"300, 983",MR CHUA LEK HONG,MR LING TING LIANG EDMUND,,,,,,CHOA CHU KANG,WEST,GOVERNMENT SCHOOL,CO-ED SCHOOL,SINGLE SESSION,SECONDARY,No,Yes,No,No,Chinese,Malay,Tamil,"Bukit Panjang Government High School, 7, Choa Chu Kang Avenue 4, Choa Chu Kang, Southwest, 689809, Singapore",1.3820990499999999,103.73832067108246
BUKIT PANJANG PRIMARY SCHOOL,http://www.bukitpanjangpri.moe.edu.sg,109  CASHEW ROAD,679676,67691912,na,67637462,na,BPPS@MOE.EDU.SG,From Pending LRT station to Choa Chu Kang MRT station,"75, 184",MR BUCKTHA SEELAN,MDM KAY HWEE GEAK,,,,,,BUKIT PANJANG,WEST,GOVERNMENT SCHOOL,CO-ED SCHOOL,SINGLE SESSION,PRIMARY,No,No,No,No,Chinese,Malay,Tamil,"Bukit Panjang Primary School, 109, Cashew Road, Bukit Panjang, Northwest, 679676, Singapore",1.37341685,103.76942916071428
BUKIT TIMAH PRIMARY SCHOOL,http://www.bukittimahpri.moe.edu.sg,111  Lorong Kismis,598112,64662863,na,64692179,na,bukittimahps@moe.edu.sg,"Beauty World, Bukit Batok and Clementi Stations",173,MDM LEN LENG LENG TERESA KELLY,MR WONG SUNG LAI,MDM KITHA D/O ARUMUGAM,,,,,BUKIT TIMAH,WEST,GOVERNMENT SCHOOL,CO-ED SCHOOL,SINGLE SESSION,PRIMARY,No,No,No,No,Chinese,Malay,Tamil,"Bukit Timah Primary School, 111, Lorong Kismis, Southwest, 598112, Singapore",1.33751905,103.76684937098565
BUKIT VIEW PRIMARY SCHOOL,http://www.bukitviewpri.moe.edu.sg,18   BUKIT BATOK STREET 21,659634,65661980,na,65635015,na,bukitview_ps@moe.edu.sg,Bukit Batok MRT Station,"173,157,178,852,66,106,61,506,963,77",MDM KOH YUEN CHOO,MDM TEO ENG HUI,,,,,,BUKIT BATOK,WEST,GOVERNMENT SCHOOL,CO-ED SCHOOL,SINGLE SESSION,PRIMARY,No,No,No,No,Chinese,Malay,Tamil,"Bukit View Primary School, 18, Bukit Batok Street 21, Bukit Batok, Southwest, 659634, Singapore",1.34570095,103.7535184997777
BUKIT VIEW SECONDARY SCHOOL,https://www.bukitviewsec.moe.edu.sg,16   BUKIT BATOK STREET 21,659633,65661990,na,65630945,na,BUKITVIEW_SS@MOE.EDU.SG,BUKIT BATOK MRT,"61, 66, 77, 106, 157, 173, 174, 178, 189, 506, 653, 852, 963, 990",MR KEVIN ANG,MISS WONG KAH WAI SHIRLEY,MR ANG CHERN KWANG KYRIS,,,,,BUKIT BATOK,WEST,GOVERNMENT SCHOOL,CO-ED SCHOOL,SINGLE SESSION,SECONDARY,No,No,No,No,Chinese,Malay,Tamil,"Bukit View Secondary School, 16, Bukit Batok Street 21, Bukit Batok, Southwest, 659633, Singapore",1.34569905,103.75219202760816
CANBERRA PRIMARY SCHOOL,http://www.canberrapri.moe.edu.sg,21   ADMIRALTY DRIVE,757714,67597433,na,67587312,na,CANBERRA_PS@MOE.EDU.SG,Sembawang MRT Station,Bus No. 859,MR WONG POO MUN,MS HO STEPHANIE LOUISE,MR SHAH JAHAN B MOHAMED IQBAL,,,,,SEMBAWANG,NORTH,GOVERNMENT SCHOOL,CO-ED SCHOOL,SINGLE SESSION,PRIMARY,No,No,No,No,Chinese,Malay,Tamil,"21, Admiralty Drive, Haruru, Bay of Islands-Whangaroa Community, Far North District, Northland, 0204, New Zealand / Aotearoa",-35.2793376,174.0413023
CANBERRA SECONDARY SCHOOL,https://canberrasec.moe.edu.sg,51   SEMBAWANG DRIVE,757699,67585070,na,67583110,na,CANBERRA_SS@MOE.EDU.SG,SEMBAWANG MRT,"859, 962",MR NG TIONG NAM,MS TNG YA WEN VALERIE,MDM ONG LAY YEN,,,,,SEMBAWANG,NORTH,GOVERNMENT SCHOOL,CO-ED SCHOOL,SINGLE SESSION,SECONDARY,No,No,No,No,Chinese,Malay,Tamil,"Canberra Secondary School, 51, Sembawang Drive, Sembawang, Northwest, 757699, Singapore",1.45374325,103.81422793735004
CANOSSA CATHOLIC PRIMARY SCHOOL,https://canossacatholicpri.moe.edu.sg/,1    Sallim Road,387621,68441418,na,68441417,na,ccps@moe.edu.sg,Nearest MRT station: Mattar Station (about 7-minute walk),"Aljunied Road (same side as CCPS): 62, 64, 100    Aljunied Road (opposite CCPS): 61, 62, 64, 66, 100, 135, 154, 155    Merpati Rd (after Jln Anggerek): 40, 61, 63, 65, 66, 135,",MDM SIA LU-MING EUGENIE,MR LEE KOK MENG CLEMENT,,,,,,GEYLANG,EAST,GOVERNMENT-AIDED SCH,CO-ED SCHOOL,SINGLE SESSION,PRIMARY,No,No,No,No,Chinese,Malay,Tamil,"Canossian School, 1, Sallim Road, Geylang, Southeast, 387621, Singapore",1.3266014,103.88105039708165
CANTONMENT PRIMARY SCHOOL,http://www.cantonmentpri.moe.edu.sg,1    Cantonment Close,88256,65119555,na,65119556,na,cantonment_ps@moe.edu.sg,Tanjong Pagar Outram Park,"75, 167, 196",MRS MANOKARA SUGUNAVATHI,MRS AUDREA CHIN,MISS CHENG SHIN MIIN,,,,,BUKIT MERAH,SOUTH,GOVERNMENT SCHOOL,CO-ED SCHOOL,SINGLE SESSION,PRIMARY,No,No,No,No,Chinese,Malay,Tamil,"Cantonment Primary School, 1, Cantonment Close, Bukit Merah, Central, 088256, Singapore",1.2758142000000001,103.83988838698619
CASUARINA PRIMARY SCHOOL,http://www.casuarinapri.moe.edu.sg/,30   PASIR RIS ST 41,518935,65837132,na,65836227,na,CASUARINA_PS@MOE.EDU.SG,Pasir Ris MRT Station,"Nos. 12, 21 & 358",MDM ONG KWEE LAN,MR WONG JUNFU STEVEN,MR TAYEB B RAJIB,,,,,PASIR RIS,EAST,GOVERNMENT SCHOOL,CO-ED SCHOOL,SINGLE SESSION,PRIMARY,No,No,No,No,Chinese,Malay,Tamil,"Casuarina Primary School, 30, Pasir Ris Street 41, Pasir Ris, Northeast, 518935, Singapore",1.3728079,103.9572278570395
CATHOLIC HIGH SCHOOL,http://www.catholichigh.moe.edu.sg,9    BISHAN STREET 22,579767,64582177 (Secondary),64589869 (Primary),64561322 (Secondary),64593938 (Primary),chs@moe.edu.sg,BISHAN MRT,"13, 52, 54, 88, 156, 162, 162M, 410",MR POH CHUN LECK,MISS HO PING PING,MS TAN PEY SAN,MR TAN KELLY,,,,BISHAN,NORTH,GOVERNMENT-AIDED SCH,BOYS' SCHOOL,SINGLE SESSION,MIXED LEVELS,Yes,Yes,Yes,Yes,Chinese,na,na,"Catholic High School, 9, Bishan Street 22, Bishan, Central, 579767, Singapore",1.35492755,103.84498827399534
CATHOLIC JUNIOR COLLEGE,https://cjc.moe.edu.sg/,129  WHITLEY ROAD,297822,62524083,na,62537267,na,catholic_jc@moe.edu.sg,"Toa Payoh (NS Line),  Novena (NS Line),  Stevens (DT Line),  Caldecott (CC Line,TE Line)","105, 132, 151, 153, 154, 156, 186, 966, 985",MDM CHUA SUAN GEK PHYLLIS,MR TAN JEK SUAN,MDM KAM WAI CHIN,,,,,NOVENA,SOUTH,GOVERNMENT-AIDED SCH,CO-ED SCHOOL,FULL DAY,JUNIOR COLLEGE,No,No,No,No,na,na,na,"Catholic Junior College, 129, Whitley Road, Novena, Central, 297822, Singapore",1.3252735,103.8353627983077
CEDAR GIRLS' SECONDARY SCHOOL,http://www.cedargirlssec.moe.edu.sg,1    CEDAR AVENUE,349692,62884909,na,62820244,na,cedargirlss@moe.edu.sg,"WOODLEIGH MRT, POTONG PASIR MRT, MATTAR MRT","8, 13, 61, 64, 65, 66, 90, 100, 107, 133, 135, 142, 147, 151, 154, 155, 853",MDM TEY KAH HWEE,MDM LIM YING YING,MDM TAN GEOK LAN,,,,,TOA PAYOH,EAST,GOVERNMENT SCHOOL,GIRLS' SCHOOL,SINGLE SESSION,SECONDARY,No,Yes,No,Yes,Chinese,Malay,Tamil,"Cedar Girls' Secondary School, 1, Cedar Avenue, Joo Seng, Southeast, 349692, Singapore",1.33421505,103.87425205458916
CEDAR PRIMARY SCHOOL,Http://www.cedarpri.moe.edu.sg,15   CEDAR AVENUE,349700,62885633,na,62830113,na,CEDAR_PS@MOE.EDU.SG,Potong Pasir MRT Station,"8, 61, 64, 65, 66, 66A, 90, 90A, 100, 135, 151, 154, 155",MR CHRIS CHUA,MS CHOONG PEI CHIN,MDM NUR RASHIDAH BTE ABDUL RASHID,,,,,TOA PAYOH,SOUTH,GOVERNMENT SCHOOL,CO-ED SCHOOL,SINGLE SESSION,PRIMARY,No,No,No,No,Chinese,Malay,Tamil,"15, Cedar Avenue, Suffolk County, New York, 11727, United States",40.8926674,-73.03044016171039
CHANGKAT CHANGI SECONDARY SCHOOL,http://www.changkatchangisec.moe.edu.sg,23   SIMEI ST 3,529894,67859790,na,67868481,na,CHANGKATCHGI@MOE.EDU.SG,SIMEI MRT,"5, 9, 20, 38",MR HO MING DA,MISS LOH SEIN LING,MR DANNY CHEW POH HUAT,,,,,TAMPINES,EAST,GOVERNMENT SCHOOL,CO-ED SCHOOL,SINGLE SESSION,SECONDARY,No,No,No,No,Chinese,Malay,Tamil,"Changkat Changi Secondary School, 23, Simei Street 3, Simei, Southeast, 529894, Singapore",1.3404936,103.9529812112048
CHANGKAT PRIMARY SCHOOL,http://www.changkatpri.moe.edu.sg/,11   SIMEI ST 3,529896,67830923,na,67844740,na,CHANGKAT_PS@MOE.EDU.SG,Simei MRT Station,"9,38,5",MDM CHENG HUEY TENG,MDM SITI NAZRAH BTE ABDUL RAHMAN,,,,,,TAMPINES,EAST,GOVERNMENT SCHOOL,CO-ED SCHOOL,SINGLE SESSION,PRIMARY,No,No,No,No,Chinese,Malay,Tamil,"Changkat Primary School, 11, Simei Street 3, Simei, Southeast, 529896, Singapore",1.33982335,103.95227531092621
CHIJ (KATONG) PRIMARY,http://chijkcp.moe.edu.sg/,17   MARTIA ROAD,424821,63443072,na,63459007,na,CHIJKTPS@moe.edu.sg,EUNOS PAYA LEBAR,"15, 55, 36, 16, 135, 197, 196, 31, 13, 76, 12, 10, 14, 32, 40",MDM CHUA SOOK LIAN JUDINA,MDM TAN POH KUAN JOYCELYN,,,,,,BEDOK,EAST,GOVERNMENT-AIDED SCH,GIRLS' SCHOOL,SINGLE SESSION,PRIMARY,No,No,No,No,Chinese,Malay,Tamil,"CHIJ (Katong) Primary School, 17, Martia Road, Bedok, Southeast, 424821, Singapore",1.30643785,103.91083201080629
CHIJ (KELLOCK),http://www.chijkellock.moe.edu.sg/,1    Bukit Teresa Road,99757,62730096,na,62731710,na,CHIJKS@MOE.EDU.SG,Outram Park Station,"61, 124, 143, 166",MRS SHANTHI SURAJ NAIR,MS NG CHIOU HIEN HELEN,MRS CHAN-TIONG LE CHIN,,,,,BUKIT MERAH,SOUTH,GOVERNMENT-AIDED SCH,GIRLS' SCHOOL,SINGLE SESSION,PRIMARY,No,No,No,No,Chinese,Malay,Tamil,"CHIJ (Kellock) Primary School, 1, Bukit Teresa Road, Bukit Purmei Ville, Bukit Merah, Central, 099757, Singapore",1.274664,103.8280550817506
CHIJ KATONG CONVENT,http://www.chijkatongconvent.moe.edu.sg,346  MARINE TERRACE,449150,64486433,na,64494405,na,chijktcs@moe.edu.sg,"BEDOK MRT, KEMBANGAN MRT, EUNOS MRT, PAYA LEBAR MRT","4N, 13, 16, 31, 36, 36A, 36B, 43, 47, 48, 55, 134, 135, 135A, 150, 196, 196E, 197, 853C, 763",MDM CHAN GEK SAN PATRICIA,MDM ONG BEE HOON,MISS LIM AI HUI ANNIE,,,,,MARINE PARADE,EAST,GOVERNMENT-AIDED SCH,GIRLS' SCHOOL,SINGLE SESSION,SECONDARY,No,Yes,No,No,Chinese,Malay,Tamil,"CHIJ Katong Convent School, 346, Marine Terrace, Marine Parade, Southeast, 449150, Singapore",1.30633255,103.91778620715004
CHIJ OUR LADY OF GOOD COUNSEL,http://www.chijourladyofgoodcounsel.moe.edu.sg,2C   Burghley Drive,558979,62886930,na,62814132,na,chijolgcs@moe.edu.sg,"Ang Mo Kio MRT, Bishan MRT, Serangoon MRT station.","317 Feeder Bus Service from Serangoon Interchange. 135,136 from Ang Mo Kio Interchange.",MISS TAN LEE YIN GRACE,MRS WONG-LIM ENG LING ANGELINA,MISS LIAT MEI KUEN GERALDINE SHARON,,,,,SERANGOON,SOUTH,GOVERNMENT-AIDED SCH,GIRLS' SCHOOL,SINGLE SESSION,PRIMARY,No,No,No,No,Chinese,Malay,Tamil,"CHIJ (Our Lady of Good Counsel) Primary School, 2C, Burghley Drive, Serangoon, Southeast, 558979, Singapore",1.3577786,103.86393027516013
CHIJ OUR LADY OF THE NATIVITY,http://www.chijourladyofthenativity.moe.edu.sg/,1257 UPPER SERANGOON ROAD,534793,63852455,na,63852012,na,chijoln@moe.edu.sg,Hougang MRT,"74, 102, 112, 113, 119, 136, 147, 324, 672",MDM CHRISTINA TEO,MDM YEO DAI YUN,MDM LIM HUI MEOW ANNIE,,,,,HOUGANG,SOUTH,GOVERNMENT-AIDED SCH,GIRLS' SCHOOL,SINGLE SESSION,PRIMARY,No,No,No,No,Chinese,Malay,Tamil,"CHIJ (Our Lady of the Nativity) Primary School, 1257, Upper Serangoon Road, Hougang, Northeast, 534793, Singapore",1.37311065,103.89768985814462
CHIJ OUR LADY QUEEN OF PEACE,http://www.chijourladyqueenofpeace.moe.edu.sg/,4    Chestnut Drive,679287,67691529,na,67653551,na,CHIJOLQP@MOE.EDU.SG,Cashew and Hillview,"180, 67, 171, 176, 177, 178, 184, 961, 963, 970",MS ALBUQUERQUE KAREN ANNE,MISS CECILIA TAN LI HUA,MDM LOH AH LAH CATHERINE MICHELLE,,,,,BUKIT PANJANG,WEST,GOVERNMENT-AIDED SCH,GIRLS' SCHOOL,SINGLE SESSION,PRIMARY,No,No,No,No,Chinese,Malay,Tamil,"4, Chestnut Drive, Country Estates at East Hills, Roslyn, North Hempstead, Nassau County, New York, 11576, United States",40.8072465,-73.63181833189607
CHIJ PRIMARY (TOA PAYOH),http://www.chijpritoapayoh.moe.edu.sg,628  Lorong 1 Toa Payoh,319765,63532164,na,63536362,na,CHIJTPPS@MOE.EDU.SG,Toa Payoh,"59, 231, 141",DR TAN SOON KEE MARGARET,MDM MISCHA LEIGH PEREIRA,MRS CHARMAINE LEE,,,,,TOA PAYOH,SOUTH,GOVERNMENT-AIDED SCH,GIRLS' SCHOOL,SINGLE SESSION,PRIMARY,No,No,No,No,Chinese,Malay,Tamil,"CHIJ (Toa Payoh) Primary School, 628, Lorong 1 Toa Payoh, Toa Payoh, Central, 319765, Singapore",1.3331269,103.84240300250805
CHIJ SECONDARY (TOA PAYOH),http://www.chijsec.edu.sg,626  LORONG 1 TOA PAYOH,319764,63534972,na,63544573,na,CHIJTPSS@MOE.EDU.SG,TOA PAYOH MRT,"59, 141, 231",MDM RACHEL ANG LAY KOON,MISS TEO GEOK SIAN,MISS PHUA AI LING ADELINE,,,,,TOA PAYOH,SOUTH,GOVERNMENT-AIDED SCH,GIRLS' SCHOOL,SINGLE SESSION,SECONDARY,No,Yes,No,No,Chinese,Malay,Tamil,"CHIJ (Toa Payoh) Secondary School, 626, Lorong 1 Toa Payoh, Toa Payoh, Central, 319764, Singapore",1.3326721,103.84284656956811
CHIJ ST. JOSEPH'S CONVENT,http://www.chijstjosephsconvent.moe.edu.sg,62   SENGKANG EAST WAY,548595,64897580,na,64897589,na,CHIJSJCS@MOE.EDU.SG,SENGKANG MRT,"50, 82, 86, 88, 119, 136",MRS VALERIE PINTO,MISS TAN KIM BERLINA,MISS HO WEI LING,,,,,SENG KANG,NORTH,GOVERNMENT-AIDED SCH,GIRLS' SCHOOL,SINGLE SESSION,SECONDARY,No,No,No,No,Chinese,Malay,Tamil,"CHIJ St Joseph's Convent, 62, Sengkang East Way, Seng Kang, Northeast, 548595, Singapore",1.39185175,103.90248663868363
CHIJ ST. NICHOLAS GIRLS' SCHOOL,http://www.chijstnicholasgirls.moe.edu.sg,501  ANG MO KIO STREET 13,569405,63541839 (Secondary),64549698 (Primary),64511335 (Secondary),64566169 (Primary),chijsng_sec@moe.edu.sg,"ANG MO KIO MRT, YIO CHU KANG MRT, MAYFLOWER MRT (End 2021)","76, 265, 268, 269",MDM FIONA YEO SU LING,MISS YEO TECK WOON,MS BAEY EE-LYN,MDM AMY TAN,MR TING POH LEONG ALOYSIUS,,,ANG MO KIO,NORTH,GOVERNMENT-AIDED SCH,GIRLS' SCHOOL,SINGLE SESSION,MIXED LEVELS,Yes,Yes,No,Yes,Chinese,na,na,"CHIJ St Nicholas Girls' School, 501, Ang Mo Kio Street 13, Ang Mo Kio, Central, 569405, Singapore",1.37344905,103.83407767975933
CHIJ ST. THERESA'S CONVENT,http://www.chijsttheresasconvent.moe.edu.sg,160  LOWER DELTA ROAD,99138,64775777,na,64775700,na,CHIJSTCS@MOE.EDU.SG,"HARBOURFRONT MRT, TIONG BAHRU MRT","65, 121, 123, 123M, 124, 131, 131M, 195, 195A, 272, 855",MDM TAN MEI MEI JENNY,MDM ONG LEE LEE,"MISS KUO ZHAOYAN, FELICIA",,,,,BUKIT MERAH,SOUTH,GOVERNMENT-AIDED SCH,GIRLS' SCHOOL,SINGLE SESSION,SECONDARY,No,No,No,No,Chinese,Malay,Tamil,"CHIJ St. Theresa's Convent, 160, Lower Delta Road, Radin Mas, Bukit Merah, Central, 099138, Singapore",1.27614885,103.8222529475166
CHONGFU SCHOOL,http://www.chongfu.moe.edu.sg/,170  YISHUN AVENUE 6,768959,67585527,na,62579571,na,CFS@MOE.EDU.SG,Yishun MRT station,Feeder Service 811,MDM FOO MUI CHUW,MR SOON WOO SIN,MISS LIM HWEE MIEN ANGELYNNA,,,,,YISHUN,NORTH,GOVERNMENT-AIDED SCH,CO-ED SCHOOL,SINGLE SESSION,PRIMARY,No,No,No,No,Chinese,Malay,Tamil,"Chongfu Primary School, 170, Yishun Avenue 6, Yishun, Northwest, 768959, Singapore",1.4387276,103.83929013137512
CHONGZHENG PRIMARY SCHOOL,http://www.chongzhengpri.moe.edu.sg,1    TAMPINES STREET 21,529392,67819002,na,67845054,na,czps@moe.edu.sg,Tampines MRT Station,"3,3A, 8, 17, 18, 20, 28, 34, 39, 59, 518",MR LIM WEE JAMES,MDM RANJIT KAUR D/O MUKHTAR SINGH,,,,,,TAMPINES,EAST,GOVERNMENT SCHOOL,CO-ED SCHOOL,SINGLE SESSION,PRIMARY,No,No,No,No,Chinese,Malay,Tamil,"Chongzheng Primary School, 1, Tampines Street 21, Tampines, Northeast, 529392, Singapore",1.35054425,103.95092058934961
CHRIST CHURCH SECONDARY SCHOOL,http://www.christchurchsec.moe.edu.sg,20   WOODLANDS DRIVE 17,737924,68933297,na,68932789,na,ccss@moe.edu.sg,"WOODLANDS MRT, WOODLANDS SOUTH MRT","901, 901M, 665",MR LAU YAN BOON DAVID,MR ONG KAH HUI VICTOR,MRS LEE BEE CHEOW,,,,,WOODLANDS,NORTH,GOVERNMENT-AIDED SCH,CO-ED SCHOOL,SINGLE SESSION,SECONDARY,No,No,No,No,Chinese,Malay,Tamil,"Christ Church Secondary School, 20, Woodlands Drive 17, Woodlands, Northwest, 737924, Singapore",1.42666655,103.79314665636525
CHUA CHU KANG PRIMARY SCHOOL,http://www.chuachukangpri.moe.edu.sg,20   CHOA CHU KANG AVENUE 2,689905,67661574,na,67661583,na,cckps@moe.edu.sg,Choa Chu Kang MRT Station and Southview LRT Station,"Bus Service 300, 301 and NR3 along Chua Chu Kang Ave 2 Bus Service 172, 301, 991 along Chua Chu Kang Ave 1",MDM KUEK YEN YEN SHEREE,MDM CHEW BOON HWEE,,,,,,CHOA CHU KANG,WEST,GOVERNMENT SCHOOL,CO-ED SCHOOL,SINGLE SESSION,PRIMARY,No,No,No,No,Chinese,Malay,Tamil,"Chua Chu Kang Primary School, 20, Choa Chu Kang Avenue 2, Choa Chu Kang, Southwest, 689905, Singapore",1.37793775,103.74198414587175
CHUA CHU KANG SECONDARY SCHOOL,http://www.chuachukangsec.moe.edu.sg,3    TECK WHYE CRESCENT,688845,67655228,67664425,67636807,na,CCKSS@MOE.EDU.SG,CHOA CHU KANG MRT,"190, 307, 975, 982E, 985",MDM ONG LIANG FUNG,MDM HARTATI BTE OSMAN,,,,,,CHOA CHU KANG,WEST,GOVERNMENT SCHOOL,CO-ED SCHOOL,SINGLE SESSION,SECONDARY,No,No,No,No,Chinese,Malay,Tamil,"Chua Chu Kang Secondary School, 3, Teck Whye Crescent, Choa Chu Kang, Southwest, 688845, Singapore",1.38350835,103.75154241451996
CHUNG CHENG HIGH SCHOOL (MAIN),http://www.chungchenghighmain.moe.edu.sg,50   GOODMAN ROAD,439012,63441393,na,63449686,na,CCHMS@MOE.EDU.SG,DAKOTA MRT,"10, 12, 14, 16, 16M, 30, 31, 32, 33, 40, 43, 135, 134, 196, 197",MR CHAN YING YIN,DR ONG CHUN GHEE,"MDM TAN JWEE LYNN, CHERYL",,,,,MARINE PARADE,EAST,GOVERNMENT-AIDED SCH,CO-ED SCHOOL,SINGLE SESSION,SECONDARY,Yes,Yes,No,No,Chinese,na,na,"Chung Cheng High School (Main), 50, Goodman Road, Marine Parade, Southeast, 439012, Singapore",1.3053550999999999,103.8917707808657
CHUNG CHENG HIGH SCHOOL (YISHUN),http://www.chungchenghighyishun.moe.edu.sg,11   YISHUN STREET 61,768547,67583912,na,67587397,na,cchys@moe.edu.sg,KHATIB MRT,"85, 811, 812, 851, 852, 853, 854, 855, 858, 860, 965, 969",MR TAN YEE KAN,MRS CHONG LAI PENG NEE YEO,MR CHANG FOOK YONG,,,,,YISHUN,NORTH,GOVERNMENT-AIDED SCH,CO-ED SCHOOL,SINGLE SESSION,SECONDARY,No,No,No,No,Chinese,Malay,Tamil,"Chung Cheng High School (Yishun), 11, Yishun Street 61, Yishun, Northwest, 768547, Singapore",1.41910045,103.83728733872445
CLEMENTI PRIMARY SCHOOL,http://www.clementipri.moe.edu.sg,8    CLEMENTI AVE 3,129903,67797449,na,67732898,na,admin_clementi_ps@moe.edu.sg,Clementi MRT Station,We are just beside Clementi Bus Interchange.,MR VIMALENTHIRAN S/O VIJAYASINGAM,MRS TAN SIEW HONG,,,,,,CLEMENTI,WEST,GOVERNMENT SCHOOL,CO-ED SCHOOL,SINGLE SESSION,PRIMARY,No,No,No,No,Chinese,Malay,Tamil,"Clementi Primary School, 8, Clementi Avenue 3, Clementi, Southwest, 129903, Singapore",1.31556955,103.76320883321443
CLEMENTI TOWN SECONDARY SCHOOL,http://www.clementitownsec.moe.edu.sg,10   CLEMENTI AVE 3,129904,67777362,na,67789543,na,ctss@moe.edu.sg,CLEMENTI MRT,"14, 105, 106, 147, 156, 165, 166, 173, 175, 184, 196, 282, 284, 285, 7, 96, 99",MDM LEE CHING GUAN HELEN,MISS LEONG KAI LING,MRS TAY CHEN LAI,,,,,CLEMENTI,WEST,GOVERNMENT SCHOOL,CO-ED SCHOOL,SINGLE SESSION,SECONDARY,No,No,No,No,Chinese,Malay,Tamil,"Clementi Town Secondary School, 10, Clementi Avenue 3, Clementi, Southwest, 129904, Singapore",1.31566085,103.7619064748706
COMMONWEALTH SECONDARY SCHOOL,http://www.commonwealthsec.moe.edu.sg,698  WEST COAST ROAD,608784,65606866,na,65645204,na,cwss@moe.edu.sg,"JURONG EAST MRT, CLEMENTI MRT","30, 51, 78, 79, 143, 143M, 176, 201",MR NG BOON KIAT,MR LEOW ZHI WEN PHILIBERT,,,,,,JURONG EAST,WEST,GOVERNMENT SCHOOL,CO-ED SCHOOL,SINGLE SESSION,SECONDARY,No,Yes,No,No,Chinese,Malay,Tamil,"Commonwealth Secondary School, 698, West Coast Road, Jurong East, Southwest, 608784, Singapore",1.31969715,103.74569995189142
COMPASSVALE PRIMARY SCHOOL,http://www.compassvalepri.moe.edu.sg/,21   COMPASSVALE ST,545091,63882819,na,63882798,na,cvps@moe.edu.sg,Sengkang,"83 (along Compassvale Street) 27, 89, 89E & 965 (along Compassvale Road).",MR JEFFREY AW,MDM YEOW CHERN EE,,,,,,SENG KANG,NORTH,GOVERNMENT SCHOOL,CO-ED SCHOOL,SINGLE SESSION,PRIMARY,No,No,No,No,Chinese,Malay,Tamil,"Compassvale Primary School, 21, Compassvale Street, Seng Kang, Northeast, 545091, Singapore",1.3945064,103.8980350715747
COMPASSVALE SECONDARY SCHOOL,http://www.compassvalesec.moe.edu.sg,51   COMPASSVALE CRESCENT,545083,68815047,na,68815998,na,CVSS@MOE.EDU.SG,"SENGKANG MRT, COMPASSVALE LRT","27, 27A, 82,  83,  86,  88,  89, 89E, 136, 161, 371, 965",MR CHIA CHOR YANN,MR SUKHDEV SINGH S/O GURDEEP SINGH,MISS KEE LEE LING,,,,,SENG KANG,NORTH,GOVERNMENT SCHOOL,CO-ED SCHOOL,SINGLE SESSION,SECONDARY,No,No,No,No,Chinese,Malay,Tamil,"Compassvale Secondary School, 51, Compassvale Crescent, Seng Kang, Northeast, 545083, Singapore",1.39652095,103.90014701267849
CONCORD PRIMARY SCHOOL,http://www.concordpri.moe.edu.sg/,3    CHOA CHU KANG AVE 4,689814,67632139,na,67632452,na,CONCORD_PS@MOE.EDU.SG,Choa Chu Kang MRT Station,Bus 300 and 983,MR TAN SIEW TIONG,MS LIM KAR WAE FIONA,MDM GOH PUAY HOON JENNY,,,,,CHOA CHU KANG,WEST,GOVERNMENT SCHOOL,CO-ED SCHOOL,SINGLE SESSION,PRIMARY,No,No,No,No,Chinese,Malay,Tamil,"Concord Primary School, 3, Choa Chu Kang Avenue 4, Choa Chu Kang, Southwest, 689814, Singapore",1.38021795,103.73633268488206
CORPORATION PRIMARY SCHOOL,http://www.corporationpri.moe.edu.sg,31   JURONG WEST STREET 24,648347,67957381,na,67957098,na,cps@moe.edu.sg,BOON LAY STATION LAKESIDE STATION,"157 (from Boon Lay Interchange), or 185",MRS JENNIFER PANG CHEE CHYN,MDM POON GEK HONG,MRS CHRISTINA TAN-LIM LAY LENG,,,,,JURONG WEST,WEST,GOVERNMENT SCHOOL,CO-ED SCHOOL,SINGLE SESSION,PRIMARY,No,No,No,No,Chinese,Malay,Tamil,"Corporation Primary School, 31, Jurong West Street 24, Jurong West, Southwest, 648347, Singapore",1.35142845,103.70769543642461
CRESCENT GIRLS' SCHOOL,http://www.crescent.edu.sg,357  TANGLIN ROAD,247961,64758711,na,64741248,na,CRESCENTGIRL@MOE.EDU.SG,REDHILL MRT,"32, 111, 122, 132, 51, 139, 186, 970",MRS HELEN CHONG,MISS USHA JEYARAJAH,,,,,,BUKIT MERAH,SOUTH,GOVERNMENT SCHOOL,GIRLS' SCHOOL,SINGLE SESSION,SECONDARY,No,Yes,No,No,Chinese,Malay,Tamil,"Crescent Girls' School, 357, Tanglin Road, Queenstown, Central, 247961, Singapore",1.2934392,103.81802376836586
CREST SECONDARY SCHOOL,http://www.crestsec.edu.sg,561  JURONG EAST STREET 24,609561,68992779,na,68992668,na,info@crestsec.edu.sg,"BUKIT BATOK MRT, JURONG EAST MRT","41, 52, 98, 98M, 105, 176, 183, 187, 188, 188R, 333, 502, 868, 990",MR SEET TIAT HEE,MR HO KUM FAI SAM,MR CHAN TECK HONG DAVID,,,,,JURONG EAST,WEST,SPECIALISED SCHOOL,CO-ED SCHOOL,SINGLE SESSION,SECONDARY,No,No,No,No,Chinese,Malay,Tamil,"Crest Secondary School, 561, Jurong East Street 24, Jurong East, Southwest, 609561, Singapore",1.34386705,103.74280532049548
DAMAI PRIMARY SCHOOL,http://www.damaipri.moe.edu.sg,52   BEDOK RESERVOIR CRESCENT,479226,64456483,na,64499681,na,DAMAI_PS@MOE.EDU.SG,Bedok North MRT Station,"Bus 228,66,65,22,21,5 and 506",MRS LEONG- TAN LING LING JENNY,MDM LIM PECK CHIN YENLYN,,,,,,BEDOK,EAST,GOVERNMENT SCHOOL,CO-ED SCHOOL,SINGLE SESSION,PRIMARY,No,No,No,No,Chinese,Malay,Tamil,"Damai Primary School, 52, Bedok Reservoir Crescent, Bedok, Northeast, 479226, Singapore",1.3354514,103.92139171652317
DAMAI SECONDARY SCHOOL,http://www.damaisec.moe.edu.sg,4800 BEDOK RESERVOIR ROAD,479229,64436848,na,64425629,na,damai_ss@moe.edu.sg,"BEDOK RESERVOIR MRT, BEDOK MRT, TAMPINES MRT","5, 21, 22, 59, 65, 66, 228, 506, CT18",MDM CHAN WAN SIONG,MRS OH WEE MING,MR SIVAKUMAR S/O VISWANATHAN,,,,,BEDOK,EAST,GOVERNMENT SCHOOL,CO-ED SCHOOL,SINGLE SESSION,SECONDARY,No,No,No,No,Chinese,Malay,Tamil,"Damai Secondary School, 4800, Bedok Reservoir Road, Bedok, Northeast, 479229, Singapore",1.337598,103.92682076787418
DAZHONG PRIMARY SCHOOL,http://www.dazhongpri.moe.edu.sg,35   BUKIT BATOK STREET 31,659441,65658002,na,65636421,na,dazhong_ps@moe.edu.sg,Bukit Gombak,"187, 188",MDM YAP SIU LIN,MR PHANG TECK HOW,MRS BOEY- LIM SEOW KHIM,,,,,BUKIT BATOK,WEST,GOVERNMENT SCHOOL,CO-ED SCHOOL,SINGLE SESSION,PRIMARY,No,No,No,No,Chinese,Malay,Tamil,"Dazhong Primary School, 35, Bukit Batok Street 31, Bukit Gombak, Bukit Batok, Southwest, 659441, Singapore",1.3591826,103.74796785698436
DE LA SALLE SCHOOL,http://www.delasalle.moe.edu.sg,11   Choa Chu Kang St 52,689285,67667675,na,67622075,na,dlss@moe.edu.sg,YEW TEE MRT,"TIBS 302, 979",MDM CHERYL CHOO SHUEH-LI,MR CHING KIN HIN,,,,,,CHOA CHU KANG,WEST,GOVERNMENT-AIDED SCH,CO-ED SCHOOL,SINGLE SESSION,PRIMARY,No,No,No,No,Chinese,Malay,Tamil,"De La Salle School, 11, Choa Chu Kang Street 52, Choa Chu Kang, Northwest, 689285, Singapore",1.3950086000000002,103.74325929182976
DEYI SECONDARY SCHOOL,http://www.deyisec.moe.edu.sg,1    ANG MO KIO STREET 42,569277,64561565,na,64583364,na,DEYI_SS@MOE.EDU.SG,ANG MO KIO MRT,"22, 24, 25, 45, 50, 55, 73, 74, 76, 88, 132, 135, 159, 162, 165, 261, 262, 268, 652, 853",MRS LIM AI POO,MDM TAN SHAO MAY,MR APOLLOS INDUCHOODAN S/O R A P,,,,,ANG MO KIO,SOUTH,GOVERNMENT SCHOOL,CO-ED SCHOOL,SINGLE SESSION,SECONDARY,No,No,No,No,Chinese,Malay,Tamil,"Deyi Secondary School, 1, Ang Mo Kio Street 42, Ang Mo Kio, Central, 569277, Singapore",1.3667377,103.85219102410963
DUNEARN SECONDARY SCHOOL,http://www.dunearnsec.moe.edu.sg,21   BUKIT BATOK WEST AVENUE 2,659204,65653692,na,65668650,na,DUNEARN_SS@MOE.EDU.SG,"BUKIT BATOK MRT, BUKIT GOMBAK MRT","160, 180, 187, 188, 945, 947, 985",MDM TAN MIAO LING,MRS SHANTHIMALAR SOMASUNDRAM,MISS TAY JIA MING JASMINE,,,,,BUKIT BATOK,WEST,GOVERNMENT SCHOOL,CO-ED SCHOOL,SINGLE SESSION,SECONDARY,No,No,No,No,Chinese,Malay,Tamil,"Dunearn Secondary School, 21, Bukit Batok West Avenue 2, Bukit Batok, Southwest, 659204, Singapore",1.36358465,103.74454623037288
DUNMAN HIGH SCHOOL,http://www.dunmanhigh.moe.edu.sg,10   TANJONG RHU ROAD,436895,63450533,na,63442316,na,DHS@MOE.EDU.SG,"ALJUNIED MRT, KALLANG MRT, MOUNTBATTEN MRT","12, 14, 30, 158, 196",MR LOW TECK ENG TONY,MISS LIE SUYIN JAMIE,MDM LEONG SOOK HING,MR CHUA KAH SHENG,,,,KALLANG,EAST,GOVERNMENT SCHOOL,CO-ED SCHOOL,SINGLE SESSION,MIXED LEVELS,Yes,Yes,Yes,Yes,Chinese,na,na,"Tanjong Rhu Road, Marine Parade, Southeast, 438178, Singapore",1.2980258,103.8850812
DUNMAN SECONDARY SCHOOL,http://www.dunmansec.moe.edu.sg,21   TAMPINES STREET 45,529093,67862668,na,67842164,na,DUNMAN_SS@MOE.EDU.SG,TAMPINES EAST MRT,"28, 29, 293",MR TOH THIAM CHYE,MRS CLAIRE CHO,MR MOHAMED SAYADI BIN MOHAMED NOR,,,,,TAMPINES,EAST,GOVERNMENT SCHOOL,CO-ED SCHOOL,SINGLE SESSION,SECONDARY,No,Yes,No,No,Chinese,Malay,Tamil,"Dunman Secondary School, 21, Tampines Street 45, Tampines, Northeast, 529093, Singapore",1.36116845,103.95601386964589
EAST SPRING PRIMARY SCHOOL,http://www.eastspringpri.moe.edu.sg,31   TAMPINES ST 33,529258,67866192,na,67866649,na,esps@moe.edu.sg,Tampines,"291, 28,18",MR WONG KIN MUN,MRS LEE-GOH SIEW LING MARIA,,,,,,TAMPINES,EAST,GOVERNMENT SCHOOL,CO-ED SCHOOL,SINGLE SESSION,PRIMARY,No,No,No,No,Chinese,Malay,Tamil,"East Spring Primary School, 31, Tampines Street 33, Tampines, Northeast, 529258, Singapore",1.3528815,103.96191726928652
EAST SPRING SECONDARY SCHOOL,http://www.eastspringsec.moe.edu.sg,30   TAMPINES STREET 34,529231,65873805,na,65873804,na,esss@moe.edu.sg,"TAMPINES MRT, TAMPINES EAST MRT","3, 4, 9, 12, 17, 18, 19, 21, 28, 29, 34, 37, 39, 59, 81, 291, 518",MISS HO SUSIE,MR ANG JOHNNY,MR TAN SHIN EIK,,,,,TAMPINES,EAST,GOVERNMENT SCHOOL,CO-ED SCHOOL,SINGLE SESSION,SECONDARY,No,No,No,No,Chinese,Malay,Tamil,"East Spring Secondary School, 30, Tampines Street 34, Tampines, Northeast, 529231, Singapore",1.3569738500000001,103.96108060454718
EDGEFIELD PRIMARY SCHOOL,http://www.edgefieldpri.moe.edu.sg,41   EDGEFIELD PLAINS,828869,63126091,na,63126093,na,edgefield_ps@moe.edu.sg,Punggol MRT,"3, 34, 62, 82, 83, 136",MR MICHEL SAW MUN SEONG,MR LOW KAH HENG THOMAS,MDM FAZILAH MARICAR D/O MD ALI M,,,,,PUNGGOL,NORTH,GOVERNMENT SCHOOL,CO-ED SCHOOL,SINGLE SESSION,PRIMARY,No,No,No,No,Chinese,Malay,Tamil,"Edgefield Primary School, 41, Edgefield Plains, Punggol, Northeast, 828869, Singapore",1.40035045,103.90752739305407
EDGEFIELD SECONDARY SCHOOL,http://www.edgefieldsec.moe.edu.sg,36   PUNGGOL FIELD,828814,68839511,na,63153120,na,edgefield_ss@moe.edu.sg,PUNGGOL MRT,"3, 34, 62, 82, 83, 119, 136, 381, 382G",MR LEE PECK PING,MDM LIM PUAY KHENG,MR BENSON TEO HONG GUAN,,,,,PUNGGOL,NORTH,GOVERNMENT SCHOOL,CO-ED SCHOOL,SINGLE SESSION,SECONDARY,No,No,No,No,Chinese,Malay,Tamil,"Edgefield Secondary School, 36, Punggol Field, Punggol, Northeast, 828814, Singapore",1.4002065,103.90231236583652
ELIAS PARK PRIMARY SCHOOL,http://www.eliasparkpri.moe.edu.sg,11   PASIR RIS STREET 52,518866,65844393,na,65844392,na,epps@moe.edu.sg,Pasir Ris MRT,"3, 15, 39, 53, 81, 88, 89, 357, 403, 518",MDM CHUA PEI PEI,MRS ESTHER SEE-LING SZENGEN,MR MOHAMAD NOOR BIN ABDUL MANAF @,,,,,PASIR RIS,EAST,GOVERNMENT SCHOOL,CO-ED SCHOOL,SINGLE SESSION,PRIMARY,No,No,No,No,Chinese,Malay,Tamil,"Elias Park Primary School, 11, Pasir Ris Street 52, Pasir Ris, Northeast, 828869, Singapore",1.37491195,103.94517579238352
ENDEAVOUR PRIMARY SCHOOL,https://endeavourpri.moe.edu.sg/,10   Admiralty Link,757521,64824650,64824835,64824670,na,endeavour_ps@moe.edu.sg,Sembawang MRT Station,"859, 962",MR KOH KIAN SENG THOMAS,MR RAZALI B SENIN,MDM CHUA HUI PIN,,,,,SEMBAWANG,NORTH,GOVERNMENT SCHOOL,CO-ED SCHOOL,SINGLE SESSION,PRIMARY,No,No,No,No,Chinese,Malay,na,"Endeavour Primary School, 10, Admiralty Link, Sembawang, Northwest, 757521, Singapore",1.4544299500000002,103.81757920859401
EUNOIA JUNIOR COLLEGE,http://www.eunoiajc.moe.edu.sg,2    Sin Ming Place,573838,63518388,na,63518399,na,eunoiajc@moe.edu.sg,"Bishan MRT Station, Marymount MRT Station, Ang Mo Kio MRT Station","13, 52, 74, 88, 130, 410G, 410W, 851, 852",MDM CHEANG MEI HENG,MR TAY JUNCHENG ADRIAN,MR CHEN XUANTING EDMUND,,,,,BISHAN,NORTH,GOVERNMENT SCHOOL,CO-ED SCHOOL,FULL DAY,JUNIOR COLLEGE,No,No,No,Yes,Chinese,Malay,Tamil,"Sin Ming Place, Bishan, Central, 575734, Singapore",1.3625614,103.8391388
EUNOS PRIMARY SCHOOL,http://www.eunospri.moe.edu.sg/,95   JALAN EUNOS,419529,67463336,na,67488554,na,eunos_ps@moe.edu.sg,Nearest MRT Station - Eunos,"Bus Services (SBS): 15, 21, 25, 51, 55, 63, 93, 94, 60 Bus Services (SMRT) : 61, 854, 966",MDM PHUA YIN LIN GRACE,MDM TAN KIM YAN,,,,,,GEYLANG,EAST,GOVERNMENT SCHOOL,CO-ED SCHOOL,SINGLE SESSION,PRIMARY,No,No,No,No,Chinese,Malay,Tamil,"Eunos Primary School, 95, Jalan Eunos, Geylang, Southeast, 419529, Singapore",1.32463215,103.90458530342072
EVERGREEN PRIMARY SCHOOL,http://www.evergreenpri.moe.edu.sg/,31   WOODLANDS CIRCLE,738908,63687705,na,63688084,na,EVERGREEN_PS@MOE.EDU.SG,Admiralty,"913(front), 911 & 858(back)",MDM RABIATHUL BAZRIYA D/O ABU BAKAR,MDM YEO SIAU YEN,MRS PETRINA KOH,,,,,WOODLANDS,NORTH,GOVERNMENT SCHOOL,CO-ED SCHOOL,SINGLE SESSION,PRIMARY,No,No,No,No,Chinese,Malay,Tamil,"Evergreen Primary School, 31, Woodlands Circle, Woodlands, Northwest, 738908, Singapore",1.44383025,103.79473608556
EVERGREEN SECONDARY SCHOOL,http://www.evergreensec.moe.edu.sg,11   WOODLANDS STREET 83,738489,63656392,na,63658083,na,EVERGREEN_SS@MOE.EDU.SG,WOODLANDS MRT,911,MR TOH KIM YONG VINCENT,MR CHUA TUNG KIAN,MR LAK YAU HUI,,,,,WOODLANDS,NORTH,GOVERNMENT SCHOOL,CO-ED SCHOOL,SINGLE SESSION,SECONDARY,No,No,No,No,Chinese,Malay,Tamil,"Evergreen Secondary School, 11, Woodlands Street 83, Woodlands, Northwest, 738489, Singapore",1.44173915,103.79402384418674
FAIRFIELD METHODIST SCHOOL (PRIMARY),http://www.fmsp.moe.edu.sg/,100  DOVER ROAD,139648,67788431,na,67762948,na,fmsp@moe.edu.sg,"One-North MRT, Buona Vista MRT & Dover MRT","SBS Bus 14,33,74,166 & 196",MDM LAW LI MEI,MDM QUEK TSUI LAN PRISCA,,,,,,QUEENSTOWN,SOUTH,GOVERNMENT-AIDED SCH,CO-ED SCHOOL,SINGLE SESSION,PRIMARY,No,No,No,No,Chinese,Malay,Tamil,"Fairfield Methodist Primary School, 100, Dover Road, Nepal Hill, Pasir Panjang, Southwest, 139648, Singapore",1.30081995,103.7856489598941
FAIRFIELD METHODIST SCHOOL (SECONDARY),http://www.fairfieldmethodistsec.moe.edu.sg,102  DOVER ROAD,139649,67788702,na,67797482,na,FMSS@MOE.EDU.SG,"BUONA VISTA MRT, ONE-NORTH MRT","33, 74, 166, 196",MS CHEN LI YING AUDREY,MR LIM SIN HENG,MR LIM YONG CHAI ALAN,,,,,QUEENSTOWN,SOUTH,GOVERNMENT-AIDED SCH,CO-ED SCHOOL,SINGLE SESSION,SECONDARY,No,Yes,No,No,Chinese,Malay,Tamil,"102, Dover Road, Strathmore Village, Strathmore, North Hempstead, Nassau County, New York, 11030, United States",40.7930425,-73.6736035
FAJAR SECONDARY SCHOOL,http://www.fajarsec.moe.edu.sg,31   GANGSA ROAD,678972,67691491,na,67633025,na,FAJAR_SS@MOE.EDU.SG,"BUKIT PANJANG MRT, BUKIT PANJANG LRT, PETIR LRT","67, 75, 75A, 170, 171, 176, 177, 178, 180, 180A, 920, 922, 960, 961, 963, 963E, 963R, 970, 972, 972A, 973, 973A, 975, 976, 979",MISS HO SOOK FUN DORIS,MS CHOO WAN XIAN,MR NGOH SING KIEN ARTHUR,,,,,BUKIT PANJANG,WEST,GOVERNMENT SCHOOL,CO-ED SCHOOL,SINGLE SESSION,SECONDARY,No,No,No,No,Chinese,Malay,Tamil,"Fajar Secondary School, 31, Gangsa Road, Bukit Panjang, Northwest, 678972, Singapore",1.3753080500000001,103.7640113844527
FARRER PARK PRIMARY SCHOOL,http://www.farrerparkpri.moe.edu.sg,2    FARRER PARK ROAD,217567,62952272,na,62942272,na,fpps@moe.edu.sg,Farrer Park MRT Station,131,MISS CHEONG HWEE KHIM,MR RAMESH MUKUNDHAN,,,,,,KALLANG,SOUTH,GOVERNMENT SCHOOL,CO-ED SCHOOL,SINGLE SESSION,PRIMARY,No,No,No,No,Chinese,Malay,Tamil,"Farrer Park Primary School, 2, Farrer Park Road, Kallang, Central, 217567, Singapore",1.3125247,103.8510381626646
FENGSHAN PRIMARY SCHOOL,http://www.fengshanpri.moe.edu.sg,307  BEDOK NORTH ROAD,469680,65860123,na,65860122,na,fsps@moe.edu.sg,Bedok MRT,"18, 228, 222, 17, 69, 66, 67, 168, 28, 506, 14, 45",MR POH CHEE YANG,MDM LAI KAI CHING,MR LEE MIN SEN,,,,,BEDOK,EAST,GOVERNMENT SCHOOL,CO-ED SCHOOL,SINGLE SESSION,PRIMARY,No,No,No,No,Chinese,Malay,Tamil,"Fengshan Primary School, 307, Bedok North Road, Bedok, Southeast, 469680, Singapore",1.3300987,103.93188245052653
FERN GREEN PRIMARY SCHOOL,www.ferngreenpri.moe.edu.sg,70   Fernvale Link,797538,68343100,na,68343116,na,ferngreen_ps@moe.edu.sg,Kupang LRT Station (SW3),"85, 102",MRS TANG- CHIM LEE MAI,MR SEE KOK KIONG,MDM KYLICIA SOO GEOK LING,,,,,SENG KANG,EAST,GOVERNMENT SCHOOL,CO-ED SCHOOL,SINGLE SESSION,PRIMARY,No,No,No,No,Chinese,Malay,Tamil,"Fernvale Link, Fernvale, Central, 793470, Singapore",1.3949259,103.8791924
FERNVALE PRIMARY SCHOOL,www.fernvalepri.moe.edu.sg,1    Fernvale Lane,797701,63153051,na,63153067,na,fernvale_ps@moe.edu.sg,Fernvale LRT (Sengkang West Loop),"Along Sengkang West Ave - Bus Services 50, 163; Along Yio Chu Kang Road - Bus Services 70, 86, 103 and 854.",MDM BALAKRISHNA VYJANTHIMALA,MISS YAP AI LI,MR YAP LIH MIN SAMUEL,,,,,SENG KANG,NORTH,GOVERNMENT SCHOOL,CO-ED SCHOOL,SINGLE SESSION,PRIMARY,No,No,No,No,Chinese,Malay,Tamil,"Fernvale Primary School, 1, Fernvale Lane, Fernvale, Central, 797701, Singapore",1.38997975,103.8740776496129
FIRST TOA PAYOH PRIMARY SCHOOL,http://www.firsttoapayohpri.moe.edu.sg,7    LORONG 8 TOA PAYOH,319252,62567822,na,62561102,na,FTPPS@MOE.EDU.SG,Braddell & Toa Payoh Stations,"157,153,105,159,88,FS238",MR CHUA CHOON GUAN,MDM LOW LEE CHERN,,,,,,TOA PAYOH,SOUTH,GOVERNMENT SCHOOL,CO-ED SCHOOL,SINGLE SESSION,PRIMARY,No,No,No,No,Chinese,Malay,Tamil,"First Toa Payoh Primary School, 7, Lorong 8 Toa Payoh, Toa Payoh, Central, 319252, Singapore",1.3404649,103.8558674534298
FRONTIER PRIMARY SCHOOL,http://www.frontierpri.moe.edu.sg,20   Jurong West Street 61,648200,65789555,na,67908596,na,frontier_ps@moe.edu.sg,Pioneer MRT Station (EW28),"241, 974, 179",MDM LEE YEW KOON TONNINE,MDM CHAN YEE CHIN WILNA,MDM DAPHNE CHAN PEI SZE,,,,,JURONG WEST,WEST,GOVERNMENT SCHOOL,CO-ED SCHOOL,SINGLE SESSION,PRIMARY,No,No,No,No,Chinese,Malay,Tamil,"Frontier Primary School, 20, Jurong West Street 61, Jurong West, Southwest, 648200, Singapore",1.3369298,103.69963774202806
FUCHUN PRIMARY SCHOOL,http://www.fuchunpri.moe.edu.sg,23   WOODLANDS AVENUE 1,739063,63683925,na,63670117,na,FCPS@MOE.EDU.SG,Marsiling,"187,856,912,925,950,960,961,963,963E,963R,966",MRS EUNICE LIM,MISS LIM PEI LIN OLIVIA,MR TAN CHIN KEE,,,,,WOODLANDS,NORTH,GOVERNMENT SCHOOL,CO-ED SCHOOL,SINGLE SESSION,PRIMARY,No,No,No,No,Chinese,Malay,Tamil,"Fuchun Primary School, 23, Woodlands Avenue 1, Woodlands, Northwest, 739063, Singapore",1.43072155,103.77823059447893
FUCHUN SECONDARY SCHOOL,http://www.fuchunsec.moe.edu.sg,21   WOODLANDS AVENUE 1,739062,63681984,na,63670180,na,fcss@moe.edu.sg,"MARSILING MRT, WOODLANDS MRT","187, 856, 912, 913M, 925, 925M, 926, 950, 960, 960E, 961, 961M, 963, 963E, 963R, 966, 912B, 912M",MDM ONG BEE LIAN DORIS,"MR SIM KOK HIAN, KENNETH",MR KWAN YEW MENG,,,,,WOODLANDS,NORTH,GOVERNMENT SCHOOL,CO-ED SCHOOL,SINGLE SESSION,SECONDARY,No,No,No,No,Chinese,Malay,Tamil,"Woodlands Avenue 1, Woodlands, Northwest, 31, Singapore",1.4292056,103.7755184
FUHUA PRIMARY SCHOOL,http://www.fuhuapri.moe.edu.sg,65   JURONG EAST STREET 13,609647,65624370,na,65639542,na,fhps@moe.edu.sg,JURONG EAST MRT STATION,"JURONG EAST CENTRAL (BS28441): 41,49,52,105,160,160A,160M,176,183,334,506    JURONG EAST CENTRAL (BS28431):51,66,78,79,143, 143M, 176, 335",MR GANESAN S/O RAMAN,MDM TEO SIEW KHIM,,,,,,JURONG EAST,WEST,GOVERNMENT SCHOOL,CO-ED SCHOOL,SINGLE SESSION,PRIMARY,No,No,No,No,Chinese,Malay,Tamil,"Fuhua Primary School, 65, Jurong East Street 13, Jurong East, Southwest, 609647, Singapore",1.3364853499999998,103.73645449079083
FUHUA SECONDARY SCHOOL,http://www.fuhuasec.moe.edu.sg,5    JURONG WEST STREET 41,649410,65633067,na,65634379,na,FHSS@MOE.EDU.SG,"CHINESE GARDEN MRT, LAKESIDE MRT","49, 98, 99, 157, 180, 185, 187, 198, 334, 335, 502, 657",MISS FOONG LAI LEONG,MR SIM HOW CHONG,MRS SHAIMA ANSHAD,,,,,JURONG WEST,WEST,GOVERNMENT SCHOOL,CO-ED SCHOOL,SINGLE SESSION,SECONDARY,No,No,No,No,Chinese,Malay,Tamil,"Fuhua Secondary School, 5, Jurong West Street 41, Jurong West, Southwest, 649410, Singapore",1.3473107500000001,103.72702278610203
GAN ENG SENG PRIMARY SCHOOL,http://www.ganengsengpri.moe.edu.sg,100  REDHILL CLOSE,158901,64717451,na,64794152,na,gesps@moe.edu.sg,Redhill,"14, 63, 147, 196, 197, 855, 961","MR LEE WEI YAP, ROY",MDM RINA D/O BHASI,,,,,,BUKIT MERAH,SOUTH,GOVERNMENT SCHOOL,CO-ED SCHOOL,SINGLE SESSION,PRIMARY,No,No,No,No,Chinese,Malay,Tamil,"Gan Eng Seng Primary School, 100, Redhill Close, Redhill Gardens, Bukit Merah, Central, 158901, Singapore",1.2858741500000002,103.81513175137866
GAN ENG SENG SCHOOL,http://www.ganengsengsch.moe.edu.sg,1    HENDERSON ROAD,159561,64745594,na,64732479,na,GESS@MOE.EDU.SG,"REDHILL MRT, TIONG BAHRU MRT","14, 16, 32, 33, 51, 63, 64, 120, 122, 145, 139, 186, 851, 970",MISS TAN HWEE PIN,MR CHUNG KWOK LEONG DANIEL,MDM SARAWATHY D/O VARADARAJU,,,,,BUKIT MERAH,SOUTH,GOVERNMENT SCHOOL,CO-ED SCHOOL,SINGLE SESSION,SECONDARY,No,No,No,No,Chinese,Malay,Tamil,"1, Henderson Road, Thorpe-le-Soken, Tendring, Essex, East of England, England, CO16 0EQ, United Kingdom",51.860061,1.1734559038928325
GEYLANG METHODIST SCHOOL (PRIMARY),www.geylangmethodistpri.moe.edu.sg,4    Geylang East Central,389706,67486746,na,67488980,na,GMSP@moe.edu.sg,Aljunied,"80, 134, 155",MDM JENNIFER HAN ENG JUAN,MR LUA EE PING,,,,,,GEYLANG,EAST,GOVERNMENT-AIDED SCH,CO-ED SCHOOL,SINGLE SESSION,PRIMARY,No,No,No,No,Chinese,Malay,Tamil,"Geylang East Central, Geylang, Southeast, 388410, Singapore",1.3186146,103.8820014
GEYLANG METHODIST SCHOOL (SECONDARY),http://www.geylangmethodistsec.moe.edu.sg,2    GEYLANG EAST CENTRAL,389705,67466503,na,67477317,na,gmss@moe.edu.sg,ALJUNIED MRT,"40, 62, 63, 80, 100, 125, 134, 155, 158",MR WEE TAT CHUEN,MDM LOY WEE MENG,MR LEW KING LUN JULIAN,,,,,GEYLANG,EAST,GOVERNMENT-AIDED SCH,CO-ED SCHOOL,SINGLE SESSION,SECONDARY,No,No,No,No,Chinese,Malay,Tamil,"Geylang Methodist School, 2, Geylang East Central, Geylang East Garden, Geylang, Southeast, 389705, Singapore",1.3176038499999998,103.883251178634
GONGSHANG PRIMARY SCHOOL,http://www.gongshangpri.moe.edu.sg,1    TAMPINES STREET 42,529176,67831191,na,67880004,na,GSPS@MOE.EDU.SG,Tampines (Downtown Line and East West Line) and Tampines East (Downtown Line),"4, 8, 18, 19, 21, 37, 38, 81, 293",MDM LIM TZYY SHIUAN,MRS SELINA LEE,,,,,,TAMPINES,EAST,GOVERNMENT SCHOOL,CO-ED SCHOOL,SINGLE SESSION,PRIMARY,No,No,No,No,Chinese,Malay,na,"Gongshang Primary School, 1, Tampines Street 42, Tampines, Northeast, 158901, Singapore",1.3573263,103.94931114016394
GREENDALE PRIMARY SCHOOL,http://www.greendalepri.moe.edu.sg,50   Edgedale Plains,828848,68861413,na,68861419,na,greendale_ps@moe.edu.sg,Punggol LRT:  Coral Edge,"3,62, 83, 85, 386",MDM NG SOH HUA,MDM SEING JEE CHING JASMINE,MR TAN SIAN YEOW TERENCE,,,,,PUNGGOL,NORTH,GOVERNMENT SCHOOL,CO-ED SCHOOL,SINGLE SESSION,PRIMARY,No,No,No,No,Chinese,Malay,Tamil,"Greendale Primary School, 50, Edgedale Plains, Punggol, Northeast, 828848, Singapore",1.39620005,103.91272454370991
GREENDALE SECONDARY SCHOOL,http://www.greendalesec.moe.edu.sg,51   EDGEDALE PLAINS,828866,63158616,na,63158420,na,greendale_ss@moe.edu.sg,"PUNGGOL MRT, MERIDIAN LRT","3, 62, 83, 85, 136, 386",MISS NG AMY,MR LOH CHIH HUI,MRS ANNE CHAN,,,,,PUNGGOL,NORTH,GOVERNMENT SCHOOL,CO-ED SCHOOL,SINGLE SESSION,SECONDARY,No,No,No,No,Chinese,Malay,Tamil,"Greendale Secondary School, 51, Edgedale Plains, Punggol, Northeast, 828866, Singapore",1.3977221499999999,103.91160976934093
GREENRIDGE PRIMARY SCHOOL,http://www.greenridgepri.moe.edu.sg,11   JELAPANG ROAD,677744,67604265,na,67620189,na,GRPS@MOE.EDU.SG,"Senja LRT station, Jelapang LRT Station","Bus 920, 922, 972",MDM ONG FEI MIN,MDM GOH LUNG ENG,,,,,,BUKIT PANJANG,WEST,GOVERNMENT SCHOOL,CO-ED SCHOOL,SINGLE SESSION,PRIMARY,No,No,No,No,Chinese,Malay,Tamil,"Greenridge Primary School, 11, Jelapang Road, Bukit Panjang, Northwest, 677744, Singapore",1.3856168,103.76800482210834
GREENRIDGE SECONDARY SCHOOL,http://www.greenridgesec.moe.edu.sg,32   BUKIT PANJANG RING ROAD,679938,67601052,na,67628334,na,gss@moe.edu.sg,BANGKIT LRT,"722, 920, 922, 971, 972, 972M, 976",MDM KOH HOON CHOO JESSIE,MRS FIRDOUSE-DALINA ABDULLAH,,,,,,BUKIT PANJANG,WEST,GOVERNMENT SCHOOL,CO-ED SCHOOL,SINGLE SESSION,SECONDARY,No,No,No,No,Chinese,Malay,Tamil,"Greenridge Secondary School, 32, Bukit Panjang Ring Road, Bukit Panjang, Northwest, 679938, Singapore",1.3825375,103.7738488647038
GREENWOOD PRIMARY SCHOOL,http://www.greenwoodpri.moe.edu.sg,11   WOODLANDS  DR  62,737942,63666158,na,63666159,na,greenwood_ps@moe.edu.sg,Admiralty MRT Station,"912, 913, 962",MDM TANG PEI LU TRICILIA,MR SATHYA PRASAD S/O G,"MR LEE HUAN SIAK, JAMES",,,,,WOODLANDS,NORTH,GOVERNMENT SCHOOL,CO-ED SCHOOL,SINGLE SESSION,PRIMARY,No,No,No,No,Chinese,Malay,Tamil,"Greenwood Primary School, 11, Woodlands Drive 62, Woodlands, Northwest, 737942, Singapore",1.4399652,103.8047573433338
GUANGYANG PRIMARY SCHOOL,http://www.guangyangpri.moe.edu.sg,6    Bishan Street 12,579806,62580455,na,62580010,na,GYPS@MOE.EDU.SG,Bishan MRT,"13,52,54,55,56,57,59,88,93,156,157,163,410",MR LAU ENOCH,MR HO SENG TAT SUNNY,,,,,,BISHAN,SOUTH,GOVERNMENT SCHOOL,CO-ED SCHOOL,SINGLE SESSION,PRIMARY,No,No,No,No,Chinese,Malay,Tamil,"Guangyang Primary School, 6, Bishan Street 12, Bishan, Central, 579806, Singapore",1.3457530000000002,103.84930970398092
GUANGYANG SECONDARY SCHOOL,http://guangyangsec.moe.edu.sg,8    BISHAN STREET 12,579807,62589781,na,63543108,na,gyss@moe.edu.sg,BISHAN MRT,"13, 56, 57, 59, 71, 88, 93, 157, 163, 410",MR LIM HOCK CHUAN ALVIN,MR KOH LIP KANG,,,,,,BISHAN,SOUTH,GOVERNMENT SCHOOL,CO-ED SCHOOL,SINGLE SESSION,SECONDARY,No,No,No,No,Chinese,Malay,Tamil,"Guangyang Secondary School, 8, Bishan Street 12, Bishan, Central, 579807, Singapore",1.34461375,103.8499305484476
HAI SING CATHOLIC SCHOOL,http://www.haisingcatholic.moe.edu.sg,9    PASIR RIS DRIVE 6,519421,65827864,na,65822543,na,HSHS@MOE.EDU.SG,PASIR RIS MRT,"3, 5, 6, 12, 17, 21, 89, 354, 358",MR ANG TECK SIANG DANIEL,MRS TEO-TAY CHAI HONG,MISS SHEREEN WONG MINGRUI,,,,,PASIR RIS,EAST,GOVERNMENT-AIDED SCH,CO-ED SCHOOL,SINGLE SESSION,SECONDARY,No,No,No,No,Chinese,Malay,Tamil,"Hai Sing Catholic School, 9, Pasir Ris Drive 6, Pasir Ris, Northeast, 519421, Singapore",1.3745734,103.95515793710277
HAIG GIRLS' SCHOOL,http://www.haiggirls.moe.edu.sg,51   Koon Seng Road,427072,63440293,na,64474169,na,HAIGGIRLSSCH@MOE.EDU.SG,"Eunos, Dakota","16,33",MISS LO YEN NIE,MISS PHUA AI LEI,MDM LEE LI LI,,,,,GEYLANG,EAST,GOVERNMENT SCHOOL,GIRLS' SCHOOL,SINGLE SESSION,PRIMARY,No,No,No,No,Chinese,Malay,Tamil,"Haig Girl's School, 51, Koon Seng Road, Geylang, Southeast, 427072, Singapore",1.31173415,103.90267301151283
HENRY PARK PRIMARY SCHOOL,http://www.henryparkpri.moe.edu.sg,1    HOLLAND GROVE ROAD,278790,64663600,na,64691840,na,HPPS@MOE.EDU.SG,"Buona Vista MRT, Clementi MRT","7, 61, 75, 156, 157, 165, 92","MR KOH CHIN THONG, MARTIN",MDM WONG SU MAY,MR CHUA CHYE HOCK,,,,,BUKIT TIMAH,WEST,GOVERNMENT SCHOOL,CO-ED SCHOOL,SINGLE SESSION,PRIMARY,No,No,Yes,No,Chinese,Malay,Tamil,"Henry Park Primary School, 1, Holland Grove Road, Bukit Timah, Northwest, 278790, Singapore",1.3170568999999999,103.78421632658535
HILLGROVE SECONDARY SCHOOL,http://www.hillgrovesec.moe.edu.sg,10   BUKIT BATOK STREET 52,659250,65603726,na,65630920,na,HILLGROVE_SS@MOE.EDU.SG,"BUKIT BATOK MRT, BUKIT GOMBAK MRT","176, 985, 945",MDM ONG HUI MIIN ANGELINE,MR MALVIN CHAN HUAN JIAN,MR SNG CHIN SENG,,,,,BUKIT BATOK,WEST,GOVERNMENT SCHOOL,CO-ED SCHOOL,SINGLE SESSION,SECONDARY,No,No,No,No,Chinese,Malay,Tamil,"Hillgrove Secondary School, 10, Bukit Batok Street 52, Bukit Batok, Southwest, 659250, Singapore",1.3533675,103.75299054610036
HOLY INNOCENTS' HIGH SCHOOL,http://www.holyinnocentshigh.moe.edu.sg,1191 UPPER SERANGOON ROAD,534786,62833381,na,62831737,na,HIHS@MOE.EDU.SG,HOUGANG MRT,"27, 72, 74, 80, 87, 89, 101, 107, 113, 116, 119, 132, 136, 147, 153, 161, 165, 324, 325",MRS REBECCA CHEW,MR NG CHENG SONG JEREMY,MR CHIA KENG HWEE,,,,,HOUGANG,SOUTH,GOVERNMENT-AIDED SCH,CO-ED SCHOOL,SINGLE SESSION,SECONDARY,No,No,No,No,Chinese,Malay,Tamil,"Holy Innocents' High School, 1191, Upper Serangoon Road, Hougang, Northeast, 534786, Singapore",1.3716598,103.8957435716956
HOLY INNOCENTS' PRIMARY SCHOOL,http://www.holyinnocentspri.moe.edu.sg/,5    Lorong Low Koon,536451,62886516,na,62876393,na,HOLYINNOCENTSPRI@MOE.EDU.SG,2km walk to Hougang MRT,"51,72,80,101,119,132,136,153.",MISS SEET ENG GEOK LENA,MS KOH CHIOW TEE THERESA,MDM YUE  SHARON,,,,,HOUGANG,SOUTH,GOVERNMENT-AIDED SCH,CO-ED SCHOOL,SINGLE SESSION,PRIMARY,Yes,No,No,No,Chinese,na,na,"Holy Innocents' Primary School, 5, Lorong Low Koon, Hougang, Northeast, 536451, Singapore",1.36708755,103.89388216851452
HONG WEN SCHOOL,http://www.hongwen.moe.edu.sg,30   TOWNER ROAD,327829,62943340,na,62937625,na,hws@moe.edu.sg,Boon Keng MRT,"Serangoon Road: 13, 23, 31, 64, 65, 66, 125, 133, 147, 857, 985 Balestier Road: 21, 125, 130, 139, 145",MRS THERESA HONG-NG,MR LIM CHONG ENG,,,,,,KALLANG,SOUTH,GOVERNMENT-AIDED SCH,CO-ED SCHOOL,SINGLE SESSION,PRIMARY,Yes,No,No,No,Chinese,na,na,"Hong Wen School, 30, Towner Road, Kallang, Central, 327829, Singapore",1.32178305,103.85752691301875
HORIZON PRIMARY SCHOOL,http://www.horizonpri.moe.edu.sg,61   Edgedale Plains,828819,67535411,na,67523971,na,horizon_ps@moe.edu.sg,Punggol MRT Station (NE17)  (LRT: Kadaloor [PE5] or Oasis [PE6]),"3, 50, 83, 85, 569",MDM GRACE HO LI JUN,MR OW EU GENE JOHN,MDM SENTHIL POONKODI D/O R K,,,,,PUNGGOL,NORTH,GOVERNMENT SCHOOL,CO-ED SCHOOL,SINGLE SESSION,PRIMARY,No,No,No,No,Chinese,Malay,Tamil,"Horizon Primary School, 61, Edgedale Plains, Punggol, Northeast, 828819, Singapore",1.39998505,103.91311619800231
HOUGANG PRIMARY SCHOOL,http://www.hougangpri.moe.edu.sg/,1    HOUGANG ST 93,534238,64897445,na,64897446,na,HOUGANG_PS@MOE.EDU.SG,"Ang Mo Kio, Buangkok, Hougang, Sengkang, Yio Chu Kang","SBS 43, 72, 88, 101, 109, 116, 156, 159, 325, 329","MR GOH WAI MIN, JASON",MISS LIEW PANG HAI,,,,,,HOUGANG,NORTH,GOVERNMENT SCHOOL,CO-ED SCHOOL,SINGLE SESSION,PRIMARY,No,No,No,No,Chinese,Malay,Tamil,"Hougang Primary School, 1, Hougang Street 93, Hougang, Northeast, 534238, Singapore",1.3783581,103.88107202176852
HOUGANG SECONDARY SCHOOL,http://www.hougangsec.moe.edu.sg,2    HOUGANG STREET 93,534256,63851990,na,63852015,na,HOUGANG_SS@MOE.EDU.SG,"HOUGANG MRT, BUANGKOK MRT","43, 88, 101, 109, 156, 159, 161, 325, 329",MR ARIVAZHAGAN MANICKAM,MRS YOONG JIN ING,MDM JESMINE CHUNG KAH MIN,,,,,HOUGANG,NORTH,GOVERNMENT SCHOOL,CO-ED SCHOOL,SINGLE SESSION,SECONDARY,No,No,No,No,Chinese,Malay,Tamil,"Hougang Secondary School, 2, Hougang Street 93, Hougang, Northeast, 534256, Singapore",1.37776255,103.88245888987892
HUA YI SECONDARY SCHOOL,http://www.huayisec.moe.edu.sg,60   JURONG WEST ST 42,649371,65634568,na,65634505,na,HYSS@MOE.EDU.SG,"LAKESIDE MRT, CHINESE GARDEN MRT","49, 98, 98B, 98M, 99, 157, 185, 187, 198, 198A, 334, 335, 502",MISS GWEE SU PIN SANDRA,MDM KHOO HENG OI CATHERINE,MDM TAN KAY BIN,,,,,JURONG WEST,WEST,GOVERNMENT SCHOOL,CO-ED SCHOOL,SINGLE SESSION,SECONDARY,No,No,No,No,Chinese,Malay,Tamil,"Hua Yi Secondary School, 60, Jurong West Street 42, Jurong West, Southwest, 649371, Singapore",1.3520885,103.72162517495629
HUAMIN PRIMARY SCHOOL,http://www.huaminpri.moe.edu.sg,21   YISHUN AVENUE 11,768857,67529004,na,67552455,na,huamin_ps@moe.edu.sg,Yishun MRT Station,"806, 804",MDM NOORISMAWATY BTE ISMAIL,MDM BALAKRISHNAN CORINNE ANNE,,,,,,YISHUN,NORTH,GOVERNMENT SCHOOL,CO-ED SCHOOL,SINGLE SESSION,PRIMARY,No,No,No,No,Chinese,Malay,Tamil,"Huamin Primary School, 21, Yishun Avenue 11, Yishun, Northwest, 768857, Singapore",1.42686205,103.84426433501295
HWA CHONG INSTITUTION,http://www.hwachong.edu.sg,661  BUKIT TIMAH ROAD,269734,64683955,64683956 / 64665912,67695857,na,admin@hci.edu.sg,TAN KAH KEE MRT,"66, 67, 74, 151, 154, 156, 157, 170, 170A, 174, 852, 961, 961M",MR PANG CHOON HOW,DR LIM HONG SENG MELVYN,MR CHAN KWOK LEONG,MRS CHIN-LEOW BEE KUAN,DR CHUNG WEN CHEE,,,BUKIT TIMAH,WEST,INDEPENDENT SCHOOL,CO-ED SCHOOL,SINGLE SESSION,MIXED LEVELS,Yes,No,No,Yes,Chinese,na,na,"Hwa Chong Institution, 661, Bukit Timah Road, Bukit Timah, Northwest, 269734, Singapore",1.3262797499999999,103.80352576452364
INNOVA PRIMARY SCHOOL,http://www.innovapri.moe.edu.sg/,80   Woodlands Drive 17,737888,68944693,na,68942573,na,innova_pri@moe.edu.sg,Woodlands,"900A (weekdays only - 7.00 am to 8.30 am & 4.30 pm to 6.30 pm), 901",MISS WINDERSALAM SHYAMALA DEVI,MDM TAY GEK KHIM,MR LAU YEAN HUI,,,,,WOODLANDS,NORTH,GOVERNMENT SCHOOL,CO-ED SCHOOL,SINGLE SESSION,PRIMARY,No,No,No,No,Chinese,Malay,Tamil,"Innova Primary School, 80, Woodlands Drive 17, Woodlands, Northwest, 737888, Singapore",1.4292761,103.79073434544745
JIEMIN PRIMARY SCHOOL,http://www.jieminpri.moe.edu.sg,2    YISHUN STREET 71,768515,67586472,na,67559958,na,jiemin_ps@moe.edu.sg,Yishun MRT Station,"167,169,171,800,811,000,000,000,000,000,000",MR ANDY MICKEY CHOONG TEK CHOY,MRS NUR FATIMAH FRAUDER,MISS WONG KAH WAN JOY,,,,,YISHUN,NORTH,GOVERNMENT SCHOOL,CO-ED SCHOOL,SINGLE SESSION,PRIMARY,No,No,No,No,Chinese,Malay,Tamil,"Jiemin Primary School, 2, Yishun Street 71, Yishun, Northwest, 737888, Singapore",1.42810765,103.83017091898063
JING SHAN PRIMARY SCHOOL,http://www.jingshanpri.moe.edu.sg,5    ANG MO KIO ST 52,569228,64566305,na,64581619,na,jsps@moe.edu.sg,Ang Mo Kio MRT,Bus 265,MDM BOEY HUEY PENG SHARON,MISS REZIA RAHUMATHULLAH,MISS NG SUAT THENG ANGELA,,,,,ANG MO KIO,SOUTH,GOVERNMENT SCHOOL,CO-ED SCHOOL,SINGLE SESSION,PRIMARY,No,No,No,No,Chinese,Malay,Tamil,"Jing Shan Primary School, 5, Ang Mo Kio Street 52, Ang Mo Kio, Central, 569228, Singapore",1.3722577999999999,103.85201520714915
JUNYUAN PRIMARY SCHOOL,https://junyuanpri.moe.edu.sg,2    Tampines Street 91,528906,67830375,na,67887395,na,JUNYUAN_PS@MOE.EDU.SG,Tampines West (Downtown Line); Tampines (East-West Line),"76281: 22, 46, 129 76061: 10, 15, 20, 21, 23, 27, 31, 34, 39, 65, 67, 168, 292 75051: 5, 8, 18, 28, 59, 118",MR CHAN WENG CHEONG,MDM HO LAY YEN JENNY,,,,,,TAMPINES,EAST,GOVERNMENT SCHOOL,CO-ED SCHOOL,SINGLE SESSION,PRIMARY,No,No,No,No,Chinese,Malay,Tamil,"Junyuan Primary School, 2, Tampines Street 91, Tampines, Northeast, 528906, Singapore",1.347782,103.9393972465966
JUNYUAN SECONDARY SCHOOL,http://www.junyuansec.moe.edu.sg,11   TAMPINES STREET 84,528933,65873683,na,65873682,na,JUNYUAN_SS@MOE.EDU.SG,"TAMPINES MRT, TAMPINES WEST MRT","69, 291, 293",MR MOHAMED RAZALI B ABDUL HAMED,MR NG CHENG KEONG,,,,,,TAMPINES,EAST,GOVERNMENT SCHOOL,CO-ED SCHOOL,SINGLE SESSION,SECONDARY,No,No,No,No,Chinese,Malay,Tamil,"Junyuan Secondary School, 11, Tampines Street 84, Tampines, Northeast, 528933, Singapore",1.35317525,103.93354472807195
JURONG PIONEER JUNIOR COLLEGE,http://jpjc.moe.edu.sg,21   Teck Whye Walk,688258,+65 6564 6878,na,+65 6765 1861,na,jpjc@moe.edu.sg,Choa Chu Kang / Bt Panjang / Phoenix Station (LRT),"975, 190, 985",DR HANG KIM HOO,MISS YEO SIOK EE,MR NAH HONG LEONG,,,,,CHOA CHU KANG,WEST,GOVERNMENT SCHOOL,CO-ED SCHOOL,FULL DAY,JUNIOR COLLEGE,No,No,No,No,Chinese,Malay,Tamil,"Jurong Pioneer Junior College, 21, Teck Whye Walk, Choa Chu Kang, Southwest, 688258, Singapore",1.38545185,103.753923628179
JURONG PRIMARY SCHOOL,http://www.jurongpri.moe.edu.sg,320  JURONG EAST Street 32,609476,65618837,na,65641964,na,JPS@MOE.EDU.SG,"Lakeside MRT Station, Jurong East MRT Station",333,MR ONG THIAM HUAT ROBIN,MR CHEN ZHONGYI,,,,,,JURONG EAST,WEST,GOVERNMENT SCHOOL,CO-ED SCHOOL,SINGLE SESSION,PRIMARY,No,No,No,No,Chinese,Malay,Tamil,"Jurong Primary School, 320, Jurong East Street 32, Jurong East, Southwest, 609476, Singapore",1.3487249000000001,103.73305563805556
JURONG SECONDARY SCHOOL,http://www.jurongsec.moe.edu.sg,31   YUAN CHING ROAD,618652,62655980,na,62686414,na,JURONG_SS@MOE.EDU.SG,LAKESIDE MRT,"30, 49, 98, 98A, 154, 240, 246",MDM TAY SU- CHIN (ZHENG SUZHEN),MISS TAN HUI MIN DEBORAH,MDM LER SIAH WOON JULIA,,,,,JURONG WEST,WEST,GOVERNMENT SCHOOL,CO-ED SCHOOL,SINGLE SESSION,SECONDARY,No,No,No,No,Chinese,Malay,Tamil,"Jurong Secondary School, 31, Yuan Ching Road, Jurong West, Southwest, 618652, Singapore",1.33030995,103.72397423030336
JURONG WEST PRIMARY SCHOOL,http://www.jurongwestpri.moe.edu.sg,30   JURONG WEST ST 61,648368,67933419,na,67936593,na,JWPS@MOE.EDU.SG,Pioneer MRT Station,192,MR CHRIS LOH KAI MUN,MR PILLAY P KRISHNAN,,,,,,JURONG WEST,WEST,GOVERNMENT SCHOOL,CO-ED SCHOOL,SINGLE SESSION,PRIMARY,No,No,No,No,Chinese,Malay,Tamil,"Jurong West Primary School, 30, Jurong West Street 61, Jurong West, Southwest, 609476, Singapore",1.3393141499999999,103.69902734141112
JURONG WEST SECONDARY SCHOOL,http://www.jurongwestsec.moe.edu.sg,61   JURONG WEST STREET 65,648348,62623593,na,62623587,na,JWSS@MOE.EDU.SG,"BOON LAY MRT, PIONEER MRT","30, 154, 157, 180, 187, 198, 242",MR MICHAEL MUHUNTHAN S/O SUBRAMANIAM,MRS ROSIE LAU @ MDM ROSIE LIM,,,,,,JURONG WEST,WEST,GOVERNMENT SCHOOL,CO-ED SCHOOL,SINGLE SESSION,SECONDARY,No,No,No,No,Chinese,Malay,Tamil,"Jurong West Secondary School, 61, Jurong West Street 65, Jurong West, Southwest, 648348, Singapore",1.3354612000000001,103.70240256902011
JURONGVILLE SECONDARY SCHOOL,http://www.jurongvillesec.moe.edu.sg,202  JURONG EAST AVENUE 1,609790,65638704,na,65662137,na,JURONGVILLE@MOE.EDU.SG,"JURONG EAST MRT, CHINESE GARDEN MRT","98, 98M, 99, 157, 185, 187, 198, 334, 502",MR CHAN YEW WOOI,MR YONG KEK SHOONG,,,,,,JURONG EAST,WEST,GOVERNMENT SCHOOL,CO-ED SCHOOL,SINGLE SESSION,SECONDARY,No,No,No,No,Chinese,Malay,Tamil,"Jurongville Secondary School, 202, Jurong East Avenue 1, Jurong East, Southwest, 609790, Singapore",1.35128445,103.72897389782479
JUYING PRIMARY SCHOOL,http://www.juyingpri.moe.edu.sg/,31   JURONG WEST STREET 91,649037,67932039,na,67932040,na,JUYING_PS@MOE.EDU.SG,Boon Lay MRT Station (Jurong Point),SBS 99 (From Clementi Inter-change) SBS 241 (From Boon Lay Inter-change),MRS SROYA JASWANT,MDM SITI SUHAILA BTE SAPIHE,MDM WONG WEI YI,,,,,JURONG WEST,WEST,GOVERNMENT SCHOOL,CO-ED SCHOOL,SINGLE SESSION,PRIMARY,No,No,No,No,Chinese,Malay,Tamil,"Juying Primary School, 31, Jurong West Street 91, Jurong West, Southwest, 649037, Singapore",1.33875125,103.68825378175828
JUYING SECONDARY SCHOOL,http://juyingsec.moe.edu.sg,33   JURONG WEST STREET 91,649038,63089898,na,67932835,na,JUYING_SS@MOE.EDU.SG,"BOON LAY MRT, PIONEER MRT, JOO KOON MRT","99, 241",MDM SOH BENG MUI,MR NG HAN MING,,,,,,JURONG WEST,WEST,GOVERNMENT SCHOOL,CO-ED SCHOOL,SINGLE SESSION,SECONDARY,No,No,No,No,Chinese,Malay,Tamil,"Jurong West Street 91, Jurong West, Southwest, 640933, Singapore",1.3418086,103.6902322
KEMING PRIMARY SCHOOL,http://www.kemingpri.moe.edu.sg,90   BUKIT BATOK EAST AVENUE 6,659762,68962054,na,65632356,na,KMPS@MOE.EDU.SG,Bukit Batok,"61,66,77,106,157,174,178,963",MRS YAP DAI JEE,"MDM ANG CHAI TING, JESSIE",MISS SARASWATHY D/O IDAMBAN,,,,,BUKIT BATOK,WEST,GOVERNMENT SCHOOL,CO-ED SCHOOL,SINGLE SESSION,PRIMARY,No,No,No,No,Chinese,Malay,Tamil,"Keming Primary School, 90, Bukit Batok East Avenue 6, Bukit Batok, Southwest, 659762, Singapore",1.3453422000000002,103.75639902669866
KENT RIDGE SECONDARY SCHOOL,http://www.kentridgesec.moe.edu.sg,147  WEST COAST ROAD,127368,67731127,na,67735119,na,KRSS@MOE.EDU.SG,"CLEMENTI MRT, HAW PAR VILLA MRT","30, 51, 143, 175, 176, 201, 282",MR KEH CHIN CHUAN BENEDICT,MR OW KWOK LEONG,,,,,,CLEMENTI,SOUTH,GOVERNMENT SCHOOL,CO-ED SCHOOL,SINGLE SESSION,SECONDARY,No,No,No,No,Chinese,Malay,na,"Kent Ridge Secondary School, 147, West Coast Road, Clementi, Southwest, 127368, Singapore",1.3011517000000001,103.76512888660395
KHENG CHENG SCHOOL,http://www.khengcheng.moe.edu.sg/,15   LORONG 3 TOA PAYOH,319580,62552502,na,62556569,na,kcs@moe.edu.sg,Braddell,"SBS 235,56,73,88,157,159,163,231,",MDM LEONG CHUI YIN SARAH,MR KHOO GHEE HAN,,,,,,TOA PAYOH,SOUTH,GOVERNMENT-AIDED SCH,CO-ED SCHOOL,SINGLE SESSION,PRIMARY,No,No,No,No,Chinese,Malay,na,"Kheng Cheng School, 15, Lorong 3 Toa Payoh, Toa Payoh, Central, 319580, Singapore",1.33703365,103.84744227895004
KONG HWA SCHOOL,http://www.konghwa.moe.edu.sg,350  GUILLEMARD ROAD,399772,63421195,na,63421120,na,KONGHWA_SCH@MOE.EDU.SG,Dakota,"Service 7,70,70M,197(to Guillemard Road)",MR POON SIOW LENG RAYMOND,MDM FOO MEI PING,MS LEE LEY HAR,,,,,GEYLANG,EAST,GOVERNMENT-AIDED SCH,CO-ED SCHOOL,SINGLE SESSION,PRIMARY,Yes,No,No,No,Chinese,na,na,"Kong Hwa School, 350, Guillemard Road, Geylang, Southeast, 399772, Singapore",1.3111953,103.88787278336936
KRANJI PRIMARY SCHOOL,http://kranjipri.moe.edu.sg,11   CHOA CHU KANG STREET 54,689189,67634812,na,67634568,na,kranji_ps@moe.edu.sg,Yew Tee MRT,"Bus No 307, 302",MDM GOH MEEI YUNN,MISS MARION DONNE TAY SZE LENG,,,,,,CHOA CHU KANG,WEST,GOVERNMENT SCHOOL,CO-ED SCHOOL,SINGLE SESSION,PRIMARY,No,No,No,No,Chinese,Malay,Tamil,"Kranji Primary School, 11, Choa Chu Kang Street 54, Choa Chu Kang, Northwest, 689189, Singapore",1.39393915,103.74715505973106
KRANJI SECONDARY SCHOOL,http://www.kranjisec.moe.edu.sg,61   CHOA CHU KANG STREET 51,689333,67662464,na,67662095,na,kranji_ss@moe.edu.sg,"CHUA CHU KANG MRT, YEW TEE MRT",302,MR GOH SOON HOE,MR CHRISTOPHER THOMAS,MDM ONG LAY LING,,,,,CHOA CHU KANG,WEST,GOVERNMENT SCHOOL,CO-ED SCHOOL,SINGLE SESSION,SECONDARY,No,No,No,No,Chinese,Malay,Tamil,"Kranji Secondary School, 61, Choa Chu Kang Street 51, Choa Chu Kang, Northwest, 689333, Singapore",1.39047655,103.74113898800454
KUO CHUAN PRESBYTERIAN PRIMARY SCHOOL,http://www.kuochuanpresbyterianpri.moe.edu.sg,8    BISHAN STREET 13,579793,62595396,na,62588012,na,KCPPS@MOE.EDU.SG,Bishan MRT Station,"54, 56, 410, 410G",MRS YEE-TOH GEK KHIAW,MISS CHEW MAY,MR TOH KIM SING (ZHUO JINSHENG),,,,,BISHAN,SOUTH,GOVERNMENT-AIDED SCH,CO-ED SCHOOL,SINGLE SESSION,PRIMARY,No,No,No,No,Chinese,Malay,Tamil,"Kuo Chuan Presbyterian Primary School, 8, Bishan Street 13, Bishan, Central, 579793, Singapore",1.3492022000000001,103.85503898769153
KUO CHUAN PRESBYTERIAN SECONDARY SCHOOL,http://www.kuochuanpresbyteriansec.moe.edu.sg,10   BISHAN STREET 13,579795,62593811,na,63536535,na,kcpss@moe.edu.sg,BISHAN MRT,"54, 56, 410G, 410W",MR JUSTIN TAN,MR TAN CHE CHUEN TIMOTHY,,,,,,BISHAN,SOUTH,GOVERNMENT-AIDED SCH,CO-ED SCHOOL,SINGLE SESSION,SECONDARY,No,No,No,No,Chinese,Malay,Tamil,"Kuo Chuan Presybterian Secondary School, 10, Bishan Street 13, Bishan, Central, 579795, Singapore",1.35019155,103.85468982217463
LAKESIDE PRIMARY SCHOOL,http://www.lakesidepri.moe.edu.sg/,161  Corporation Walk,618310,62620918,na,62621021,na,lakeside_ps@moe.edu.sg,Lakeside MRT,"30, 49, 98, 98M",MDM TAN SIEW KHIAN FINELLA,MISS NARAYANASAMY UMA RANI,MISS TAN HUI PING,,,,,JURONG WEST,WEST,GOVERNMENT SCHOOL,CO-ED SCHOOL,SINGLE SESSION,PRIMARY,No,No,No,No,Chinese,Malay,Tamil,"Lakeside Primary School, 161, Corporation Walk, Jurong West, Southwest, 618310, Singapore",1.33834735,103.71798831116391
LIANHUA PRIMARY SCHOOL,http://www.lianhuapri.moe.edu.sg/,2    BUKIT BATOK STREET 52,659243,65639502,na,65639591,na,lianhua_ps@moe.edu.sg,Bukit Gombak/Bukit Batok,945,MISS KIEW HUI LI PAMELA,MR CHUA KYNN HOWE LEONARD,MDM TAN WAN PHING JANICE,,,,,BUKIT BATOK,WEST,GOVERNMENT SCHOOL,CO-ED SCHOOL,SINGLE SESSION,PRIMARY,No,No,No,No,Chinese,Malay,Tamil,"Lian Hua Primary School, 2, Bukit Batok Street 52, Bukit Batok, Southwest, 659243, Singapore",1.3538616499999998,103.7540792422912
LOYANG VIEW SECONDARY SCHOOL,http://www.loyangviewsec.moe.edu.sg,12   PASIR RIS STREET 11,519073,65821727,na,65810557,na,loyangview_ss@moe.edu.sg,PASIR RIS MRT,"12, 21, 39, 53, 81, 109, 359, 518",MR LEE HAK BOON,MISS TAN CHOR HIANG,MS SAADIAH SAADON WYLDE,,,,,PASIR RIS,EAST,GOVERNMENT SCHOOL,CO-ED SCHOOL,SINGLE SESSION,SECONDARY,No,No,No,No,Chinese,Malay,Tamil,"Loyang View Secondary School, 12, Pasir Ris Street 11, Pasir Ris, Northeast, 519073, Singapore",1.3664422,103.9575296221395
MAHA BODHI SCHOOL,http://www.mahabodhi.moe.edu.sg/,10   UBI AVENUE 1,408931,67442115,na,67443752,na,MBS@MOE.EDU.SG,"Eunos Station (Transfer Bus No.63, 63M) Ubi Station (Transfer Bus No. 137)","5,8,15,22,25,45,51,55,59,61,63,63M,65,66,93,94,854",MRS ELAINE QUEK-LIM HWEE BIN,MR LIM KIM MIN (LIN JINMIN),MDM WANG MING HWEE,,,,,GEYLANG,EAST,GOVERNMENT-AIDED SCH,CO-ED SCHOOL,SINGLE SESSION,PRIMARY,Yes,No,No,No,Chinese,na,na,"Maha Bodhi School, 10, Ubi Avenue 1, Geylang, Southeast, 408931, Singapore",1.3284777,103.90153454958934
MANJUSRI SECONDARY SCHOOL,http://www.manjusrisec.moe.edu.sg,20   UBI AVENUE 1,408940,68424558,na,67454492,na,manjusri_ss@moe.edu.sg,"UBI MRT, MACPHERSON MRT","5, 8, 15, 22, 25, 45, 51, 55, 59, 61, 63, 63M, 65, 66, 93, 94, 137, 854",MR SIM CHONG BOON,MDM HENG WEI SHAN,MISS ELEANOR CHIA SHUEN LI,,,,,GEYLANG,EAST,GOVERNMENT-AIDED SCH,CO-ED SCHOOL,SINGLE SESSION,SECONDARY,No,No,No,No,Chinese,Malay,na,"Manjusri Secondary School, 20, Ubi Avenue 1, Geylang, Southeast, 408940, Singapore",1.3275613499999999,103.90171392055302
MARIS STELLA HIGH SCHOOL,http://www.marisstellahigh.moe.edu.sg,25   MOUNT VERNON ROAD,368051,62803880 (Sec),62827743 (Pri),62886905 (Sec),62827905 (Pri),msh@moe.edu.sg,BARTLEY MRT,"28, 93, 129, 158",MRS WOO SOO MIN,MRS MARIA KOH,MR LIM KAY WAH BENEDICT,MR TAN CHING HUAT,MR TAN KIM KOON,,,TOA PAYOH,NORTH,GOVERNMENT-AIDED SCH,BOYS' SCHOOL,SINGLE SESSION,MIXED LEVELS,Yes,Yes,No,No,Chinese,na,na,"Maris Stella High School, 25, Mount Vernon Road, Joo Seng, Southeast, 368051, Singapore",1.34203865,103.87832755031559
MARSILING PRIMARY SCHOOL,http://www.marsilingpri.moe.edu.sg,31   WOODLANDS CENTRE ROAD,738927,62696193,na,62699050,na,MARSILING_PS@MOE.EDU.SG,Marsiling MRT Station,"856, 911, 912",MISS CHEE CHUERN HWEI CHERYL,MISS ESTHER ONG CHIN CHIN,MR TAN CHOON SHING,,,,,WOODLANDS,NORTH,GOVERNMENT SCHOOL,CO-ED SCHOOL,SINGLE SESSION,PRIMARY,No,No,No,No,Chinese,Malay,Tamil,"Marsiling Primary School, 31, Woodlands Centre Road, Woodlands, Northwest, 738927, Singapore",1.4341551,103.77336667761655
MARSILING SECONDARY SCHOOL,http://www.marsilingsec.moe.edu.sg,12   MARSILING ROAD,739110,68941413,na,68946156,na,MARSILING_SS@MOE.EDU.SG,MARSILING MRT,"913, 911",MR GOH AIK CHOON,MR TAY KIM SENG,,,,,,WOODLANDS,NORTH,GOVERNMENT SCHOOL,CO-ED SCHOOL,SINGLE SESSION,SECONDARY,No,No,No,No,Chinese,Malay,Tamil,"Marsiling Secondary School, 12, Marsiling Road, Woodlands, Northwest, 739110, Singapore",1.43729935,103.77594105924656
MARYMOUNT CONVENT SCHOOL,HTTP://WWW.MARYMOUNTCONVENT.MOE.EDU.SG,20   Marymount Road,297754,6256 6701,6256 6532,6254 3080,na,enquire@marymount.edu.sg,Braddell MRT Station or  Caldecott MRT Station,"141, 235",MRS ALLISON LIM,MDM LEE SWEE MEI CHERYL,MDM TAN MEI MEI ANNA,,,,,TOA PAYOH,SOUTH,GOVERNMENT-AIDED SCH,GIRLS' SCHOOL,SINGLE SESSION,PRIMARY,No,No,No,No,Chinese,Malay,Tamil,"Marymount Convent School, 20, Marymount Road, Toa Payoh, Central, 297754, Singapore",1.3402824,103.83975627199351
MAYFLOWER PRIMARY SCHOOL,http://www.mayflowerpri.moe.edu.sg,6    Ang Mo Kio Avenue 2,569948,64520849,na,64534116,na,MAYFLOWER_PS@MOE.EDU.SG,Yio Chu Kang MRT Station.,"13,86,138,162,269,851,852,853.",MRS LIM- CHUA SIOW LING,MDM CHNG HWUI LIN WINEFREDE,MISS KONG YUIT CHAN NOELLE,,,,,ANG MO KIO,SOUTH,GOVERNMENT SCHOOL,CO-ED SCHOOL,SINGLE SESSION,PRIMARY,No,No,No,No,Chinese,Malay,Tamil,"6, Ang Mo Kio Avenue 2, Ang Mo Kio, Central, 569948, Singapore",1.3762526,103.83564617885168
MAYFLOWER SECONDARY SCHOOL,http://www.mayflowersec.moe.edu.sg,2    ANG MO KIO STREET 21,569384,64577783,na,64583284,na,MAYFLOWER_SS@MOE.EDU.SG,"ANG MO KIO MRT, MAYFLOWER MRT (Targeted to open in 2020)","71, 76, 132, 165, 166, 169, 262, 265, 268, 269",MDM LEE EET FONG,MR GOH KENG TENG GORDON,MR PRASHANT S/O JAYAPRAGAS,,,,,ANG MO KIO,SOUTH,GOVERNMENT SCHOOL,CO-ED SCHOOL,SINGLE SESSION,SECONDARY,No,No,No,No,Chinese,Malay,Tamil,"Mayflower Secondary School, 2, Ang Mo Kio Street 21, Ang Mo Kio, Central, 569384, Singapore",1.36906525,103.83577078845278
MEE TOH SCHOOL,http://www.meetoh.moe.edu.sg/,21   EDGEDALE PLAINS,828867,64893326,na,64893243,na,MEETOH_SCH@MOE.EDU.SG,Punggol Station,"3,62,83",MDM TAN SUN SUN,MDM TAN LAY WAH,MR LEE CHONG TART RONALD,,,,,PUNGGOL,NORTH,GOVERNMENT-AIDED SCH,CO-ED SCHOOL,SINGLE SESSION,PRIMARY,No,No,No,No,Chinese,Malay,na,"Mee Toh School, 21, Edgedale Plains, Punggol, Northeast, 828867, Singapore",1.3948814,103.90854484597197
MERIDIAN PRIMARY SCHOOL,http://www.meridianpri.moe.edu.sg/,20   PASIR RIS ST 71,518798,65832125,na,65834993,na,MERIDIAN_PS@MOE.EDU.SG,Pasir Ris MRT Station,"3,359",MS LIZA BTE RAHMAT,DR LAU HOCK SOON,,,,,,PASIR RIS,EAST,GOVERNMENT SCHOOL,CO-ED SCHOOL,SINGLE SESSION,PRIMARY,No,No,No,No,Chinese,Malay,Tamil,"Meridian Primary School, 20, Pasir Ris Street 71, Pasir Ris, Northeast, 518798, Singapore",1.3760329,103.9352079847041
MERIDIAN SECONDARY SCHOOL,http://www.meridiansec.moe.edu.sg,31   PASIR RIS STREET 51,518901,65831387,na,65836467,na,meridian_sec@moe.edu.sg,PASIR RIS MRT,"39, 53, 81, 89, 109, 359, 403, 518",MDM TAN HWEE TSIAN HILDA,MR MOHD AZMAN B MOHD SIDEK,MRS ROSE CHEN,,,,,PASIR RIS,EAST,GOVERNMENT SCHOOL,CO-ED SCHOOL,SINGLE SESSION,SECONDARY,No,No,No,No,Chinese,Malay,Tamil,"Meridian Secondary School, 31, Pasir Ris Street 51, Pasir Ris, Northeast, 518901, Singapore",1.36757525,103.9489426571053
METHODIST GIRLS' SCHOOL (PRIMARY),http://www.mgs.sch.edu.sg,11   Blackmore Drive,599986,64694800,na,64624166,na,mgps@moe.edu.sg,King Albert Park MRT,"66, 67, 74, 77, 151, 154, 157, 170, 171, 174, 852, 961, 970",NG WUN HAR GRACE,MISS LIM JING WEN KAREN,MISS HANNAH CHIA CUI'E,,,,,BUKIT TIMAH,WEST,GOVERNMENT-AIDED SCH,GIRLS' SCHOOL,SINGLE SESSION,PRIMARY,No,No,No,No,Chinese,Malay,Tamil,"Methodist Girls' School, 11, Blackmore Drive, Bukit Timah, Northwest, 599986, Singapore",1.3328403500000001,103.78357653245811
METHODIST GIRLS' SCHOOL (SECONDARY),http://www.mgs.moe.edu.sg,11   BLACKMORE DRIVE,599986,64694800,na,64698717,na,MGSS@MOE.EDU.SG,KING ALBERT PARK MRT,"66, 67, 74, 77, 151, 154, 157, 170, 174, 852, 961, 970",MISS NG WUN HAR GRACE,MDM WEE KHENG LIN CORINNE,MDM TAN P'ENG DIANA,,,,,BUKIT TIMAH,WEST,INDEPENDENT SCHOOL,GIRLS' SCHOOL,SINGLE SESSION,SECONDARY,No,No,No,Yes,Chinese,Malay,Tamil,"Methodist Girls' School, 11, Blackmore Drive, Bukit Timah, Northwest, 599986, Singapore",1.3328403500000001,103.78357653245811
MILLENNIA INSTITUTE,http://www.millenniainstitute.moe.edu.sg,60   Bukit Batok West Avenue 8,658965,63023700,na,63023767,na,millennia_inst@moe.edu.sg,Bukit Batok (NS 2),"157, 174, 174e, 178, 506, 991, 941, 160M",MRS TAN WAN YU,MR CHIA GUO HAO,MR LIN GUOJING,,,,,BUKIT BATOK,WEST,GOVERNMENT SCHOOL,CO-ED SCHOOL,FULL DAY,CENTRALISED INSTITUTE,No,No,No,No,Chinese,Malay,Tamil,"Millennia Institute, 60, Bukit Batok West Avenue 8, Bukit Batok, Southwest, 658965, Singapore",1.3510437,103.74115973524918
MONTFORT JUNIOR SCHOOL,http://www.montfortjunior.moe.edu.sg/,52   HOUGANG AVENUE 8,538786,65101588,na,65101599,na,MONTFORT_JS@MOE.EDU.SG,Hougang MRT & Bus Interchange,"74,88,101,147,161,",MR WONG KENG YUIN WILBUR,MDM POH LEE SIEW,MR TAN WEE BOON,,,,,HOUGANG,NORTH,GOVERNMENT-AIDED SCH,BOYS' SCHOOL,SINGLE SESSION,PRIMARY,No,No,No,No,Chinese,Malay,Tamil,"Montfort Junior School, 52, Hougang Avenue 8, Hougang, Northeast, 538786, Singapore",1.3746523499999999,103.88953676594389
MONTFORT SECONDARY SCHOOL,https://montfortsec.moe.edu.sg/,50   HOUGANG AVENUE 8,538785,65107070,na,63862804,na,contact@montfortsec.edu.sg,HOUGANG MRT,"74, 74e, 88, 88A, 101, 147, 147A, 161",MR LIM HOCK SEONG KELVIN,MR LEE THUAN SIM,MDM CHING LEE HOE,,,,,HOUGANG,NORTH,GOVERNMENT-AIDED SCH,BOYS' SCHOOL,SINGLE SESSION,SECONDARY,No,No,No,No,Chinese,Malay,Tamil,"Monfort Secondary School, 50, Hougang Avenue 8, Hougang, Northeast, 538785, Singapore",1.3738332500000001,103.88879516794466
NAN CHIAU HIGH SCHOOL,http://www.nchs.edu.sg,20   ANCHORVALE LINK,545079,64897971,na,64897970,na,nchs@moe.edu.sg,"SENGKANG MRT, RENJONG LRT, TONGKANG LRT","43, 83, 85, 109, 156, 159, 161, 163, 372",MISS SIAU FONG FUI,MDM CHOW NYET YOON,,,,,,SENG KANG,NORTH,GOVERNMENT-AIDED SCH,CO-ED SCHOOL,SINGLE SESSION,SECONDARY,Yes,No,No,No,Chinese,na,na,"Nan Chiau High School, 20, Anchorvale Link, Seng Kang, Northeast, 545079, Singapore",1.3894693,103.89008329140609
NAN CHIAU PRIMARY SCHOOL,http://www.ncps.moe.edu.sg,50   ANCHORVALE LINK,545080,64897905,na,64897906,na,NCPS@MOE.EDU.SG,Sengkang Station,"156, 159, 161, 371, 372",MRS ONG LOH JIA MIIN,MDM LIM SHEUE TYUG,MR JACKSON KEK,,,,,SENG KANG,NORTH,GOVERNMENT-AIDED SCH,CO-ED SCHOOL,SINGLE SESSION,PRIMARY,No,No,No,No,Chinese,Malay,Tamil,"Nan Chiau Primary School, 50, Anchorvale Link, Seng Kang, Northeast, 545080, Singapore",1.3920267499999999,103.89104244775346
NAN HUA HIGH SCHOOL,http://www.nanhuahigh.moe.edu.sg,41   CLEMENTI AVENUE 1,129956,67788303,na,67751956,na,nhhs@moe.edu.sg,CLEMENTI MRT,"14, 33, 52, 78, 96, 97, 105, 106, 147, 151, 154, 165, 166, 183, 185, 188, 189, 196, 197, 198, 282, 285, 963",MRS TAN JONG LEK,MDM TAN MOK JEE,MR KONG KOK HENG MELVIN,,,,,CLEMENTI,WEST,GOVERNMENT SCHOOL,CO-ED SCHOOL,SINGLE SESSION,SECONDARY,Yes,Yes,No,No,Chinese,na,na,"Nan Hua High School, 41, Clementi Avenue 1, Clementi, Southwest, 129956, Singapore",1.3083036,103.76909696778512
NAN HUA PRIMARY SCHOOL,http://www.nanhuapri.moe.edu.sg,30   Jalan Lempeng,128806,67788050,na,67784127,na,nhps@moe.edu.sg,Clementi MRT Station,"30, 51, 143, 175, 201, 533, 655, 727, 762",MDM CHIA HUI KHIM,MDM JOSEPHINE NG,MISS TAN PEIRU,,,,,CLEMENTI,WEST,GOVERNMENT-AIDED SCH,CO-ED SCHOOL,DOUBLE SESSION,PRIMARY,Yes,No,Yes,No,Chinese,na,na,"30, Jalan Lempeng, Clementi, Southwest, 128806, Singapore",1.319504,103.76183412747466
NANYANG GIRLS' HIGH SCHOOL,https://www.nygh.edu.sg,2    LINDEN DRIVE,288683,64663275,na,64667564,na,nanyanggirls@nygh.edu.sg,"SIXTH AVENUE MRT, TAN KAH KEE MRT","66, 67, 74, 151, 154, 156, 157, 170, 174, 852, 961",MS NG CHUEN- YIN,DR LIU SHIUEH LING,MISS SEET YING LING BRITTA,MS NG MIEN MIEN AGNES,,,,BUKIT TIMAH,WEST,INDEPENDENT SCHOOL,GIRLS' SCHOOL,SINGLE SESSION,SECONDARY,Yes,No,Yes,Yes,Chinese,na,na,"Nanyang Girls' High School, 2, Linden Drive, Bukit Timah, Northwest, 288683, Singapore",1.3305083500000001,103.8023239692522
NANYANG JUNIOR COLLEGE,http://www.nanyangjc.moe.edu.sg/,128  SERANGOON AVENUE 3,556111,62842281,na,62855147,na,nyjc@moe.edu.sg,2-minute walk from the Lorong Chuan MRT Station (Circle Line),"22, 24, 53, 73, 133, 105, 135, 136, 156, 853",MR LOW CHUN MENG,MISS WU XINPING JENNIFER,MR KOH CHEE HUI,,,,,SERANGOON,SOUTH,GOVERNMENT-AIDED SCH,CO-ED SCHOOL,FULL DAY,JUNIOR COLLEGE,No,No,No,No,na,na,na,"Nanyang Junior College, 128, Serangoon Avenue 3, Serangoon, Southeast, 556111, Singapore",1.3513392999999998,103.86657490591355
NANYANG PRIMARY SCHOOL,http://www.nyps.moe.edu.sg,52   KING'S ROAD,268097,64672677,na,64686913,na,NYPS@MOE.EDU.SG,Farrer Rd MRT Station,"66, 67, 74, 93, 151, 153, 154, 156, 157, 165, 170, 171, 174, 186, 852, 855, 961",MDM LER JIA LUEN,MDM NG BOON IN,MR CHAN CHEONG CHEONG,,,,,BUKIT TIMAH,WEST,GOVERNMENT-AIDED SCH,CO-ED SCHOOL,SINGLE SESSION,PRIMARY,Yes,No,Yes,No,Chinese,na,na,"Nanyang Primary School, 52, King's Road, Bukit Timah, Northwest, 268097, Singapore",1.3208318499999998,103.80821659496904
NATIONAL JUNIOR COLLEGE,http://www.nationaljc.moe.edu.sg,37   HILLCREST ROAD,288913,64661144,na,64684535,na,NJC@MOE.EDU.SG,"BOTANIC GARDENS MRT, TAN KAH KEE MRT, SIXTH AVENUE MRT","66, 67, 74, 151, 154, 156, 157, 170, 174, 852, 961, 972",MR ANG POW CHEW,MR HARMAN AUGUSTUS JOHLL,MDM TAN PHUAY BOON,,,,,BUKIT TIMAH,SOUTH,GOVERNMENT SCHOOL,CO-ED SCHOOL,FULL DAY,MIXED LEVELS,No,No,No,Yes,Chinese,Malay,Tamil,"National Junior College, 37, Hillcrest Road, Bukit Timah, Northwest, 288913, Singapore",1.330727,103.80441667162106
NAVAL BASE PRIMARY SCHOOL,http://www.navalbasepri.moe.edu.sg/,7    YISHUN AVE 4,769028,67537114,na,67555355,na,NBPS@MOE.EDU.SG,Yishun MRT Station,Feeder bus No. 811 from Yishun Interchange.,MRS SITA SINGH,MR MUHAMMAD FAISAL B PAIRIN,MDM LIM WAI CHOO,,,,,YISHUN,NORTH,GOVERNMENT SCHOOL,CO-ED SCHOOL,SINGLE SESSION,PRIMARY,No,No,No,No,Chinese,Malay,Tamil,"Naval Base Primary School, 7, Yishun Avenue 4, Yishun, Northwest, 769028, Singapore",1.4165306000000002,103.83846101951393
NAVAL BASE SECONDARY SCHOOL,http://www.navalbasesec.moe.edu.sg,901  YISHUN RING ROAD,768689,62571996,na,67557706,na,NBSS@MOE.EDU.SG,KHATIB MRT,"39, 85, 117, 670, 807, 811, 812, 851, 852, 853, 854, 855, 857, 858, 965, 969",MR SULAIMAN B MOHAMAD YUSOF,MR LIM SEOW KUAN,MR LYE GUO RONG LIONEL,,,,,YISHUN,NORTH,GOVERNMENT SCHOOL,CO-ED SCHOOL,SINGLE SESSION,SECONDARY,No,No,No,No,Chinese,Malay,Tamil,"Naval Base Secondary School, 901, Yishun Ring Road, Yishun, Northwest, 768689, Singapore",1.419211,103.83099497032207
NEW TOWN PRIMARY SCHOOL,http://www.newtownpri.moe.edu.sg/,300  Tanglin Halt Road,148812,64748805,na,64741249,na,NTPS@MOE.EDU.SG,Commonwealth MRT Station,"SBS Numbers 32, 100, 105, 111, 145, 147, 195, 196, 198, 855",MRS TAN-NG WIE PIN,MR ONG SZE CHONG BRYAN,MRS CHAN-CHIN WEY LING LYNNE,,,,,QUEENSTOWN,SOUTH,GOVERNMENT SCHOOL,CO-ED SCHOOL,SINGLE SESSION,PRIMARY,No,No,No,No,Chinese,Malay,Tamil,"New Town Primary School, 300, Tanglin Halt Road, Queenstown, Central, 148812, Singapore",1.29972515,103.80008513099864
NEW TOWN SECONDARY SCHOOL,http://www.newtownsec.moe.edu.sg,1020 DOVER ROAD,139657,67754140,na,67752310,na,ntss@moe.edu.sg,"DOVER MRT, CLEMENTI MRT","33, 96, 96A, 151, 196, 183",MDM TAN SIEW HONG (MRS SNG),MR CHAN KOK TUNG TOM,MR LEONARD TAN SOON TECK,,,,,QUEENSTOWN,WEST,GOVERNMENT SCHOOL,CO-ED SCHOOL,SINGLE SESSION,SECONDARY,No,No,No,No,Chinese,Malay,Tamil,"New Town Secondary School, 1020, Dover Road, Queenstown, Southwest, 139657, Singapore",1.30988355,103.77360136689545
NGEE ANN PRIMARY SCHOOL,http://www.ngeeannpri.moe.edu.sg,344  MARINE TERRACE,449149,64418677,na,64417411,na,NAPS@MOE.EDU.SG,Nil,"13, 16, 16M, 31,36, 43, 47, 48, 55, 135, 196, 196E, 197, 853M (at Marine Parade road) 13, 16, 16M, 196 and 196E(at Marine Terrace)",MDM PANG SIU SAN,MISS LIAW SHAOJUN,,,,,,MARINE PARADE,EAST,GOVERNMENT-AIDED SCH,CO-ED SCHOOL,SINGLE SESSION,PRIMARY,No,No,No,No,Chinese,Malay,Tamil,"Ngee Ann Primary School, 344, Marine Terrace, Marine Parade, Southeast, 449149, Singapore",1.30554595,103.91795247595277
NGEE ANN SECONDARY SCHOOL,http://www.ngeeannsec.moe.edu.sg,1    TAMPINES STREET 32,529283,67844583,na,67840453,na,nass@moe.edu.sg,"TAMPINES MRT, SIMEI MRT, TAMPINES EAST MRT","3, 4, 8, 9, 12, 17, 18, 19, 21, 28, 29, 34, 37, 38, 39, 59, 81, 291, 293, 518, 552",MR TEO KOK HONG,MDM TAN LAY GIN,MR TAN YIT KEE,,,,,TAMPINES,EAST,GOVERNMENT-AIDED SCH,CO-ED SCHOOL,SINGLE SESSION,SECONDARY,No,Yes,No,No,Chinese,Malay,Tamil,"Ngee Ann Secondary School, 1, Tampines Street 32, Tampines, Northeast, 529283, Singapore",1.3543069,103.95665280780372
NORTH SPRING PRIMARY SCHOOL,http://www.northspringpri.moe.edu.sg,1    RIVERVALE STREET,545088,68816887,63888764,63851044,na,nsps@moe.edu.sg,NEL - Sengkang Station LRT - Bakau Station,"SBS Transit Services 82, 85, 86, 88, 119, 136, 163, 372",MDM PHAN SWEE LIN SHERIN JACINTA,MR JASBIR SINGH,,,,,,SENG KANG,NORTH,GOVERNMENT SCHOOL,CO-ED SCHOOL,SINGLE SESSION,PRIMARY,No,No,No,No,Chinese,Malay,Tamil,"North Spring Primary School, 1, Rivervale Street, Seng Kang, Northeast, 545088, Singapore",1.3876014,103.9037892237047
NORTH VIEW PRIMARY SCHOOL,http://www.northviewpri.moe.edu.sg,210  YISHUN AVENUE 6,768960,67593235,na,67593237,na,NVPS@MOE.EDU.SG,Yishun Khatib,"Feeder Service 804, 806, 807, 860",MDM WONG MEI FOONG,MDM UE TAY SZE YIN,MR RAJINDER SINGH S/O PIARA SINGH,MR HANIFF A T,,,,YISHUN,NORTH,GOVERNMENT SCHOOL,CO-ED SCHOOL,SINGLE SESSION,PRIMARY,No,No,No,No,Chinese,Malay,Tamil,"North View Primary School, 210, Yishun Avenue 6, Yishun, Northwest, 545088, Singapore",1.42773465,103.8486565717647
NORTH VISTA PRIMARY SCHOOL,http://www.northvistapri.moe.edu.sg,20   Compassvale Link,544974,64843566,na,64843568,na,nvtps@moe.edu.sg,"Buangkok MRT (NE15), Ranggung LRT (SE5)",na,MR ONG LYE WHATT,MR WEE HOCK MENG VICTOR,MR AMRAN B TASRIF,,,,,SENG KANG,NORTH,GOVERNMENT SCHOOL,CO-ED SCHOOL,SINGLE SESSION,PRIMARY,No,No,No,No,Chinese,Malay,na,"North Vista Primary School, 20, Compassvale Link, Seng Kang, Northeast, 544974, Singapore",1.3828947999999999,103.89597706955436
NORTH VISTA SECONDARY SCHOOL,http://www.northvistasec.moe.edu.sg,11   RIVERVALE LINK,545081,68793930,na,68793931,na,northvistass@moe.edu.sg,"SENGKANG MRT, BUANGKOK MRT, RANGGUNG LRT","80, 82, 87, 88, 89, 119",MR YAP THIAM CHUAN,MR MOHAMED NASIM S/O ABDUL RAHIM,,,,,,SENG KANG,NORTH,GOVERNMENT SCHOOL,CO-ED SCHOOL,SINGLE SESSION,SECONDARY,No,No,No,No,Chinese,Malay,Tamil,"North Vista Secondary School, 11, Rivervale Link, Seng Kang, Northeast, 545081, Singapore",1.3816673000000002,103.89878616016483
NORTHBROOKS SECONDARY SCHOOL,http://www.northbrookssec.moe.edu.sg,585  YISHUN RING ROAD,768692,67524311,na,67566110,na,NORTHBROOKS@MOE.EDU.SG,"YISHUN MRT, KHATIB MRT","804, 806, 807, 860, 103",MR CHAN CHOON LOONG,MR ADAM BIN AHMAD,MISS POH SHI HUI,,,,,YISHUN,NORTH,GOVERNMENT SCHOOL,CO-ED SCHOOL,SINGLE SESSION,SECONDARY,No,No,No,No,Chinese,Malay,Tamil,"Northbrooks Secondary School, 585, Yishun Ring Road, Yishun, Northwest, 768692, Singapore",1.4212669,103.8447792
NORTHLAND PRIMARY SCHOOL,http://www.northlandpri.moe.edu.sg,15   YISHUN AVENUE 4,769026,67598884,na,67559196,na,NORTHLAND_PS@MOE.EDU.SG,Yishun MRT Station,812 (next to bus service number 171) at Yishun Interchange,MR JAY WESTLY MAHARDALE,MDM NEO AIK SEO,,,,,,YISHUN,NORTH,GOVERNMENT SCHOOL,CO-ED SCHOOL,SINGLE SESSION,PRIMARY,No,No,No,No,Chinese,Malay,Tamil,"Northland Primary School, 15, Yishun Avenue 4, Yishun, Northwest, 769026, Singapore",1.4212034,103.84058396984423
NORTHLAND SECONDARY SCHOOL,http://www.northlandsec.moe.edu.sg,3    YISHUN STREET 22,768578,62576781,na,62573634,na,NORTHLAND_SS@MOE.EDU.SG,YISHUN MRT,"811, 804, 800",MDM TAN SIEW WOON,MS BIAN YU WEI,MR PETERSON JOSEPH STANLEY,,,,,YISHUN,NORTH,GOVERNMENT SCHOOL,CO-ED SCHOOL,SINGLE SESSION,SECONDARY,No,No,No,No,Chinese,Malay,Tamil,"Northland Secondary School, 3, Yishun Street 22, Yishun, Northwest, 768578, Singapore",1.43571045,103.84071947342821
NORTHLIGHT SCHOOL,https://www.nls.edu.sg,151  Towner Road,327830,+65 69296290,na,+ 65 62912423,na,nls@moe.edu.sg,BOON KENG (NE9),"21, 125, 130, 139, 145, 13, 23, 31, 64, 65, 133, 147, 857, 985",MDM SUNG MEE HAR,MR RAJ KUMAR S/O V SIVALINGAM,,,,,,KALLANG,SOUTH,SPECIALISED SCHOOL,CO-ED SCHOOL,FULL DAY,SECONDARY,No,No,No,No,Chinese,Malay,Tamil,"Northlight School, 151, Towner Road, Kallang, Central, 327830, Singapore",1.3194591500000001,103.85561760931793
NORTHOAKS PRIMARY SCHOOL,http://www.northoakspri.moe.edu.sg,61   Sembawang Drive,757622,6753 8835,na,6753 8864,na,northoaks_ps@moe.edu.sg,Sembawang MRT,Bus number 962,"MR CHER TECK YIANG, LUKE MELVIN",MISS TAN YIT PENG,MDM HO JUN- LYNN,,,,,SEMBAWANG,NORTH,GOVERNMENT SCHOOL,CO-ED SCHOOL,SINGLE SESSION,PRIMARY,No,No,No,No,Chinese,Malay,Tamil,"Northoarks Primary School, 61, Sembawang Drive, Sembawang, Northwest, 757622, Singapore",1.45694685,103.81354104538616
NORTHSHORE PRIMARY SCHOOL,www.northshorepri.moe.edu.sg,30   Northshore Drive,828671,62026490,na,62026491,na,northhshore_ps@moe.edu.sg,Puggol Point LRT Station,"84, 384",MDM LEE YEN PING CHRISTINE,MDM GAN SER MIN,,,,,,PUNGGOL,EAST,GOVERNMENT SCHOOL,CO-ED SCHOOL,SINGLE SESSION,PRIMARY,No,No,No,No,Chinese,Malay,Tamil,"Northshore Primary School, 30, Northshore Drive, Punggol, Northeast, 828671, Singapore",1.4180937999999998,103.90466700674057
NUS HIGH SCHOOL OF MATHEMATICS AND SCIENCE,www.nushigh.edu.sg,20   Clementi Avenue 1,129957,65161709,na,67756910,na,einstein@highsch.nus.edu.sg,Nearest MRT Stations - Clementi and Dover,"96, 97, 151, 183, 188, 189, 196, 197, 198",MDM SOH LAI LENG MAGDALEN,MR GOH HOCK LEONG,MR CLIFTON KOH SIEW BOON,,,,,CLEMENTI,WEST,SPECIALISED INDEPENDENT SCHOOL,CO-ED SCHOOL,FULL DAY,MIXED LEVELS,No,No,No,Yes,Chinese,Malay,Tamil,"Clementi Avenue 1, Clementi, Southwest, 121420, Singapore",1.3101798,103.768436
OASIS PRIMARY SCHOOL,http://www.oasispri.moe.edu.sg/,71   Edgefield Plains,828716,6320 9855,na,6320 9856,na,oasis_ps@moe.edu.sg,Damai LRT Station,"50, 386",MRS ONG-CHEW LU SEE,MDM NG YIN SZE JOSEPHINE,MDM CHUT SHI LIN,,,,,PUNGGOL,EAST,GOVERNMENT SCHOOL,CO-ED SCHOOL,SINGLE SESSION,PRIMARY,No,No,No,No,Chinese,Malay,Tamil,"Oasis Primary School, 71, Edgefield Plains, Punggol, Northeast, 828716, Singapore",1.40470205,103.91100795444132
OPERA ESTATE PRIMARY SCHOOL,http://www.operaestatepri.moe.edu.sg,48   FIDELIO STREET,458436,62410417,na,64493042,na,oeps@moe.edu.sg,"Bedok, Kembangan",42,MDM LOE LAI PINK,MDM ADILA ONG KIM LUAN,MR RAYMOND TAY KOON MING,,,,,BEDOK,EAST,GOVERNMENT SCHOOL,CO-ED SCHOOL,SINGLE SESSION,PRIMARY,No,No,No,No,Chinese,Malay,Tamil,"Opera Estate Primary School, 48, Fidelio Street, Bedok, Southeast, 458436, Singapore",1.3196642,103.92376598402687
ORCHID PARK SECONDARY SCHOOL,http://www.orchidparksec.moe.edu.sg,10   YISHUN STREET 81,768454,67598547,na,67588770,na,opss@moe.edu.sg,KHATIB MRT,811,MR SHAWAL BIN HUSSIN,MDM TEO MEI LIN YVONNE,"MR WONG TIEN CHIEH, GLENN",,,,,YISHUN,NORTH,GOVERNMENT SCHOOL,CO-ED SCHOOL,SINGLE SESSION,SECONDARY,No,No,No,No,Chinese,Malay,Tamil,"Orchid Park Secondary School, 10, Yishun Street 81, Yishun, Northwest, 768454, Singapore",1.4157749499999999,103.83810287861955
OUTRAM SECONDARY SCHOOL,http://www.outramsec.moe.edu.sg,3    YORK HILL,168622,67334077,na,62352337,na,OSS@MOE.EDU.SG,"OUTRAM PARK MRT, CHINATOWN MRT","174 , 123, 16, 175, 195, 33, 5, 63, 75, 851, 970, 123, 186, 51, 64",MR BOO HIAN KOK,MR LIM PANG CHUANG,MDM GUINIEVE YEO LI-LYN,,,,,CENTRAL,SOUTH,GOVERNMENT SCHOOL,CO-ED SCHOOL,SINGLE SESSION,SECONDARY,No,No,No,No,Chinese,Malay,Tamil,"Outram Secondary School, 3, York Hill, Chinatown, Outram, Central, 168622, Singapore",1.28627625,103.83712669941735
PALM VIEW PRIMARY SCHOOL,http://www.palmviewpri.moe.edu.sg,150  Compassvale Bow,544822,65087300,na,68754150,na,palmview_ps@moe.edu.sg,Buangkok,"27,43,109,156,159,161,163,163M,550",MRS MING KUM,MR LOH BIN,,,,,,SENG KANG,NORTH,GOVERNMENT SCHOOL,CO-ED SCHOOL,SINGLE SESSION,PRIMARY,No,No,No,No,Chinese,Malay,na,"Palm View Primary School, 150, Compassvale Bow, Seng Kang, Northeast, 544822, Singapore",1.38410015,103.89115435183996
PARK VIEW PRIMARY SCHOOL,http://www.parkviewpri.moe.edu.sg,60   PASIR RIS DRIVE 1,519524,65851421,na,65851401,na,PVPS@MOE.EDU.SG,Pasir Ris MRT Station,"358,39,53,81,89",MISS OH SEE MOEY,MDM HO FUI FONG,,,,,,PASIR RIS,EAST,GOVERNMENT SCHOOL,CO-ED SCHOOL,SINGLE SESSION,PRIMARY,No,No,No,No,Chinese,Malay,Tamil,"ParkView Primary School, 60, Pasir Ris Drive 1, Pasir Ris, Northeast, 519524, Singapore",1.3776221999999998,103.93927848171822
PASIR RIS CREST SECONDARY SCHOOL,http://www.prcss.moe.edu.sg,11   PASIR RIS STREET 41,518934,65811655,na,65813226,na,prcss@moe.edu.sg,PASIR RIS MRT,"358, 17, 81, 12, 3",MRS KOH CAIYU,MR ADRIAN LEOW LIP BOON,MR ASHRAF HYDER YUSOFF MANIAM,,,,,PASIR RIS,EAST,GOVERNMENT SCHOOL,CO-ED SCHOOL,SINGLE SESSION,SECONDARY,No,No,No,No,Chinese,Malay,Tamil,"Pasir Ris Crest Secondary School, 11, Pasir Ris Street 41, Pasir Ris, Northeast, 518934, Singapore",1.37271,103.9597609909008
PASIR RIS PRIMARY SCHOOL,http://www.pasirrispri.moe.edu.sg,5    PASIR RIS STREET 21,518968,65822606,na,65828492,na,prps@moe.edu.sg,Pasir Ris MRT,"3,5,6,89",MR TAN KING MING,MDM THILAGAMANI D/O T SIVANANDAM,,,,,,PASIR RIS,EAST,GOVERNMENT SCHOOL,CO-ED SCHOOL,SINGLE SESSION,PRIMARY,No,No,No,No,Chinese,Malay,Tamil,"Pasir Ris Primary School, 5, Pasir Ris Street 21, Pasir Ris, Northeast, 518968, Singapore",1.37215285,103.96302630022184
PASIR RIS SECONDARY SCHOOL,http://pasirrissec.moe.edu.sg,390  TAMPINES STREET 21,529400,65010800,65010855,65010900,na,prss@moe.edu.sg,"TAMPINES MRT, TAMPINES EAST MRT,  TAMPINES WEST MRT","3, 4, 8, 10, 15, 18, 19, 20, 21, 22, 23, 27, 28, 29, 31, 37, 38, 39, 46, 65, 67, 68, 69, 72, 81, 127, 129, 168, 291, 292, 293, 298, 969",MDM GRACE TAN BEE SIM,MR LIN PEI,,,,,,TAMPINES,EAST,GOVERNMENT SCHOOL,CO-ED SCHOOL,SINGLE SESSION,SECONDARY,No,No,No,No,Chinese,Malay,Tamil,"Pasir Ris Secondary School, 390, Tampines Street 21, Tampines, Northeast, 529400, Singapore",1.35470585,103.94852724495263
PAYA LEBAR METHODIST GIRLS' SCHOOL (PRIMARY),http://www.payalebarmethodistgirlspri.moe.edu.sg/,298  LORONG AH SOO,536741,62862795,na,62803915,na,PLMGPS@MOE.EDU.SG,"Kovan (NE13), Serangoon(NE12/CC13)","45, 53, 53M, 62, 113",MRS JOYCE ANG,MS GRACE TAY MENG HON,,,,,,HOUGANG,EAST,GOVERNMENT-AIDED SCH,GIRLS' SCHOOL,SINGLE SESSION,PRIMARY,No,No,No,No,Chinese,Malay,Tamil,"Paya Lebar Methodist Girls' Primary School, 298, Lorong Ah Soo, Hougang, Northeast, 536741, Singapore",1.34993195,103.88492375591991
PAYA LEBAR METHODIST GIRLS' SCHOOL (SECONDARY),http://www.plmgss.moe.edu.sg,296  LOR AH SOO,536742,62816606,na,63820558,na,plmgss@moe.edu.sg,"KOVAN MRT, SERANGOON MRT","45, 53, 53M, 62, 113",MRS QUEK LI GEK,MDM TAN MAY LIN SELINA,,,,,,HOUGANG,EAST,GOVERNMENT-AIDED SCH,GIRLS' SCHOOL,SINGLE SESSION,SECONDARY,No,Yes,No,No,Chinese,Malay,Tamil,"Hougang, Northeast, 536742, Singapore",1.34993195,103.88566583311469
PEI CHUN PUBLIC SCHOOL,http://www.peichunpublic.moe.edu.sg,16   LORONG 7 TOA PAYOH,319320,63539450,na,63538418,na,PCPS@MOE.EDU.SG,Toa Payoh MRT Station and Braddell MRT Station,"Bus Service 232, 57",MR LIM MENG WEI,MISS ADELINE LEONG QINGHUA,MISS SNG WAN XIAN,,,,,TOA PAYOH,SOUTH,GOVERNMENT-AIDED SCH,CO-ED SCHOOL,SINGLE SESSION,PRIMARY,Yes,No,No,No,Chinese,na,na,"Pei Chun Public School, 16, Lorong 7 Toa Payoh, Toa Payoh, Central, 319320, Singapore",1.3370857,103.85567994909927
PEI HWA PRESBYTERIAN PRIMARY SCHOOL,http://www.peihwapresbyterianpri.moe.edu.sg/,7    PEI WAH AVENUE,597610,64663787,64663797,64621944,na,phpps@moe.edu.sg,Beauty World,"970, 852, 174, 173, 157, 77, 61",MRS ELSIE POEY,MRS JACQUELINE HIEW,MDM YONG MING WOEI CHLOE,,,,,BUKIT TIMAH,WEST,GOVERNMENT-AIDED SCH,CO-ED SCHOOL,DOUBLE SESSION,PRIMARY,Yes,No,No,No,Chinese,na,na,"Pei Hwa Presbyterian Primary School, 7, Pei Wah Avenue, Southwest, 597610, Singapore",1.3380993,103.77621882050181
PEI HWA SECONDARY SCHOOL,http://www.peihwasec.moe.edu.sg,21   FERNVALE LINK,797702,65009580,na,63438326,na,peihwasec@moe.edu.sg,"SENGKANG MRT, LAYAR LRT","50, 70, 86, 103, 163, 854",MDM YONG LI LING BELINDA,MR TAN CHER HUI PHILIP,MRS MICHELLE WILLMAN,,,,,SENG KANG,NORTH,GOVERNMENT SCHOOL,CO-ED SCHOOL,SINGLE SESSION,SECONDARY,No,No,No,No,Chinese,Malay,Tamil,"Pei Hwa Secondary School, 21, Fernvale Link, Fernvale, Central, 797702, Singapore",1.39088135,103.87815202921738
PEI TONG PRIMARY SCHOOL,http://www.peitongpri.moe.edu.sg/,15   CLEMENTI AVENUE 5,129857,67775458,na,67789784,na,PTPS@MOE.EDU.SG,Clementi,"7, 184, 282",MRS NG- TEO SOCK HUA,MDM LIM WAI PING PATRICIA,,,,,,CLEMENTI,SOUTH,GOVERNMENT SCHOOL,CO-ED SCHOOL,SINGLE SESSION,PRIMARY,No,No,No,No,Chinese,Malay,Tamil,"Pei Tong Primary School, 15, Clementi Avenue 5, Clementi, Southwest, 129857, Singapore",1.31626635,103.76784122601268
PEICAI SECONDARY SCHOOL,http://www.peicaisec.moe.edu.sg,10   SERANGOON AVENUE 4,556094,62884159,na,62830480,na,peicai_ss@moe.edu.sg,SERANGOON MRT,"22, 24, 43, 53, 70, 76, 103, 109, 116, 147, 156, 315, 317, 853",MR LIM KOK HWA,MISS TAN LI PING,MR SHUE PEI YAN,,,,,SERANGOON,SOUTH,GOVERNMENT SCHOOL,CO-ED SCHOOL,SINGLE SESSION,SECONDARY,No,No,No,No,Chinese,Malay,Tamil,"Peicai Secondary School, 10, Serangoon Avenue 4, Serangoon Green, Serangoon, Southeast, 556094, Singapore",1.35891515,103.87058442684707
PEIRCE SECONDARY SCHOOL,http://www.peircesec.moe.edu.sg,10   SIN MING WALK,575566,64576454,na,64576448,na,PEIRCE_SS@MOE.EDU.SG,"ANG MO KIO MRT, BISHAN MRT, MARYMOUNT MRT, BRIGHT HILL MRT (target opening in Q3, 2021)","52, 132, 162, 163, 165, 166, 167, 410, 855, 980",MDM BETTY CHANG,MRS NG MONG KHENG,MS NG BOON MIN,,,,,BISHAN,SOUTH,GOVERNMENT SCHOOL,CO-ED SCHOOL,SINGLE SESSION,SECONDARY,No,No,No,No,Chinese,Malay,Tamil,"Peirce Secondary School, 10, Sin Ming Walk, Bishan, Central, 575566, Singapore",1.3664814,103.82953310012323
PEIYING PRIMARY SCHOOL,http://www.peiyingpri.moe.edu.sg,651  YISHUN RING ROAD,768687,62575684,na,67558802,na,peiying_ps@moe.edu.sg,Khatib,"851, 852, 853, 854, 855",MDM WONG WEI YONG,MR ABDUL RANI BIN IDRIS,,,,,,YISHUN,NORTH,GOVERNMENT SCHOOL,CO-ED SCHOOL,SINGLE SESSION,PRIMARY,No,No,No,No,Chinese,Malay,Tamil,"Peiying Primary School, 651, Yishun Ring Road, Yishun, Central, 768687, Singapore",1.4177946000000001,103.83016958773982
PING YI SECONDARY SCHOOL,http://pingyisec.moe.edu.sg,61   CHAI CHEE STREET,468980,64489580,na,64442731,na,pyss@moe.edu.sg,BEDOK MRT,"26, 222, 222B, 2, 7, 24, 25, 28, 30, 30E, 32, 33, 40, 67, 229, 854, 60, 87",MR ANG CHEE SENG,MR CHEONG HUEI LEONARD,,,,,,BEDOK,EAST,GOVERNMENT SCHOOL,CO-ED SCHOOL,SINGLE SESSION,SECONDARY,No,No,No,No,Chinese,Malay,Tamil,"Ping Yi Secondary School, 61, Chai Chee Street, Bedok, Southeast, 468980, Singapore",1.3269364000000001,103.92096511877992
PIONEER PRIMARY SCHOOL,http://www.pioneerpri.moe.edu.sg,23   JURONG WEST STREET 81,649076,67932397,na,67933974,na,pioneer_ps@moe.edu.sg,Boon Lay Station,243,MDM LOKE WAI LING,MR TAN HOCK CHYE CHARLES,MDM CHOO SIEW HONG,,,,,JURONG WEST,WEST,GOVERNMENT SCHOOL,CO-ED SCHOOL,SINGLE SESSION,PRIMARY,No,No,No,No,Chinese,Malay,Tamil,"Pioneer Primary School, 23, Jurong West Street 81, Jurong West, Southwest, 649076, Singapore",1.3489146,103.69480866814555
POI CHING SCHOOL,http://www.poiching.moe.edu.sg,21   TAMPINES STREET 71,529067,67856420,na,67857198,na,contact@poiching.moe.edu.sg,Tampines MRT,"Bus 293, 72, 27 and 168",MDM CHUA YE LING,MDM PEH TAN WEE,MS TAN SEOK KUAN,,,,,TAMPINES,EAST,GOVERNMENT-AIDED SCH,CO-ED SCHOOL,SINGLE SESSION,PRIMARY,Yes,No,No,No,Chinese,na,na,"Poi Ching School, 21, Tampines Street 71, Tampines, Northeast, 529067, Singapore",1.3577705,103.93548678736875
PRESBYTERIAN HIGH SCHOOL,http://www.presbyterian.moe.edu.sg,5209 ANG MO KIO AVENUE 6,569845,64543722,na,64543430,na,presbyterian@moe.edu.sg,YIO CHU KANG MRT,"45, 70, 70M, 71, 76, 86, 668, 851, 851e, 852, 853",MR OWYONG TUCK SING VICTOR,MISS YEW MEI FOONG SARAH,,,,,,ANG MO KIO,SOUTH,GOVERNMENT-AIDED SCH,CO-ED SCHOOL,SINGLE SESSION,SECONDARY,No,No,No,No,Chinese,Malay,Tamil,"Presbyterian High School, 5209, Ang Mo Kio Avenue 6, Ang Mo Kio, Central, 569845, Singapore",1.3832223,103.84281996031899
PRINCESS ELIZABETH PRIMARY SCHOOL,http://www.princesselizabethpri.moe.edu.sg,30   BUKIT BATOK WEST AVENUE 3,659163,65655111,na,65637859,na,PEPS@MOE.EDU.SG,Bukit Batok MRT Station,"Bus 174, 157, 178, 66, 941",MDM MOLIAH BINTE HASHIM,MISS NGIAM WEE HENG,MR LEE FOOK LOONG EUGENE,,,,,BUKIT BATOK,WEST,GOVERNMENT SCHOOL,CO-ED SCHOOL,SINGLE SESSION,PRIMARY,No,No,No,No,Chinese,Malay,Tamil,"Princess Elizabeth Primary School, 30, Bukit Batok West Avenue 3, Bukit Batok, Southwest, 659163, Singapore",1.3493822,103.74095420018139
PUNGGOL COVE PRIMARY SCHOOL,https://punggolcovepri.moe.edu.sg/,52   Sumang Walk,828674,63857339,na,63857261,na,punggolcove_ps@moe.edu.sg,Nibong LRT Station,"382W, 84","MR YAP SWEE BENG, DENNIS",MISS THIA HWEI LING SHARON,MR WAN IMRAN BIN MOHAMED WOOJDY,,,,,PUNGGOL,EAST,GOVERNMENT SCHOOL,CO-ED SCHOOL,SINGLE SESSION,PRIMARY,No,No,No,No,Chinese,Malay,Tamil,"Punggol Cove Primary School, 52, Sumang Walk, Punggol, Northeast, 828674, Singapore",1.4117400999999998,103.89921923530514
PUNGGOL GREEN PRIMARY SCHOOL,http://www.punggolgreenpri.moe.edu.sg,98   Punggol Walk,828772,65383011,na,65383210,na,admin_punggolgreen_ps@moe.edu.sg,Punggol MRT Station,na,MR HANAFI B ASMORE,MISS TAN HUILING CHERYL,DR LEE KOK SONK,,,,,PUNGGOL,EAST,GOVERNMENT SCHOOL,CO-ED SCHOOL,SINGLE SESSION,PRIMARY,No,No,No,No,Chinese,Malay,Tamil,"Punggol Green Primary School, 98, Punggol Walk, Punggol, Northeast, 828772, Singapore",1.4019807499999999,103.89854883359155
PUNGGOL PRIMARY SCHOOL,http://www.punggolpri.moe.edu.sg/,61   HOUGANG AVENUE 8,538787,63850762,na,63877793,na,punggol_ps@moe.edu.sg,"Hougang, Buangkok",62 74 88 113 147 325,MISS CHEW TOCK LEE,MISS KAREN YAW LI LING,,,,,,HOUGANG,SOUTH,GOVERNMENT SCHOOL,CO-ED SCHOOL,SINGLE SESSION,PRIMARY,No,No,No,No,Chinese,Malay,Tamil,"Punggol Primary School, 61, Hougang Avenue 8, Hougang, Northeast, 538787, Singapore",1.3781311500000002,103.89475446575264
PUNGGOL SECONDARY SCHOOL,http://www.punggolsec.moe.edu.sg,51   EDGEFIELD PLAINS,828870,64897851,na,64897859,na,PUNGGOL_SS@MOE.EDU.SG,"PUNGGOL MRT, COVE LRT","3, 34, 62, 82, 83, 85, 136, 965, 386",MS TOH ENG BENG ANGELINE,MR ANITH KUMAR S/O NADESAN,MR VINCENT LEE WEI YEE,,,,,PUNGGOL,NORTH,GOVERNMENT SCHOOL,CO-ED SCHOOL,SINGLE SESSION,SECONDARY,No,No,No,No,Chinese,Malay,Tamil,"Punggol Secondary School, 51, Edgefield Plains, Punggol, Northeast, 828870, Singapore",1.4022782999999999,103.90906378552833
PUNGGOL VIEW PRIMARY SCHOOL,http://www.punggolviewpri.moe.edu.sg,9    Punggol Place,828845,6570 1588,na,6570 3680,na,punggolview_ps@moe.edu.sg,Punggol MRT Station,50 382,DR ANG WEK CHENG,MDM SHARIFAH SAMIRAH BTE SYED MOHAMAD,MR GOH ZENSEN,,,,,PUNGGOL,EAST,GOVERNMENT SCHOOL,CO-ED SCHOOL,SINGLE SESSION,PRIMARY,No,No,No,No,Chinese,Malay,Tamil,"Punggol View Primary School, 9, Punggol Place, Punggol, Northeast, 828845, Singapore",1.4053286,103.90527821978418
QIFA PRIMARY SCHOOL,http://www.qifapri.moe.edu.sg,50   WEST COAST AVENUE,128104,67783085,na,67761485,na,QIFA_PS@MOE.EDU.SG,Clementi MRT Station,"30,51,78,143,285,655",MRS CATHERINE CHIANG,"MDM CHAN SIN LI, CINDY",MR WONG WOEN LONG,,,,,CLEMENTI,WEST,GOVERNMENT SCHOOL,CO-ED SCHOOL,SINGLE SESSION,PRIMARY,No,No,No,No,Chinese,Malay,Tamil,"Qifa Primary School, 50, West Coast Avenue, Clementi, Southwest, 128104, Singapore",1.31280555,103.75696495470032
QIHUA PRIMARY SCHOOL,http://www.qihuapri.moe.edu.sg,5    WOODLANDS STREET 81,738525,62696250,na,62693114,na,QIHUA_PS@MOE.EDU.SG,Woodlands MRT Station,"911, 900",MRS LEE HUI FENG,MR FOO CHUAN KAI,MR GOH GIAM HWEE (WU JIANHUI),,,,,WOODLANDS,NORTH,GOVERNMENT SCHOOL,CO-ED SCHOOL,SINGLE SESSION,PRIMARY,No,No,No,No,Chinese,Malay,Tamil,"Qihua Primary School, 5, Woodlands St 81, Woodlands, Northwest, 738525, Singapore",1.4420502000000002,103.78833369286497
QUEENSTOWN PRIMARY SCHOOL,http://www.queenstownpri.moe.edu.sg,310  MARGARET DR,149303,64741044,na,64713640,na,qtps@moe.edu.sg,Queenstown MRT,"32, 111, 145, 195",MISS NG POR JOO PEARLY,MR ATRAJU S/O KANAN RAMDAS,,,,,,QUEENSTOWN,SOUTH,GOVERNMENT SCHOOL,CO-ED SCHOOL,SINGLE SESSION,PRIMARY,No,No,No,No,Chinese,Malay,Tamil,"Queenstown Primary School, 310, Margaret Drive, Queenstown, Central, 149303, Singapore",1.2960256,103.8078517193143
QUEENSTOWN SECONDARY SCHOOL,http://www.queenstownsec.moe.edu.sg,1    STRATHMORE ROAD,148800,64741055,na,64741295,na,qtss@moe.edu.sg,"REDHILL MRT, QUEENSTOWN MRT","33, 51, 64, 111, 120, 139, 145, 186, 970",MDM RASIDAH BTE RAHIM,MR CHUA PUAY WEE ERIC,MRS YUE-CHANG TECK HUI,,,,,QUEENSTOWN,SOUTH,GOVERNMENT SCHOOL,CO-ED SCHOOL,SINGLE SESSION,SECONDARY,No,No,No,No,Chinese,Malay,Tamil,"Queenstown Secondary School, 1, Strathmore Road, Queenstown, Central, 148800, Singapore",1.2934342,103.81331399959538
QUEENSWAY SECONDARY SCHOOL,http://www.queenswaysec.moe.edu.sg,2A   MARGARET DRIVE,149295,64741421,na,64741302,na,QSS@moe.edu.sg,"COMMONWEALTH MRT, QUEENSTOWN MRT","32, 51, 93, 100, 105, 111, 122, 123, 145, 147, 153, 186, 195, 196, 198, 855, 961, 970","MR TAN CHONG TZE, PETER",MR NG HOCK SOON,MR LOH KAR WAI JAY,,,,,QUEENSTOWN,SOUTH,GOVERNMENT SCHOOL,CO-ED SCHOOL,SINGLE SESSION,SECONDARY,No,No,No,No,Chinese,Malay,Tamil,"Queensway Secondary School, 2A, Margaret Drive, Queenstown, Central, 149295, Singapore",1.3004452,103.80190765214465
RADIN MAS PRIMARY SCHOOL,http://www.radinmasps.moe.edu.sg,1    BUKIT PURMEI AVENUE,99840,62733937,na,62763083,na,rmps@moe.edu.sg,Tiong Bahru MRT HarbourFront MRT,"SBS 123, 131, 275 SBS 65",MR MUHAMMAD FARIZAL BIN UMAR EFFE,MRS LINDA TAN,,,,,,BUKIT MERAH,SOUTH,GOVERNMENT SCHOOL,CO-ED SCHOOL,SINGLE SESSION,PRIMARY,No,No,No,No,Chinese,Malay,Tamil,"Radin Mas Primary School, 1, Bukit Purmei Avenue, Radin Mas, Bukit Merah, Central, 099840, Singapore",1.2750442,103.8240239309686
RAFFLES GIRLS' PRIMARY SCHOOL,http://www.rafflesgirlspri.moe.edu.sg,21   Hillcrest Road,289072,64684377,na,64692024,na,RGPS@MOE.EDU.SG,TAN KAH KEE MRT STATION,"66, 67, 74, 151, 154, 156, 157, 170, 171, 174, 852, 961",MRS YUE YOKE MUN NEE WAI,MISS CHEN MEI CHUEN,MISS KONG SU MAY,,,,,BUKIT TIMAH,SOUTH,GOVERNMENT SCHOOL,GIRLS' SCHOOL,SINGLE SESSION,PRIMARY,No,No,Yes,No,Chinese,Malay,Tamil,"21, Hillcrest Road, Hillcrest, Hamilton City, Waikato, 3251, New Zealand / Aotearoa",-37.7956028,175.3153993
RAFFLES GIRLS' SCHOOL (SECONDARY),http://www.rgs.edu.sg,2    BRADDELL RISE,318871,67371845,na,62353731,na,RGSS@MOE.EDU.SG,"BRADDELL MRT, CALDECOTT MRT","59, 93, 129, 156, 157, 163, 231, 232, 235",MDM HASLINDA BTE ZAMANI,MS CHIN JEN FU,MS TAN HWEE MIAN MAY,MRS MARY CHERIYAN,,,,CENTRAL,SOUTH,INDEPENDENT SCHOOL,GIRLS' SCHOOL,SINGLE SESSION,SECONDARY,No,No,Yes,Yes,Chinese,Malay,Tamil,"Raffles Girls' School (Secondary), 2, Braddell Rise, Toa Payoh, Central, 318871, Singapore",1.34295555,103.84330709944169
RAFFLES INSTITUTION,http://www.ri.edu.sg,1    RAFFLES INSTITUTION LANE,575954,64199242,na,64199238,na,comms@ri.edu.sg,"BISHAN MRT, MARYMOUNT MRT","410,13,50,52,53,54,55,56,57,58,59,71,74,88,93,128,130,132,156,157,162,163,165,166,167,851,852,855,980",MR YEO KOK PENG FREDERICK,MDM THOR POH SIN THERESA,MR EDWARD NG,MR CHEN ZIYANG,MR ANG PENG SIONG BRIAN LAGMAN,MRS REAVLEY MUNN YE,MS NG MEI SZE,BISHAN,SOUTH,INDEPENDENT SCHOOL,CO-ED SCHOOL,SINGLE SESSION,MIXED LEVELS,No,No,Yes,Yes,Chinese,Malay,Tamil,"Raffles Institution, 1, Bishan Road, Bishan, Central, 575954, Singapore",1.3466311499999999,103.84451956304028
RED SWASTIKA SCHOOL,http://www.redswastika.moe.edu.sg,350  BEDOK NORTH AVENUE 3,469719,64430380,na,62448391,na,REDSWASTIKA@MOE.EDU.SG,Bedok Reservoir MRT,"Bus 14, 17, 28, 46, 66, 67, 69, 222, 228",MS JESSIE LIM CHIEN CHIN,MS ANGELA GOH BEE LIAN,MDM ESTHER E TZY KWEI,,,,,BEDOK,EAST,GOVERNMENT-AIDED SCH,CO-ED SCHOOL,SINGLE SESSION,PRIMARY,Yes,No,No,No,Chinese,na,na,"Red Swastika School, 350, Bedok North Avenue 3, Bedok, Southeast, 469719, Singapore",1.3336412,103.93461860928615
REGENT SECONDARY SCHOOL,http://regentsec.moe.edu.sg,50   CHOA CHU KANG NORTH 5,689621,67653828,na,67653413,na,REGENT_SS@MOE.EDU.SG,"YEW TEE MRT, CHOA CHU KANG MRT","307, 160, 170, 178, 925, 927, 960, 961, 979",MR LEONG KOK KEE,MRS TANG HUAY JIUAN PATRINE,,,,,,CHOA CHU KANG,WEST,GOVERNMENT SCHOOL,CO-ED SCHOOL,SINGLE SESSION,SECONDARY,No,No,No,No,Chinese,Malay,Tamil,"Regent Secondary School, 50, Choa Chu Kang North 5, Choa Chu Kang, Northwest, 689621, Singapore",1.3935137499999999,103.75101209380934
RIVER VALLEY HIGH SCHOOL,https://rivervalleyhigh.moe.edu.sg/,6    BOON LAY AVENUE,649961,65678115,na,65677351,na,RVHS@MOE.EDU.SG,"BOON LAY MRT, LAKESIDE MRT","99, 157, 172, 174, 174E, 198, 240, 502, 974, NR5",MRS TEO KHIN HIANG NEE LEE WAI TAI,MR LAU WAI CHI ALVIN,MR KWOK YING LIANG,"MR LIM PENG YUAN, ANDY",,,,JURONG WEST,WEST,GOVERNMENT SCHOOL,CO-ED SCHOOL,SINGLE SESSION,MIXED LEVELS,Yes,Yes,No,Yes,Chinese,na,na,"River Valley High School, 6, Boon Lay Avenue, Boon Lay, Jurong West, Southwest, 649961, Singapore",1.3433953,103.70925920622919
RIVER VALLEY PRIMARY SCHOOL,http://www.rivervalleypri.moe.edu.sg,2    RIVER VALLEY GREEN,237993,67371785,na,67321951,na,rvps@moe.edu.sg,Somerset MRT,"5, 16, 32, 54, 65, 75, 175, 970",MDM WONG LI PENG,MR PHANG ENG POH,DR AUDREY KOH CHOUK ENG,,,,,CENTRAL,SOUTH,GOVERNMENT SCHOOL,CO-ED SCHOOL,SINGLE SESSION,PRIMARY,No,No,No,No,Chinese,Malay,Tamil,"2 River Valley Green, River Valley, Central, Singapore",1.2964913999999998,103.83444171697309
RIVERSIDE PRIMARY SCHOOL,http://www.riversidepri.moe.edu.sg,110  Woodlands Crescent,737803,63654490,na,63654460,na,riverside_ps@moe.edu.sg,Admiralty MRT Station,Bus No 913 and Bus No 964,MR TAN CHOON KHENG,MDM KHOO PHAIK HOON REGINA,MRS RANUKA PALANIVELU,,,,,WOODLANDS,NORTH,GOVERNMENT SCHOOL,CO-ED SCHOOL,SINGLE SESSION,PRIMARY,No,No,No,No,Chinese,Malay,Tamil,"Riverside Primary School, 110, Woodlands Crescent, Woodlands, Northwest, 737803, Singapore",1.4472779,103.80183283378793
RIVERSIDE SECONDARY SCHOOL,http://www.riversidesec.moe.edu.sg,3    WOODLANDS STREET 81,738524,62699631,na,63683677,na,RIVERSIDE_SS@MOE.EDU.SG,WOODLANDS MRT,"858, 900, 911, 913, 964, 962, 965, 969, 169, 903",MISS THAM YOKE CHUN,MR DERICK WONG TECK FATT,MDM LINDA YEO SOCK KHOON,,,,,WOODLANDS,NORTH,GOVERNMENT SCHOOL,CO-ED SCHOOL,SINGLE SESSION,SECONDARY,No,No,No,No,Chinese,Malay,Tamil,"Riverside Secondary School, 3, Woodlands St 81, Woodlands, Northwest, 738524, Singapore",1.44058925,103.78839524092368
RIVERVALE PRIMARY SCHOOL,http://www.rivervalepri.moe.edu.sg/,80   RIVERVALE DRIVE,545092,63887450,na,63887449,na,RIVERVALE_PS@MOE.EDU.SG,Nearest LRT Station : Rumbia,"Bus Service 86, 371.",MISS RADHA D/O G SUBRAMANIAM,MR KNG WEE BENG,,,,,,SENG KANG,NORTH,GOVERNMENT SCHOOL,CO-ED SCHOOL,SINGLE SESSION,PRIMARY,No,No,No,No,Chinese,Malay,Tamil,"Rivervale Primary School, 80, Rivervale Drive, Seng Kang, Northeast, 545092, Singapore",1.39365955,103.9046125317468
ROSYTH SCHOOL,https://www.rosyth.moe.edu.sg,21   Serangoon North Avenue 4,555855,64812273,na,64831102,na,rosyth_sch@schools.gov.sg,"Ang Mo Kio, Serangoon","73, 315, 116",MDM ELIS TAN LEE CHING,MR CHIEW JING WEN,MS POH HWEE THING,,,,,SERANGOON,NORTH,GOVERNMENT SCHOOL,CO-ED SCHOOL,SINGLE SESSION,PRIMARY,No,No,Yes,No,Chinese,Malay,Tamil,"Rosyth School, 21, Serangoon North Avenue 4, Serangoon North, Central, 555855, Singapore",1.3728695,103.8745092975254
RULANG PRIMARY SCHOOL,http://www.rulangpri.moe.edu.sg/,6    JURONG WEST STREET 52,649295,65657771,na,65632382,na,RULANG_PS@MOE.EDU.SG,Lakeside,SBS 335,MS TRACY TAN I- LIAN,MISS NG MEI YUN,DR CHOONG PEK LAN,,,,,JURONG WEST,WEST,GOVERNMENT SCHOOL,CO-ED SCHOOL,DOUBLE SESSION,PRIMARY,No,No,No,No,Chinese,Malay,Tamil,"Rulang Primary School, 6, Jurong West Street 52, Jurong West, Southwest, 649295, Singapore",1.34660905,103.71873699937234
"SCHOOL OF SCIENCE AND TECHNOLOGY, SINGAPORE",http://www.sst.edu.sg,1    Technology Drive,138572,(65) 65717200,na,(65) 68720856,na,contactus@sst.edu.sg,Dover,"14, 74, 105, 106, 147, 166, 185",MRS LINDA CHAN,MRS CHEW EU JIN NEE LIM WAI LEE,,,,,,CLEMENTI,WEST,SPECIALISED INDEPENDENT SCHOOL,CO-ED SCHOOL,FULL DAY,SECONDARY,No,No,No,No,Chinese,Malay,Tamil,"School of Science and Technology, Singapore, 1, Technology Drive, Queenstown, Southwest, 138572, Singapore",1.3131051,103.77372539203807
"SCHOOL OF THE ARTS, SINGAPORE",http://www.sota.edu.sg/,1    Zubir Said Drive,227968,6338 9663,6342 5857,6338 9763,na,enquiries@sota.edu.sg,Dhoby Ghaut,"7, 14, 16, 36, 64, 65, 77, 106, 111, 124, 128, 131, 147, 162, 166, 167, 171, 174, 175, 190, 502, 518, 700, 857,",MDM WONG YEE MIN MARY,MR HO KOK SUN KEVIN,MS KHOO MEI LING AMY,MISS PAULINE ANN TAN POH LING,,,,CENTRAL,SOUTH,SPECIALISED INDEPENDENT SCHOOL,CO-ED SCHOOL,SINGLE SESSION,MIXED LEVELS,No,No,No,No,Chinese,Malay,Tamil,"School of the Arts Singapore, 1, Zubir Said Drive, Museum, Central, 227968, Singapore",1.2992970000000001,103.84874091319223
SEMBAWANG PRIMARY SCHOOL,http://www.sembawangpri.moe.edu.sg,10   SEMBAWANG DRIVE,757715,67567330,na,67560367,na,SEMBAWANG_PS@MOE.EDU.SG,Sembawang MRT (6 to 8-minute walk),"656, 859, 962, 980",MRS GRACE CHUA,MDM LIM SIEW CHENG CINDY,,,,,,SEMBAWANG,NORTH,GOVERNMENT SCHOOL,CO-ED SCHOOL,SINGLE SESSION,PRIMARY,No,No,No,No,Chinese,Malay,Tamil,"Sembawang Primary School, 10, Sembawang Drive, Sembawang, Northwest, 757715, Singapore",1.4452989,103.82089038717231
SEMBAWANG SECONDARY SCHOOL,http://www.sembawangsec.moe.edu.sg,30   SEMBAWANG CRESCENT,757704,67566760,na,67585380,na,SEMBAWANG_SS@MOE.EDU.SG,SEMBAWANG MRT,"859, 859A, 962",MR JASWANT SINGH,MR GOH KEE YONG @ GOH CHONG HENG,MR LEE YONG KIANG JUSTIN,,,,,SEMBAWANG,NORTH,GOVERNMENT SCHOOL,CO-ED SCHOOL,SINGLE SESSION,SECONDARY,No,No,No,No,Chinese,Malay,Tamil,"Sembawang Secondary School, 30, Sembawang Crescent, Sembawang, Northwest, 757704, Singapore",1.44565285,103.81666278797933
SENG KANG PRIMARY SCHOOL,http://www.sengkangpri.moe.edu.sg/,21   COMPASSVALE WALK,545166,63840809,na,63840839,na,SKPS@MOE.EDU.SG,Sengkang MRT,"27, 80, 82, 83, 86, 87, 88, 89, 119, 156, 163, 371, 372 & 965",MDM SEAH WHYE CHOO,MISS THIEN LI CHIN,,,,,,SENG KANG,NORTH,GOVERNMENT SCHOOL,CO-ED SCHOOL,SINGLE SESSION,PRIMARY,No,No,No,No,Chinese,Malay,Tamil,"Seng Kang Primary School, 21, Compassvale Walk, Seng Kang, Northeast, 545166, Singapore",1.38939055,103.89939534841366
SENG KANG SECONDARY SCHOOL,http://www.sengkangsec.moe.edu.sg,10   COMPASSVALE LANE,545090,63887258,na,63887254,na,skss@moe.edu.sg,"SENGKANG MRT, RANGGUNG LRT","27, 80, 85, 86, 87, 89, 89E, 163, 163M, 372",MR KOH YIAK KHENG,MR TAN TECK TIAN,MDM NAZIMAH BTE ABDULLAH,,,,,SENG KANG,NORTH,GOVERNMENT SCHOOL,CO-ED SCHOOL,SINGLE SESSION,SECONDARY,No,No,No,No,Chinese,Malay,Tamil,"Seng Kang Secondary School, 10, Compassvale Lane, Seng Kang, Northeast, 545090, Singapore",1.3865332,103.89870625871443
SENGKANG GREEN PRIMARY SCHOOL,http://www.sengkanggreenpri.moe.edu.sg/,15   Fernvale Road,797636,63864255,na,62428796,na,sengkanggreen_ps@moe.edu.sg,Fernvale LRT (SW5) - (Sengkang West Loop),"Sengkang and Toa Payoh interchange - no 163, Along Yio Chu Kang Road, - no 70, 86, 103 and 854.Punggol Temp Interchange to Bishan Interchange - Bus 50",MR GAU POH TECK,MR LIM JIT HIN,MISS SABARIAH BTE SUBARI,,,,,SENG KANG,EAST,GOVERNMENT SCHOOL,CO-ED SCHOOL,SINGLE SESSION,PRIMARY,No,No,No,No,Chinese,Malay,Tamil,"Sengkang Green Primary School, 15, Fernvale Road, Fernvale, Central, 797636, Singapore",1.39288245,103.87480361151378
SERANGOON GARDEN SECONDARY SCHOOL,http://www.sgs.edu.sg,21   SERANGOON NORTH AVENUE 1,555889,62889227,65789177,62888695,na,sgss@moe.edu.sg,"SERANGOON MRT, ANG MO KIO MRT","25, 55, 73, 74, 74e, 76, 132, 165, 315",MDM GOH MIEN HUI VALERIE,MDM LEE HWEE PING,MR QUEK CHOON HSIONG,,,,,SERANGOON,SOUTH,GOVERNMENT SCHOOL,CO-ED SCHOOL,SINGLE SESSION,SECONDARY,No,No,No,No,Chinese,Malay,Tamil,"Serangoon Garden Secondary School, 21, Serangoon North Avenue 1, Hwi Yoh Court, Serangoon, Southeast, 555889, Singapore",1.3696622,103.86898376621637
SERANGOON SECONDARY SCHOOL,http://www.serangoonsec.moe.edu.sg,11   UPPER SERANGOON VIEW,534237,63851589,na,63851635,na,SERANGOON_SS@MOE.EDU.SG,"HOUGANG MRT, KANGKAR LRT","62, 74, 102, 113, 119, 136, 147, 324",MDM TAY SIOK HWA,MR JIN SEBASTIAN,MR TAN SOON HUI,,,,,HOUGANG,NORTH,GOVERNMENT SCHOOL,CO-ED SCHOOL,SINGLE SESSION,SECONDARY,No,No,No,No,Chinese,Malay,Tamil,"Serangoon Secondary School, 11, Upper Serangoon View, Hougang, Northeast, 534237, Singapore",1.3749396,103.90206302368388
SHUQUN PRIMARY SCHOOL,http://www.shuqunpri.moe.edu.sg,8    JURONG WEST STREET 51,649332,65637129,na,65637418,na,sqps@moe.edu.sg,W11 Lakeside,"98, 187, 335",MRS SARA DE SOUZA,MDM ADELINE CHONG,MR MUHAMMAD FADYLLA B RASHIMAN,,,,,JURONG WEST,WEST,GOVERNMENT SCHOOL,CO-ED SCHOOL,SINGLE SESSION,PRIMARY,No,No,No,No,Chinese,Malay,Tamil,"Shuqun Primary School, 8, Jurong West Street 51, Jurong West, Southwest, 649332, Singapore",1.34712705,103.72159024757968
SI LING PRIMARY SCHOOL,http://www.silingpri.moe.edu.sg,61   WOODLANDS AVENUE 1,739067,62698832,na,63675516,na,SLPS@MOE.EDU.SG,Woodlands,912 from Woodlands Interchange,MR KOE EE TIONG,MR ANDREW NG SIOK KWANG,,,,,,WOODLANDS,NORTH,GOVERNMENT SCHOOL,CO-ED SCHOOL,SINGLE SESSION,PRIMARY,No,No,No,No,Chinese,Malay,Tamil,"Si Ling Primary School, 61, Woodlands Avenue 1, Woodlands, Northwest, 739067, Singapore",1.4327239999999999,103.7857785129217
SINGAPORE CHINESE GIRLS' PRIMARY SCHOOL,www.scgs.moe.edu.sg,190  DUNEARN ROAD,309437,62527966,na,62523076,na,SCGPS@MOE.EDU.SG,Stevens,"66, 67, 105, 132, 151, 153, 154, 156, 170, 171, 186, 190, 605, 700, 960",MDM TAN YUNCHIN EUGENIA,MDM PHUA KIA LING,,,,,,NOVENA,NORTH,GOVERNMENT-AIDED SCH,GIRLS' SCHOOL,SINGLE SESSION,PRIMARY,No,No,No,No,Chinese,Malay,Tamil,"Singapore Chinese Girls' School, 190, Dunearn Road, Novena, Central, 309437, Singapore",1.3210897,103.82786731298657
SINGAPORE CHINESE GIRLS' SCHOOL,http://www.scgs.moe.edu.sg,190  DUNEARN ROAD,309437,62527966,na,62523076,na,SCGSS@MOE.EDU.SG,STEVENS MRT,"48, 66, 67, 105, 132, 151, 153, 154, 156, 170, 186, 190, 960, 971E, 972",MDM TAN YUNCHIN EUGENIA,MRS SHERMAINE TANG,MDM HO HUI PING,,,,,NOVENA,NORTH,INDEPENDENT SCHOOL,GIRLS' SCHOOL,SINGLE SESSION,SECONDARY,No,No,No,Yes,Chinese,Malay,Tamil,"Singapore Chinese Girls' School, 190, Dunearn Road, Novena, Central, 309437, Singapore",1.3210897,103.82786731298657
SINGAPORE SPORTS SCHOOL,http://www.sportsschool.edu.sg,1    Champions Way,737913,67660100,na,67662100,na,enquire@sportsschool.edu.sg,Woodlands South MRT,"665, 900A, 901, 901M",MR ONG KIM SOON,MR HO BENG KIAT,MISS LOW YING XIU,,,,,WOODLANDS,NORTH,SPECIALISED INDEPENDENT SCHOOL,CO-ED SCHOOL,FULL DAY,MIXED LEVELS,No,No,No,No,Chinese,Malay,Tamil,"Singapore Sports School, 1, Champions Way, Woodlands, Northwest, 737913, Singapore",1.4272654,103.78772923507564
SOUTH VIEW PRIMARY SCHOOL,http://www.southviewpri.moe.edu.sg,6    Choa Chu Kang Central,689762,67697176,na,67631091,na,SVPS@MOE.EDU.SG,Choa Chu Kang MRT Station,307 / South View LRT Station,MDM SHARIDA BINTE BATCHA SAHIB,MISS TAN WAN KHENG,MISS ACHARY GOPALAN SHIYAMALA,,,,,CHOA CHU KANG,WEST,GOVERNMENT SCHOOL,CO-ED SCHOOL,SINGLE SESSION,PRIMARY,No,No,No,No,Chinese,Malay,Tamil,"Choa Chu Kang Central, Choa Chu Kang, Southwest, 680346, Singapore",1.3836278,103.7445726
SPECTRA SECONDARY SCHOOL,https://www.spectra.edu.sg,1    WOODLANDS DRIVE 64,737758,64660775,na,64623928,na,spectra@schools.gov.sg,ADMIRALTY MRT,"901M, 904, 912, 913, 962, 964, 965, 969",MR TAN TECK HOCK,MR HOW PUI SENG,MR YIP CHOONG SENG JIMMY,,,,,WOODLANDS,NORTH,SPECIALISED SCHOOL,CO-ED SCHOOL,SINGLE SESSION,SECONDARY,No,No,No,No,Chinese,Malay,Tamil,"Spectra Secondary School, 1, Woodlands Drive 64, Woodlands, Northwest, 737758, Singapore",1.43640725,103.80428360303222
SPRINGDALE PRIMARY SCHOOL,http://springdalepri.moe.edu.sg/,71   Anchorvale Link,544799,+65 63157600,na,+65 63153351,na,springdale_ps@moe.edu.sg,Sengkang Station (NE16)  Nearest LRT station: Farmway  *10-15 min walk from either station,"50, 85, 102, 372    Nearest Bus Stop: In front of Blk 326 Car Park  *1-2 min walk from bus stop; enter by Main Gate along Anchorvale Link or Rear Gate",MDM NEO LAY WAH,MR HO WEE MIN KELVIN,MR SHOEB BURHANUDDIN,,,,,SENG KANG,EAST,GOVERNMENT SCHOOL,CO-ED SCHOOL,SINGLE SESSION,PRIMARY,No,No,No,No,Chinese,Malay,Tamil,"Springdale Primary School, 71, Anchorvale Link, Seng Kang, Northeast, 544799, Singapore",1.3949768,103.88977656483088
SPRINGFIELD SECONDARY SCHOOL,http://www.springfieldsec.moe.edu.sg,30   TAMPINES AVENUE 8,529593,63183053,na,63183050,na,SPRINGFIELDS@MOE.EDU.SG,"TAMPINES MRT, TAMPINES WEST MRT","8, 15, 23, 58, 69, 118, 129, 291, 293, 298, 513, 518",MRS MABEL LEONG,MR CHAN WENG ONN MARTIN,MR KEITH TAN,,,,,TAMPINES,EAST,GOVERNMENT SCHOOL,CO-ED SCHOOL,SINGLE SESSION,SECONDARY,No,No,No,No,Chinese,Malay,na,"Springfield Secondary School, 30, Tampines Avenue 8, Tampines, Northeast, 529593, Singapore",1.34999395,103.9299857351644
ST. ANDREW'S JUNIOR COLLEGE,http://www.standrewsjc.moe.edu.sg/,5    Sorby Adams Drive,357691,62857008,62852007,62850037,na,sajc@moe.edu.sg,Potong Pasir NE10,"SBSTransit: 8, 26, 31, 90, 142 ,151, 154 (Diocese of Singapore) SMRT Buses:  857, 966, 985 (Diocese of Singapore),  853 (Upper Serangoon Road)",MR THAM KINE THONG,MR ANG KHENG SAN CECIL,MRS WHANG AI LEE,,,,,TOA PAYOH,SOUTH,GOVERNMENT-AIDED SCH,CO-ED SCHOOL,FULL DAY,JUNIOR COLLEGE,No,No,No,No,na,na,na,"St Andrew's Junior College, 5, Sorby Adams Drive, Potong Pasir, Southeast, 357691, Singapore",1.3319318500000001,103.86353130239937
ST. ANDREW'S JUNIOR SCHOOL,http://www.saintandrewsjunior.moe.edu.sg,2    FRANCIS THOMAS DRIVE,359337,62884303,na,62895242,na,sajs@moe.edu.sg,"Potong Pasir,Toa Payoh","8,13,26,31,90,90A,107,133,142,147,853,NR6",MISS NEO PHEI TZE PATSY,MR THAM KINE CHUEN THOMAS,,,,,,TOA PAYOH,SOUTH,GOVERNMENT-AIDED SCH,BOYS' SCHOOL,SINGLE SESSION,PRIMARY,No,No,No,No,Chinese,Malay,Tamil,"St. Andrew's Junior School, 2, Francis Thomas Drive, Potong Pasir, Southeast, 359337, Singapore",1.3314877,103.8650956160098
ST. ANDREW'S SECONDARY SCHOOL,http://www.standrewssec.moe.edu.sg,15   FRANCIS THOMAS DRIVE,359342,62851944,na,63823779,na,sass@moe.edu.sg,POTONG PASIR MRT,"8, 13, 26, 31, 90, 90A, 107, 133, 142, 147, 853",MR LEE HAN HWA,"MR TEO HAN WOON, DENNIS",MISS TEO PEK HOON AGNES,,,,,TOA PAYOH,SOUTH,GOVERNMENT-AIDED SCH,BOYS' SCHOOL,SINGLE SESSION,SECONDARY,No,No,No,No,Chinese,Malay,Tamil,"St. Andrew's Secondary School, 15, Francis Thomas Drive, Potong Pasir, Southeast, 359342, Singapore",1.3311030000000001,103.86612132153002
ST. ANTHONY'S CANOSSIAN PRIMARY SCHOOL,http://www.stanthonyscanossianpri.moe.edu.sg,1602 BEDOK NORTH AVE 4,469701,64492239,na,64492146,na,sacps@moe.edu.sg,Bedok MRT,17,MDM KOK LAI YOKE,MRS IRENE GOH HOCK NGUAN,MDM ARIKEN CHARMAINE CARRIE,,,,,BEDOK,EAST,GOVERNMENT-AIDED SCH,GIRLS' SCHOOL,SINGLE SESSION,PRIMARY,No,No,No,No,Chinese,Malay,Tamil,"St Anthony's Canossian Primary School, 1602, Bedok North Avenue 4, Simpang Bedok, Bedok, Southeast, 469701, Singapore",1.3349316,103.94086619821809
ST. ANTHONY'S CANOSSIAN SECONDARY SCHOOL,http://www.stanthonyscanossiansec.moe.edu.sg,1600 BEDOK NORTH AVENUE 4,469700,64490616,na,64490162,na,sacss@moe.edu.sg,"BEDOK MRT, BEDOK RESERVOIR MRT","17, 14, 46, 222",MDM KOH TYNG YUANN FIONA,MDM NG MEOW LENG NANCY,MISS WANG SIEW PING,,,,,BEDOK,EAST,GOVERNMENT-AIDED SCH,GIRLS' SCHOOL,SINGLE SESSION,SECONDARY,No,Yes,No,No,Chinese,Malay,Tamil,"St Anthony's Canossian Secondary School, 1600, Bedok North Avenue 4, Simpang Bedok, Bedok, Southeast, 469700, Singapore",1.334946,103.9423636122844
ST. ANTHONY'S PRIMARY SCHOOL,http://www.stanthonyspri.moe.edu.sg,30   Bukit Batok St 32,659401,65690822,na,65690811,na,SAPS@MOE.EDU.SG,Bukit Gombak MRT Station,945,MISS CECILIA LIM SEOK CHENG,MDM SEOW SWEE NEO CHRISTINA,MISS MATHEW ANNA,,,,,BUKIT BATOK,WEST,GOVERNMENT-AIDED SCH,CO-ED SCHOOL,SINGLE SESSION,PRIMARY,No,No,No,No,Chinese,Malay,Tamil,"Bukit Batok Street 32, Bukit Gombak, Bukit Batok, Southwest, 650330, Singapore",1.3632481,103.7487009
ST. GABRIEL'S PRIMARY SCHOOL,http://www.stgabrielspri.moe.edu.sg,220  Lorong Chuan,556742,62803628,na,63820344,na,STGPS@MOE.EDU.SG,Lor Chuan MRT Station (Circle Line),"73, 105, 159",MR MARTIN TAN SIEW KIN,MR KEITH TAN CHIN HENG,,,,,,SERANGOON,SOUTH,GOVERNMENT-AIDED SCH,BOYS' SCHOOL,SINGLE SESSION,PRIMARY,No,No,No,No,Chinese,Malay,Tamil,"St Gabriel's Primary School, 220, Lorong Chuan, Serangoon, Southeast, 556742, Singapore",1.34972,103.86216445635833
ST. GABRIEL'S SECONDARY SCHOOL,http://www.stgabrielssec.moe.edu.sg,24   SERANGOON AVENUE 1,556140,62889470,na,62898615,na,STGSS@MOE.EDU.SG,SERANGOON MRT,158,MR LIM CHEE KOON SHAWN,MISS CHENG LI NGOH JACKIE,MDM YEE WHOY CHONG,,,,,SERANGOON,SOUTH,GOVERNMENT-AIDED SCH,BOYS' SCHOOL,SINGLE SESSION,SECONDARY,No,No,No,No,Chinese,Malay,Tamil,"St. Gabriel's Secondary School, 24, Serangoon Avenue 1, Serangoon, Southeast, 556140, Singapore",1.3465775500000001,103.87547399268121
ST. HILDA'S PRIMARY SCHOOL,http://www.shps.moe.edu.sg,2    Tampines Ave 3,529706,67811916,na,67830527,na,shps@moe.edu.sg,"Tampines West, Tampines Central",Feeder Bus service: 293 from Tampines Interchange (towards St 71),MDM LEONG BENG YUET DAPHNE,MR ANG WEI TECK,MDM GOH HUI CHENG,,,,,TAMPINES,EAST,GOVERNMENT-AIDED SCH,CO-ED SCHOOL,SINGLE SESSION,PRIMARY,No,No,Yes,No,Chinese,Malay,Tamil,"St. Hilda's Primary School, 2, Tampines Avenue 3, Tampines, Northeast, 529706, Singapore",1.3493751,103.93659363311278
ST. HILDA'S SECONDARY SCHOOL,http://www.sthildassec.moe.edu.sg,2    TAMPINES STREET 82,528986,63055277,na,67865011,na,SHSS@MOE.EDU.SG,"TAMPINES MRT, TAMPINES WEST MRT","22, 129, 293, 298","MDM HENG SUE LIN, JANICE",MDM SO MUN YEE,,,,,,TAMPINES,EAST,GOVERNMENT-AIDED SCH,CO-ED SCHOOL,SINGLE SESSION,SECONDARY,No,No,No,No,Chinese,Malay,Tamil,"St. Hilda's Secondary School, 2, Tampines Street 82, Tampines, Northeast, 528986, Singapore",1.350089,103.93699514615196
ST. JOSEPH'S INSTITUTION,http://www.sji.edu.sg,38   MALCOLM ROAD,308274,62500022,na,62533640,na,contact@sji.edu.sg,STEVENS MRT,"105, 132, 151, 153, 154, 156, 186, 190, 960, 972",FR ADRIAN AUGUSTUS DANKER,MR DOMINIC ANG SWEE KENG,MDM LOH YOON LIN,MDM LIM LAY HOON,,,,NOVENA,SOUTH,INDEPENDENT SCHOOL,CO-ED SCHOOL,SINGLE SESSION,MIXED LEVELS,No,No,No,Yes,Chinese,Malay,Tamil,"St. Joseph's Institution, 38, Malcolm Road, Novena, Central, 297829, Singapore",1.3241929,103.82832103058232
ST. JOSEPH'S INSTITUTION JUNIOR,http://www.sjijunior.edu.sg,3    ESSEX ROAD,309331,62552700,na,62557455,na,sjijunior@moe.edu.sg,Novena,21;54;56;57;124;131;141;166;518;851;980,MR LEONG YEW HON ERIC,"MISS YAK HIOK WOON, FAITH",,,,,,NOVENA,SOUTH,GOVERNMENT-AIDED SCH,BOYS' SCHOOL,SINGLE SESSION,PRIMARY,No,No,No,No,Chinese,Malay,Tamil,"Saint Joseph's Institution Junior, 3, Essex Road, Novena, Central, 309331, Singapore",1.31754345,103.8463068157661
ST. MARGARET'S PRIMARY SCHOOL,na,2    Mattar Road,387724,na,na,na,na,na,Mattar MRT Station (DT25),"40, 61, 63, 65, 66, 135, 154, 155, 158",MRS KO-TAN LI LING,MDM ALISON ANG SIOK PHING,,,,,,CENTRAL,SOUTH,GOVERNMENT-AIDED SCH,GIRLS' SCHOOL,SINGLE SESSION,PRIMARY,No,No,No,No,Chinese,Malay,Tamil,"MacPherson Primary School, 2, Mattar Road, Geylang, Southeast, 387724, Singapore",1.3245444,103.88162980070163
ST. MARGARET'S SECONDARY SCHOOL,http://www.stmargaretssec.moe.edu.sg,111  FARRER ROAD,259240,64664525,na,64666709,na,stmargaretss@moe.edu.sg,FARRER ROAD MRT,"48, 93, 153, 165, 174, 186, 855, 961",MISS LIM HUI KHENG LINDA,MS TOH SUSAN,,,,,,BUKIT TIMAH,SOUTH,GOVERNMENT-AIDED SCH,GIRLS' SCHOOL,SINGLE SESSION,SECONDARY,No,Yes,No,No,Chinese,Malay,Tamil,"St Margaret's Secondary School, 111, Farrer Road, Bukit Timah, Northwest, 259240, Singapore",1.32043285,103.80968354710049
ST. PATRICK'S SCHOOL,http://www.stpatricks.moe.edu.sg,490  EAST COAST ROAD,429058,63440929,63441429,63445152,na,stpatricksch@moe.edu.sg,KEMBANGAN MRT,"10, 10E, 12, 13, 14, 14E, 15, 16, 31, 32, 36, 40, 43, 47, 48, 55, 135, 150, 155, 196, 197",MR MARK GERARD MINJOOT,MR LEONG TSHUN KHONG PAUL,MS NG FOONG MENG,,,,,BEDOK,EAST,GOVERNMENT-AIDED SCH,BOYS' SCHOOL,SINGLE SESSION,SECONDARY,No,No,No,No,Chinese,Malay,Tamil,"Saint Patrick's School, 490, East Coast Road, Bedok, Southeast, 429058, Singapore",1.3086646499999999,103.91694506663454
ST. STEPHEN'S SCHOOL,http://www.ststephens.moe.edu.sg,20   SIGLAP VIEW,455789,62419513,64441645,64422576,na,STSTEPHENSCH@MOE.EDU.SG,Kembangan MRT Station,"2,7,24,25,26,28,30,32,33,67,854",MR GOH HENG LIANG TIMOTHY,MR EDWIN HENG TOW YANG,,,,,,BEDOK,EAST,GOVERNMENT-AIDED SCH,BOYS' SCHOOL,SINGLE SESSION,PRIMARY,No,No,No,No,Chinese,Malay,Tamil,"St. Stephen's School, 20, Siglap View, Bedok, Southeast, 455789, Singapore",1.318257,103.91827351658476
STAMFORD PRIMARY SCHOOL,http://www.stamfordpri.moe.edu.sg,1    VICTORIA LANE,198423,62945074,na,62919262,na,STAMFORD_PS@MOE.EDU.SG,"Bugis MRT Station, Jalan Besar MRT Station","Along Victoria Street:2,7,12,32,33, 51, 61,63,80,130,133,145, 175, 197",MDM FAN YUEN FUN CASSIE,MDM RAHIMA BTE ABDUL RAHMAN,,,,,,CENTRAL,SOUTH,GOVERNMENT SCHOOL,CO-ED SCHOOL,SINGLE SESSION,PRIMARY,No,No,No,No,Chinese,Malay,Tamil,"Stamford Primary School, 1, Victoria Lane, Rochor, Central, 198423, Singapore",1.3038409,103.85730102406205
SWISS COTTAGE SECONDARY SCHOOL,http://www.swisscottagesec.moe.edu.sg,3    BUKIT BATOK STREET 34,659322,65637173,na,65693028,na,SCSS@MOE.EDU.SG,BUKIT GOMBAK MRT,"187, 188, 985, 945",MR SHERWIN CHENG SAN SHIAN,MR HOI WENG KIT DERRICK,MISS WONG WEE LING,,,,,BUKIT BATOK,WEST,GOVERNMENT SCHOOL,CO-ED SCHOOL,SINGLE SESSION,SECONDARY,No,No,No,No,Chinese,Malay,Tamil,"Swiss Cottage Secondary School, 3, Bukit Batok Street 34, Bukit Gombak, Bukit Batok, Southwest, 659322, Singapore",1.36456,103.75043307403962
TAMPINES MERIDIAN JUNIOR COLLEGE,http://www.tmjc.moe.edu.sg,21   Pasir Ris Street 71,518799,63493660,na,63493667,na,tmjc@moe.edu.sg,Pasir Ris MRT Station,"3, 39, 53, 81, 89, 109, 358, 518",MISS YOONG NYOK KE PAMELA,MR ANG YEOU PENG,MDM TOH LAY HAR,,,,,PASIR RIS,EAST,GOVERNMENT SCHOOL,CO-ED SCHOOL,FULL DAY,JUNIOR COLLEGE,No,No,No,No,Chinese,Malay,Tamil,"Tampines Meridian Junior College, 21, Pasir Ris Street 71, Pasir Ris, Northeast, 518799, Singapore",1.37620765,103.93790362438747
TAMPINES NORTH PRIMARY SCHOOL,http://www.tampinesnorthpri.moe.edu.sg,30   TAMPINES AVENUE 9,529565,67854329,na,67863117,na,TNPS@MOE.EDU.SG,Tampines MRT,"SBS Transit 28, 29, 293",MDM RATNA KUMARI D/O R RAMACHANDRA,MR HO FU CHEW,MR MOHAMED IMRAN B MOHAMED IHSAN,,,,,TAMPINES,EAST,GOVERNMENT SCHOOL,CO-ED SCHOOL,SINGLE SESSION,PRIMARY,No,No,No,No,Chinese,Malay,Tamil,"Tampines North Primary School, 30, Tampines Avenue 9, Tampines, Northeast, 529565, Singapore",1.3605469000000001,103.94912431881409
TAMPINES PRIMARY SCHOOL,http://www.tampinespri.moe.edu.sg,250  TAMPINES STREET 12,529426,67831190,na,67843521,na,TPPS@MOE.EDU.SG,Tampines MRT,"8, 10, 17,18, 27, 31, 65, 292, 293, or any bus going into Tampines Interchange",MDM LEE LAY SEE/ MRS LAY SEE NEUFELD,MRS ZAHIRA BINTE MOHAMED SEDIK,,,,,,TAMPINES,EAST,GOVERNMENT SCHOOL,CO-ED SCHOOL,SINGLE SESSION,PRIMARY,No,No,No,No,Chinese,Malay,Tamil,"Tampines Primary School, 250, Tampines Street 12, Tampines, Northeast, 529426, Singapore",1.3503174,103.9439018600156
TAMPINES SECONDARY SCHOOL,https://www.tampinessec.moe.edu.sg,252  TAMPINES ST 12,529427,67835423,na,67843059,na,TPSS@MOE.EDU.SG,TAMPINES MRT,"3,  8,  10,  15,  17,  18,  20,  21,  23,  27,  28,  31,  34,  39,  59,  65,  129,  168,  292,  298,  518",MR LAN MINGJUN,MS SANTHA SUKUMARAN,MR CHEONG TIEN BENG,,,,,TAMPINES,EAST,GOVERNMENT SCHOOL,CO-ED SCHOOL,SINGLE SESSION,SECONDARY,No,No,No,No,Chinese,Malay,Tamil,"Tampines Secondary School, 252, Tampines Street 12, Tampines, Northeast, 529427, Singapore",1.3494462,103.94410229255537
TANGLIN SECONDARY SCHOOL,http://www.tanglinsec.moe.edu.sg,301  WEST COAST ROAD,127391,64248200,na,67734457,na,tanglin_ss@moe.edu.sg,CLEMENTI MRT,"30, 51, 78, 143, 285, 655",MR CHONG JACK SHENG,MR CHEEN HSIEN HONG,DR LIM SIEW YEE,,,,,CLEMENTI,SOUTH,GOVERNMENT SCHOOL,CO-ED SCHOOL,SINGLE SESSION,SECONDARY,No,No,No,No,Chinese,Malay,Tamil,"Tanglin Secondary School, 301, West Coast Road, Clementi, Southwest, 127391, Singapore",1.30983385,103.75804351906996
TANJONG KATONG GIRLS' SCHOOL,http://www.tkgs.moe.edu.sg,20   Dunman Lane,439272,63441593,na,63451487,64409187(from 2017),tkgs@moe.edu.sg,"PAYA LEBAR MRT, DAKOTA MRT","10, 16, 31, 32, 33, 40, 43, 134, 135, 197",MISS CHEW ING LIM,MDM YEHIDAAH BEEVI D/O SHAIK A,,,,,,MARINE PARADE,EAST,GOVERNMENT SCHOOL,GIRLS' SCHOOL,SINGLE SESSION,SECONDARY,No,Yes,No,No,Chinese,Malay,Tamil,"Dunman Lane, Marine Parade, Southeast, 438796, Singapore",1.3088206,103.894818
TANJONG KATONG PRIMARY SCHOOL,http://www.tanjongkatongpri.moe.edu.sg/,10   Seraya Road,437259,63444728,na,63445370,na,TKPS@MOE.EDU.SG,na,na,MDM CHUA LAY TIN,MDM HOO WAI LING,MDM TOH LENG LENG,,,,,MARINE PARADE,EAST,GOVERNMENT SCHOOL,CO-ED SCHOOL,SINGLE SESSION,PRIMARY,No,No,No,No,Chinese,Malay,Tamil,"Tanjong Katong Primary School, 10, Seraya Road, Marine Parade, Southeast, 437259, Singapore",1.30530945,103.90044091611762
TANJONG KATONG SECONDARY SCHOOL,http://www.tanjongkatongsec.moe.edu.sg,130  HAIG ROAD,438796,63443471,na,64409624,na,tkss@moe.edu.sg,"PAYA LEBAR MRT, DAKOTA MRT","10, 16, 31, 32, 33, 40, 76, 135, 197",MRS DOLLY ONG KIM LENG,MR KOH TONG SEAH,MDM NG SIEW CHIN,,,,,MARINE PARADE,EAST,GOVERNMENT SCHOOL,CO-ED SCHOOL,SINGLE SESSION,SECONDARY,No,Yes,No,No,Chinese,Malay,Tamil,"Tanjong Katong Secondary School, 130, Haig Road, Marine Parade, Southeast, 438796, Singapore",1.3083187,103.89733967436041
TAO NAN SCHOOL,http://www.taonan.moe.edu.sg,49   MARINE CRESCENT,449761,64428307,na,64435973,na,taonan_sch@moe.edu.sg,"Paya Lebar, Eunos","13, 16, 31, 36, 43, 48, 55, 134, 196, 197",MDM POH QINYU,MR LEOW YEN MIN (LIAO YANMING),MISS CHOW CHIA MIN AGNES,,,,,MARINE PARADE,EAST,GOVERNMENT-AIDED SCH,CO-ED SCHOOL,SINGLE SESSION,PRIMARY,Yes,No,Yes,No,Chinese,na,na,"Marine Crescent, Mavisbank, Plantation, Glasgow, Glasgow City, Scotland, G51 1HD, United Kingdom",55.8546732,-4.2792371
TECK GHEE PRIMARY SCHOOL,http://www.teckgheepri.moe.edu.sg,1    ANG MO KIO STREET 32,569299,64548769,na,64589886,na,tgps@moe.edu.sg,Ang Mo Kio & Bishan,"22,24,135,853,162,262,159",MR WONG JIA WANG,MDM RAPS AZRINAH,,,,,,ANG MO KIO,SOUTH,GOVERNMENT SCHOOL,CO-ED SCHOOL,SINGLE SESSION,PRIMARY,No,No,No,No,Chinese,Malay,Tamil,"Teck Ghee Primary School, 1, Ang Mo Kio Street 32, Ang Mo Kio, Central, 569299, Singapore",1.36536405,103.85093696575059
TECK WHYE PRIMARY SCHOOL,http://www.teckwhyepri.moe.edu.sg,11   TECK WHYE WALK,688261,67691025,na,67635191,na,twps@moe.edu.sg,Choa Chu Kang MRT & LRT,"975, 190 & 985",MISS WONG LIANG- JI TABITHA,MRS CHAY GEK NOI,,,,,,CHOA CHU KANG,WEST,GOVERNMENT SCHOOL,CO-ED SCHOOL,SINGLE SESSION,PRIMARY,No,No,No,No,Chinese,Malay,Tamil,"Teck Whye Primary School, 11, Teck Whye Walk, Choa Chu Kang, Southwest, 688261, Singapore",1.3838682,103.75364438639032
TECK WHYE SECONDARY SCHOOL,http://www.teckwhyesec.moe.edu.sg,31   TECK WHYE CRESCENT,688848,67691386,na,67630487,na,TWSS@MOE.EDU.SG,"CHUA CHU KANG MRT, PHOENIX LRT","975, 985, 190, 982E",MR N SIVARAJAN,MISS DIANA GOH BOON LANG,MDM JANE LEE EE LEI,,,,,CHOA CHU KANG,WEST,GOVERNMENT SCHOOL,CO-ED SCHOOL,SINGLE SESSION,SECONDARY,No,No,No,No,Chinese,Malay,Tamil,"Teck Whye Secondary School, 31, Teck Whye Crescent, Choa Chu Kang, Southwest, 688848, Singapore",1.3830944,103.75523104179673
TELOK KURAU PRIMARY SCHOOL,http://www.telokkuraupri.moe.edu.sg,50   BEDOK RESERVOIR RD,479239,62441600,na,62442182,na,telokkuraups@moe.edu.sg,Kaki Bukit MRT (nearest),"8, 15, 22, 55, 65, 60,66, 87 & 506",MISS LAU WAN SZE,MDM CHUA WANG LING IRENE,,,,,,BEDOK,EAST,GOVERNMENT SCHOOL,CO-ED SCHOOL,SINGLE SESSION,PRIMARY,No,No,No,No,Chinese,Malay,Tamil,"Telok Kurau Primary School, 50, Bedok Reservoir Road, Kaki Bukit, Northeast, 479239, Singapore",1.33088455,103.9113284864635
TEMASEK JUNIOR COLLEGE,http://www.temasekjc.moe.edu.sg,22   BEDOK SOUTH ROAD,469278,64428066,na,64428762,na,TEMASEK_JC@MOE.EDU.SG,BEDOK MRT,"12, 12E, 16, 31, 38, 47, 137, 155, 196, 196A, 197, 229",MDM SIM AY NAR,MDM TAN KIA HUAN,MR LOW CHEE WAI,,,,,BEDOK,EAST,GOVERNMENT SCHOOL,CO-ED SCHOOL,FULL DAY,MIXED LEVELS,No,No,No,Yes,Chinese,Malay,Tamil,"Temasek Junior College, 22, Bedok South Road, Bedok, Southeast, 469278, Singapore",1.31820425,103.9349802695076
TEMASEK PRIMARY SCHOOL,http://www.temasekpri.moe.edu.sg,501  BEDOK SOUTH AVE 3,469300,64438134,na,64495871,na,temasek_ps@moe.edu.sg,Tanah Merah MRT,"229, 10, 14, 13, 48, 43, 506",MDM ANG GEK LENG ALISON AMANDA,MDM HASLINDAH BTE BAHROM,,,,,,BEDOK,EAST,GOVERNMENT SCHOOL,CO-ED SCHOOL,SINGLE SESSION,PRIMARY,No,No,No,No,Chinese,Malay,Tamil,"Temasek Primary School, 501, Bedok South Avenue 3, Bedok, Southeast, 479239, Singapore",1.3173917,103.94577303497164
TEMASEK SECONDARY SCHOOL,https://temaseksec.moe.edu.sg,600  UPPER EAST COAST ROAD,465561,64495020,na,64491450,na,temasek_ss@moe.edu.sg,"BEDOK MRT, TANAH MERAH MRT","10, 10E, 13, 14, 25, 43, 46, 55, 137, 229, 506, 531, 853",MS LEAH AW,MR PONG WEN LONG,MR TAY MENG KIAT,,,,,BEDOK,EAST,GOVERNMENT SCHOOL,CO-ED SCHOOL,SINGLE SESSION,SECONDARY,No,Yes,No,No,Chinese,Malay,Tamil,"Temasek Secondary School, 600, Upper East Coast Road, Bedok, Southeast, 465561, Singapore",1.3163472999999999,103.94785330286003
TOWNSVILLE PRIMARY SCHOOL,http://www.townsvillepri.moe.edu.sg/,3    ANG MO KIO AVE 10,569730,64574345,na,64570141,na,TOWNSVILLEPS@MOE.EDU.SG,"Bishan MRT, Ang Mo Kio MRT Stations","45, 50, 55, 261, 548, 22, 24, 128, 135, 159, 162, 162M, 262, 853",MR TAN BOON HONG VICTOR,MDM LYNETTE FERNANDEZ,,,,,,ANG MO KIO,SOUTH,GOVERNMENT SCHOOL,CO-ED SCHOOL,SINGLE SESSION,PRIMARY,No,No,No,No,Chinese,Malay,Tamil,"Townsville Primary School, 3, Ang Mo Kio Avenue 10, Ang Mo Kio, Central, 569730, Singapore",1.3603771,103.8538821884711
UNITY PRIMARY SCHOOL,http://www.unitypri.moe.edu.sg,21   CHOA CHU KANG CRESCENT,688268,67676750,na,67676751,na,UNITY_PS@MOE.EDU.SG,Yew Tee MRT,TIBs 302,MRS LEE-KOH SIEW CHENG,MR KOH PENG YEOW,MDM LEE SUET FONG,,,,,CHOA CHU KANG,WEST,GOVERNMENT SCHOOL,CO-ED SCHOOL,SINGLE SESSION,PRIMARY,No,No,No,No,Chinese,Malay,na,"Unity Primary School, 21, Choa Chu Kang Crescent, Choa Chu Kang, Northwest, 688268, Singapore",1.40273665,103.74675327152696
UNITY SECONDARY SCHOOL,http://www.unitysec.moe.edu.sg,20   CHOA CHU KANG STREET 62,689143,67671070,na,67654189,na,UNITY_SS@MOE.EDU.SG,YEW TEE MRT,307,MDM AINI BTE MAAROF,MR DANIEL ONG POH SOON,MS NG TIEN NI JENNY,,,,,CHOA CHU KANG,WEST,GOVERNMENT SCHOOL,CO-ED SCHOOL,SINGLE SESSION,SECONDARY,No,No,No,No,Chinese,Malay,Tamil,"Unity Secondary School, 20, Choa Chu Kang Street 62, Choa Chu Kang, Northwest, 689143, Singapore",1.39972215,103.74602939217792
VALOUR PRIMARY SCHOOL,valourpri.moe.edu.sg,49   Punggol Central,828728,62426390,na,na,na,valour_ps@moe.edu.sg,na,na,MRS CHARIS WONG,MDM TAN PIN PIN,,,,,,PUNGGOL,EAST,GOVERNMENT SCHOOL,CO-ED SCHOOL,SINGLE SESSION,PRIMARY,No,No,No,No,Chinese,Malay,na,"Valour Primary School, 49, Punggol Central, Punggol, Northeast, 828728, Singapore",1.4072779,103.89885718105859
VICTORIA JUNIOR COLLEGE,http://www.victoriajc.moe.edu.sg/,20   MARINE VISTA,449035,64485011,na,64438337,na,victoria_jc@moe.edu.sg,"Nearest MRT Stations:  Kembangan, Eunos","13, 16, 31, 36, 43, 48, 55, 135, 196, 196e, 197",MISS EK SOO BEN,MR GURUSHARAN SINGH S/O M SINGH,MS LEE YUN YUN GRACE,,,,,BEDOK,EAST,GOVERNMENT SCHOOL,CO-ED SCHOOL,FULL DAY,JUNIOR COLLEGE,No,No,No,Yes,Chinese,Malay,Tamil,"Victoria Junior College, 20, Marine Vista, Bedok, Southeast, 449035, Singapore",1.3061913,103.91984444651865
VICTORIA SCHOOL,http://www.victoria.moe.edu.sg,2    SIGLAP LINK,448880,62912965,na,64452609,na,VICTORIA_SCH@MOE.EDU.SG,"BEDOK MRT, PAYA LEBAR MRT","31, 36, 43, 47, 48, 55, 135, 155, 196, 196E, 197, 401, 853C",MR CHOW WEISI,MR TAN ENG HONG JONATHAN,MR NEO WEI CHUNG,,,,,BEDOK,EAST,GOVERNMENT SCHOOL,BOYS' SCHOOL,SINGLE SESSION,SECONDARY,No,Yes,Yes,Yes,Chinese,Malay,Tamil,"Victoria School, 2, Siglap Link, Bedok, Southeast, 448880, Singapore",1.30854205,103.92745780276405
WATERWAY PRIMARY SCHOOL,https://waterwaypri.moe.edu.sg,70   Punggol Drive,828802,6636 6880,na,6315 3451,na,waterway_ps@moe.edu.sg,Kadaloor LRT Station,"50, 381",MRS WEE KWAN LIAM,MDM CHUA KIM LAN JUDY,,,,,,PUNGGOL,EAST,GOVERNMENT SCHOOL,CO-ED SCHOOL,SINGLE SESSION,PRIMARY,No,No,No,No,Chinese,Malay,Tamil,"Waterway Primary School, 70, Punggol Drive, Punggol, Northeast, 828802, Singapore",1.3992087999999998,103.91839414052309
WELLINGTON PRIMARY SCHOOL,http://www.wellingtonpri.moe.edu.sg,10   WELLINGTON CIRCLE,757702,67533319,na,67533765,na,WELLINGTONPS@MOE.EDU.SG,Sembawang MRT,"980, 856, 859",MR ALCANTARA ALBERT ALFRED,MS KONG YEE LOON,,,,,,SEMBAWANG,NORTH,GOVERNMENT SCHOOL,CO-ED SCHOOL,SINGLE SESSION,PRIMARY,No,No,No,No,Chinese,Malay,Tamil,"10, Wellington Circle, Tewksbury, Middlesex County, Massachusetts, 01876, United States",42.6022861,-71.2665296
WEST GROVE PRIMARY SCHOOL,http://www.westgrovepri.moe.edu.sg/,1    JURONG WEST ST 72,649223,62679234,na,62679235,na,WGPS@MOE.EDU.SG,Boon Lay MRT,"Bus 99, 242",MRS CHANDLER JAY SIVA,MDM SITI RASHIDAH BTE ABDUL RAHMAN,,,,,,JURONG WEST,WEST,GOVERNMENT SCHOOL,CO-ED SCHOOL,SINGLE SESSION,PRIMARY,No,No,No,No,Chinese,Malay,Tamil,"West Grove Primary School, 1, Jurong West Street 72, Jurong West, Southwest, 649223, Singapore",1.34468085,103.69898328299087
WEST SPRING PRIMARY SCHOOL,http://www.westspringpri.moe.edu.sg,60   Bukit Panjang Ring Road,679946,63144192,na,na,63140648,westspring_ps@moe.edu.sg,Jelapang LRT,"920, 922",MR WILLY TAN NGUAN PENG,MDM KUM LAI MENG,MR SIM KOOI SUEN,,,,,BUKIT PANJANG,WEST,GOVERNMENT SCHOOL,CO-ED SCHOOL,SINGLE SESSION,PRIMARY,No,No,No,No,Chinese,Malay,Tamil,"West Spring Primary School, 60, Bukit Panjang Ring Road, Bukit Panjang, Northwest, 679946, Singapore",1.38951255,103.76629511736711
WEST SPRING SECONDARY SCHOOL,http://www.westspringsec.moe.edu.sg,61   SENJA  ROAD,677737,68920369,na,68929468,na,westspringss@moe.edu.sg,"JELAPANG LRT, SENJA LRT","920, 972, 976",MR TAN CHIN ENG ADOLPHUS,MR LIM HAN SENG ANDREW,MR V SIVA KUMAR,,,,,BUKIT PANJANG,WEST,GOVERNMENT SCHOOL,CO-ED SCHOOL,SINGLE SESSION,SECONDARY,No,No,No,No,Chinese,Malay,Tamil,"West Spring Secondary School, 61, Senja Road, Bukit Panjang, Northwest, 677737, Singapore",1.38827575,103.75987181608919
WEST VIEW PRIMARY SCHOOL,http://www.westviewpri.moe.edu.sg,31   SENJA ROAD,677742,67600178,na,67600147,na,wvps@moe.edu.sg,"Bukit Panjang MRT, SENJA LRT (A13)","170,171,176,178,180,000,000,000,000,000",MR EDDIE FOO CHIT CHEONG,MDM LAI SEOW POH,,,,,,BUKIT PANJANG,WEST,GOVERNMENT SCHOOL,CO-ED SCHOOL,SINGLE SESSION,PRIMARY,No,No,No,No,Chinese,Malay,Tamil,"West View Primary School, 31, Senja Road, Bukit Panjang, Northwest, 677742, Singapore",1.38348015,103.76007848739347
WESTWOOD PRIMARY SCHOOL,http://www.westwoodpri.moe.edu.sg,1    Jurong West Street 73,649188,64121690,na,67945084,na,westwood_ps@moe.edu.sg,Boon Lay MRT Station,"181, 502 & 243",MR MAH SENG THONG ANDREW,MRS RUTH TAI MEI FEN,MR LOW MIN CHYE,,,,,JURONG WEST,WEST,GOVERNMENT SCHOOL,CO-ED SCHOOL,SINGLE SESSION,PRIMARY,No,No,No,No,Chinese,Malay,Tamil,"Westwood Primary School, 1, Jurong West Street 73, Jurong West, Southwest, 649188, Singapore",1.3474423500000001,103.700513045387
WESTWOOD SECONDARY SCHOOL,http://www.westwoodsec.moe.edu.sg,11   JURONG WEST STREET 25,648350,67929737,na,67929738,na,WESTWOOD_SS@MOE.EDU.SG,BOON LAY MRT,"172, 181, 181M, 185, 199, 405, 974",MR ABDUL HARRIS B SUMARDI,MISS TAN MING MING,,,,,,JURONG WEST,WEST,GOVERNMENT SCHOOL,CO-ED SCHOOL,SINGLE SESSION,SECONDARY,No,No,No,No,Chinese,Malay,Tamil,"Westwood Secondary School, 11, Jurong West Street 25, Jurong West, Southwest, 648350, Singapore",1.35357275,103.70180250863571
WHITE SANDS PRIMARY SCHOOL,http://www.whitesandspri.moe.edu.sg,2    PASIR RIS ST 11,519075,69229100,na,65815013,na,wsps@moe.edu.sg,Pasir Ris MRT Station,"12, 17, 21, 39, 53, 81, 518, 109",MDM WONG LIN LIN AUDREY,MDM GOH SWEE LIN EVELYN,MS REZINA KHAN D/O ABDUL RAHIM,,,,,PASIR RIS,EAST,GOVERNMENT SCHOOL,CO-ED SCHOOL,SINGLE SESSION,PRIMARY,No,No,No,No,Chinese,Malay,Tamil,"White Sands Primary School, 2, Pasir Ris Street 11, Pasir Ris, Northeast, 519075, Singapore",1.36547295,103.96125455882462
WHITLEY SECONDARY SCHOOL,http://www.whitleysec.moe.edu.sg,30   BISHAN STREET 24,579747,64561336,na,64591330,na,WHITLEY_SS@MOE.EDU.SG,"BISHAN MRT, MARYMOUNT MRT","13, 52, 54, 74, 74E, 88, 162, 162M,  588, 410, 851, 852",MDM S SAROJA,MR TYEBALLY AZIZ,MR KANG LENG KHIM VINCENT,,,,,BISHAN,SOUTH,GOVERNMENT SCHOOL,CO-ED SCHOOL,SINGLE SESSION,SECONDARY,No,No,No,No,Chinese,Malay,Tamil,"Whitley Secondary School, 30, Bishan Street 24, Bishan, Central, 579747, Singapore",1.35567945,103.84255758133664
WOODGROVE PRIMARY SCHOOL,http://www.woodgrovepri.moe.edu.sg/,2    WOODLANDS DRIVE 14,738079,68943371,na,68943372,na,WOODGROVE_PS@MOE.EDU.SG,Woodlands MRT Station,901,MS ADELINE TAN WEE KIAW,MRS AHKEELA JULIA EDISON,DR. NG SIEW HIANG SALLY,,,,,WOODLANDS,NORTH,GOVERNMENT SCHOOL,CO-ED SCHOOL,SINGLE SESSION,PRIMARY,No,No,No,No,Chinese,Malay,Tamil,"Woodgrove Primary School, 2, Woodlands Drive 14, Woodlands, Northwest, 738079, Singapore",1.4331624,103.79032679117
WOODGROVE SECONDARY SCHOOL,https://woodgrovesec.moe.edu.sg/,3    WOODLANDS AVENUE 6,738990,68932564,na,68934458,na,woodgrove_ss@moe.edu.sg,"WOODLANDS MRT, WOODLANDS SOUTH MRT","901, 901M",MR CHUA CHOR HUAT,MR TAN BOON CHENG,MISS FOO SIEW YONG,,,,,WOODLANDS,NORTH,GOVERNMENT SCHOOL,CO-ED SCHOOL,SINGLE SESSION,SECONDARY,No,No,No,No,Chinese,Malay,Tamil,"Woodgrove Secondary School, 3, Woodlands Avenue 6, Woodlands, Northwest, 738990, Singapore",1.42830325,103.79658064600358
WOODLANDS PRIMARY SCHOOL,http://www.woodlandspri.moe.edu.sg,10   WOODLANDS DRIVE 50,738853,62697410,na,63671165,na,wdp@moe.edu.sg,Woodlands,912 & 912E,MISS KUCK LI LIAN LILLIAN,MDM WONG YEN LING,MDM KOMATHI D/O GOVINDASAMY,,,,,WOODLANDS,NORTH,GOVERNMENT SCHOOL,CO-ED SCHOOL,SINGLE SESSION,PRIMARY,No,No,No,No,Chinese,Malay,Tamil,"Woodlands Primary School, 10, Woodlands Drive 50, Woodlands, Northwest, 738853, Singapore",1.43669555,103.79169016829829
WOODLANDS RING PRIMARY SCHOOL,HTTP://www.woodlandsringpri.moe.edu.sg,11   WOODLANDS RING ROAD,738240,63643679,na,63643490,na,WRPS@MOE.EDU.SG,Admiralty MRT Station,912,MISS GEETHA D/O DORAISAMY,"MR BOH CHEK KEOW, THOMAS",,,,,,WOODLANDS,NORTH,GOVERNMENT SCHOOL,CO-ED SCHOOL,SINGLE SESSION,PRIMARY,No,No,No,No,Chinese,Malay,Tamil,"Woodlands Ring Primary School, 11, Woodlands Ring Road, Woodlands, Northwest, 738240, Singapore",1.43466535,103.79784050639532
WOODLANDS RING SECONDARY SCHOOL,http://www.woodlandsringsec.moe.edu.sg,10   WOODLANDS RING ROAD,738239,63643712,na,63643713,na,wrss@moe.edu.sg,ADMIRALTY MRT,912,MDM NG SIEW BEE,MDM NUR HIDAYANI IBRAHIM,MDM KOMATHI D/O P KESAVAN,,,,,WOODLANDS,NORTH,GOVERNMENT SCHOOL,CO-ED SCHOOL,SINGLE SESSION,SECONDARY,No,No,No,No,Chinese,Malay,Tamil,"Woodlands Ring Secondary School, 10, Woodlands Ring Road, Woodlands, Northwest, 738239, Singapore",1.436023,103.80043534945747
WOODLANDS SECONDARY SCHOOL,http://www.woodlandssec.moe.edu.sg,11   MARSILING ROAD,739111,68494400,na,62691774,na,wdl_ss@moe.edu.sg,"MARSILING MRT, WOODLANDS MRT","913, 913M, 913T, 178, 856, 903",MDM TAN YANG FERN,MDM MASAYU BINTE MAHMUD,MR CHEN BING HONG,,,,,WOODLANDS,NORTH,GOVERNMENT SCHOOL,CO-ED SCHOOL,SINGLE SESSION,SECONDARY,No,No,No,No,Chinese,Malay,Tamil,"Woodlands Secondary School, 11, Marsiling Road, Woodlands, Northwest, 739111, Singapore",1.43959845,103.77439467346329
XINGHUA PRIMARY SCHOOL,http://www.xinghuapri.moe.edu.sg,45   HOUGANG AVENUE 1,538882,62889121,na,62838831,na,XINGHUA_PS@MOE.EDU.SG,Kovan MRT Station,"Bus services 53, 62, 112, 113, 115",MR CHEW MUN WAI,MR CHONG CHOONG HIAN,,,,,,HOUGANG,SOUTH,GOVERNMENT SCHOOL,CO-ED SCHOOL,SINGLE SESSION,PRIMARY,No,No,No,No,Chinese,Malay,Tamil,"Xinghua Primary School, 45, Hougang Avenue 1, Hougang, Northeast, 538882, Singapore",1.3580028,103.89051501350177
XINGNAN PRIMARY SCHOOL,http://www.xingnanpri.moe.edu.sg,5    JURONG WEST STREET 91,649036,67913679,na,67921493,na,XINGNAN_PS@MOE.EDU.SG,Pioneer MRT Station,Bus 99 & 241,MR CHAN GEOK ANN CHARLES,MDM S ANITHA,MRS ONG LAY KHIM,,,,,JURONG WEST,WEST,GOVERNMENT SCHOOL,CO-ED SCHOOL,SINGLE SESSION,PRIMARY,No,No,No,No,Chinese,Malay,Tamil,"Xing Nan Primary School, 5, Jurong West Street 91, Jurong West, Southwest, 649036, Singapore",1.3431928,103.68774924347912
XINMIN PRIMARY SCHOOL,http://www.xinminpri.moe.edu.sg/,9    HOUGANG AVENUE 8,538784,62835479,na,62880334,na,xinmin_ps@moe.edu.sg,Nil,"74, 147, 165, 112",MDM TAN KAY LING,MR MOHAMED YAZEED BIN MOHAMED SAID,,,,,,HOUGANG,NORTH,GOVERNMENT SCHOOL,CO-ED SCHOOL,SINGLE SESSION,PRIMARY,No,No,No,No,Chinese,Malay,Tamil,"Xinmin Primary School, 9, Hougang Avenue 8, Hougang, Northeast, 538784, Singapore",1.3714019,103.88317857629349
XINMIN SECONDARY SCHOOL,http://www.xinminsec.moe.edu.sg,11   HOUGANG AVENUE 8,538789,62889382,na,63851068,na,xinminss_email@schools.gov.sg,HOUGANG MRT,"25, 43, 43M, 55, 70, 70A, 70B, 70M, 72, 72A, 73, 73A, 74, 74E, 88, 88A, 103, 109, 109A, 112, 116, 132, 147, 159, 159A, 161, 165, 329, 660, 854, 854E",MR TAN KUO CHEANG,MDM NURAZIAN BINTE BAJURI,MDM WU DANPING,,,,,HOUGANG,NORTH,GOVERNMENT SCHOOL,CO-ED SCHOOL,SINGLE SESSION,SECONDARY,No,Yes,No,No,Chinese,Malay,Tamil,"Xinmin Secondary School, 11, Hougang Avenue 8, Hougang, Northeast, 538789, Singapore",1.3725581999999998,103.88292818222591
XISHAN PRIMARY SCHOOL,https://www.xishanpri.moe.edu.sg/,8    YISHUN STREET 21,768611,67588837,na,67588361,na,XISHAN_PS@MOE.EDU.SG,o   Alight at Yishun MRT Station o   Take Exit C o   Walk towards Yishun Street 21,"Along Yishun Ave 2,take Bus Service 117, 169, 804, 812, 965. Alight at Blk 220. Along Yishun Ring Road,take Bus Service 1N, 800, 804, NR1. Alight at Blk 227 or 236.",MRS QUEK-SIM KIM LIANG ANNE,MISS LATHA D/O SINASAMY,,,,,,YISHUN,NORTH,GOVERNMENT SCHOOL,CO-ED SCHOOL,SINGLE SESSION,PRIMARY,No,No,No,No,Chinese,Malay,Tamil,"Xishan Primary School, 8, Yishun Street 21, Yishun, Northwest, 768611, Singapore",1.43343,103.83778655449996
YANGZHENG PRIMARY SCHOOL,http://www.yangzhengpri.moe.edu.sg/,15   SERANGOON AVENUE 3,556108,62846298,na,62879778,na,YZPS@MOE.EDU.SG,Serangoon Station,"58 & 105 (Outside the school, Serangoon Ave 3) 133 & 135(Serangoon Ave 2)",MRS LIM- FOO BOON CHING,MDM NG LI YI,,,,,,SERANGOON,SOUTH,GOVERNMENT SCHOOL,CO-ED SCHOOL,SINGLE SESSION,PRIMARY,No,No,No,No,Chinese,Malay,Tamil,"Yangzheng Primary School, 15, Serangoon Avenue 3, Serangoon, Southeast, 556108, Singapore",1.3487634499999999,103.8684635802252
YEW TEE PRIMARY SCHOOL,http://www.yewteepri.moe.edu.sg,10   CHOA CHU KANG ST 64,689100,67670027,na,67675450,na,YTPS@MOE.EDU.SG,Yew Tee MRT Station,307,MISS ANG MUI KHOONG,MDM SIM EE KOON PATRICIA,MDM TOH GUAT HWA PAULINE,,,,,CHOA CHU KANG,WEST,GOVERNMENT SCHOOL,CO-ED SCHOOL,SINGLE SESSION,PRIMARY,No,No,No,No,Chinese,Malay,Tamil,"Yew Tee Primary School, 10, Choa Chu Kang Street 64, Choa Chu Kang, Northwest, 689100, Singapore",1.39696185,103.75109299121249
YIO CHU KANG PRIMARY SCHOOL,http://www.yiochukangpri.moe.edu.sg,1    HOUGANG STREET 51,538720,63851365,na,63855915,na,admin_yckps@moe.edu.sg,Hougang MRT Station Yio Chu Kang MRT Station,"88,101,109,159,161 and 325",MR NG AIK BOON,MR CHAN TUCK CHEONG,MDM RAMACHANDRA SUGUNA,,,,,HOUGANG,NORTH,GOVERNMENT SCHOOL,CO-ED SCHOOL,SINGLE SESSION,PRIMARY,No,No,No,No,Chinese,Malay,Tamil,"Yio Chu Kang Primary School, 1, Hougang Street 51, Hougang, Northeast, 538720, Singapore",1.37791475,103.88546126892923
YIO CHU KANG SECONDARY SCHOOL,http://www.yiochukangsec.moe.edu.sg,3063 ANG MO KIO AVENUE 5,569868,64560669,na,65522927,na,yckss@moe.edu.sg,YIO CHU KANG MRT,"13, 45, 86, 138, 162, 269, 851, 852, 853",MRS LIM CAROL,MISS S G SARAH ABDULLAH,MR LIM HOCK CHYE KEVIN,,,,,ANG MO KIO,SOUTH,GOVERNMENT SCHOOL,CO-ED SCHOOL,SINGLE SESSION,SECONDARY,No,No,No,No,Chinese,Malay,Tamil,"Yio Chu Kang Secondary School, 3063, Ang Mo Kio Avenue 5, Ang Mo Kio, Central, 569868, Singapore",1.3784798500000002,103.84210804081067
YISHUN INNOVA JUNIOR COLLEGE,https://yijc.moe.edu.sg/,3    YISHUN RING ROAD,768675,62579873,na,62574373,na,yijc@moe.edu.sg,"Yishun, Khatib","167, 169, 171, 800, 812,",MR MICHAEL DE SILVA,MR TAY YUAN ZHUANG,MR LIM KAH LEONG MARC,,,,,YISHUN,NORTH,GOVERNMENT SCHOOL,CO-ED SCHOOL,FULL DAY,JUNIOR COLLEGE,No,No,No,No,Chinese,Malay,Tamil,"Yishun Innova Junior College, 3, Yishun Ring Road, Yishun, Northwest, 768675, Singapore",1.42449365,103.83051527854522
YISHUN PRIMARY SCHOOL,http://www.yishunpri.moe.edu.sg,500  YISHUN RING ROAD,768679,62577461,na,67554198,na,YPS@MOE.EDU.SG,Yishun,Translink Feeder Service 800 & 812,MR CHAN WENG YEW MARVIN,MR SADANANDHAN S/O PALANI ANANDAN,MR TAN YEW LEE,,,,,YISHUN,NORTH,GOVERNMENT SCHOOL,CO-ED SCHOOL,SINGLE SESSION,PRIMARY,No,No,No,No,Chinese,Malay,Tamil,"Yishun Primary School, 500, Yishun Ring Road, Yishun, Northwest, 768679, Singapore",1.4335987000000001,103.83388688680026
YISHUN SECONDARY SCHOOL,http://www.yishunsec.moe.edu.sg,4    YISHUN STREET 71,768516,68767129,na,67557748,na,YISHUN_SS@MOE.EDU.SG,"YISHUN MRT, KHATIB MRT","167,  169,  171,  800,  807, 811, 812,  856,  858,  859,  860,  969, 980",MRS REGINA LEE,MR TAN HOCK CHUAN MICHAEL,MR TAY HIANG SOON,,,,,YISHUN,NORTH,GOVERNMENT SCHOOL,CO-ED SCHOOL,SINGLE SESSION,SECONDARY,No,No,No,No,Chinese,Malay,Tamil,"Yishun Secondary School, 4, Yishun Street 71, Yishun, Northwest, 768516, Singapore",1.42793975,103.82902825
YISHUN TOWN SECONDARY SCHOOL,http://www.yishuntownsec.moe.edu.sg,6    YISHUN STREET 21,768610,67587219,na,67559112,na,YTSS@MOE.EDU.SG,YISHUN MRT,"39, 85, 171, 800, 803, 804, 806, 811, 812, 851, 852, 853, 853C, 854, 854E, 855, 856, 857, 859, 860",MR NG TEO HENG,MR OW WENG KEONG,MR LOONG CHIEH YUNG (LONG JIRONG),,,,,YISHUN,NORTH,GOVERNMENT SCHOOL,CO-ED SCHOOL,SINGLE SESSION,SECONDARY,No,Yes,No,No,Chinese,Malay,Tamil,"Yishun Town Secondary School, 6, Yishun Street 21, Yishun, Northwest, 768610, Singapore",1.4326645500000001,103.83788512141666
YU NENG PRIMARY SCHOOL,http://www.ynps.moe.edu.sg/,56   BEDOK NORTH ST 3,469623,64490121,na,64498564,na,YNPS@MOE.EDU.SG,"Bedok MRT Station (East-West Line), Bedok Reservoir MRT STation (Downtown line)","14, 17, 18, 28, 66, 67, 69, 225",MR NG YEOW LING,MRS TAY-LEE LI THENG,MISS ONG PEI FEN JAMIE,,,,,BEDOK,EAST,GOVERNMENT SCHOOL,CO-ED SCHOOL,SINGLE SESSION,PRIMARY,No,No,No,No,Chinese,Malay,na,"Yu Neng Primary School, 56, Bedok North Street 3, Bedok, Southeast, 469623, Singapore",1.33432875,103.93282926487154
YUAN CHING SECONDARY SCHOOL,http://www.yuanchingsec.moe.edu.sg,103  YUAN CHING ROAD,618654,62612489,na,62616275,na,YCSS@MOE.EDU.SG,LAKESIDE MRT,"98, 154, 154A, 180, 182, 187, 240, 240A, 246",MS NG SOOK KIT,MR LOH KOK NIAM VINCENT,MR CHEONG LIT SERN WESLEY,,,,,JURONG WEST,WEST,GOVERNMENT SCHOOL,CO-ED SCHOOL,SINGLE SESSION,SECONDARY,No,No,No,No,Chinese,Malay,Tamil,"Yuan Ching Secondary School, 103, Yuan Ching Road, Jurong West, Southwest, 618654, Singapore",1.3415819,103.72015364463991
YUHUA PRIMARY SCHOOL,http://www.yuhuapri.moe.edu.sg,158  JURONG EAST STREET 24,609558,65605062,na,65648278,na,YUHUA_PS@MOE.EDU.SG,"Jurong East, Bukit Batok","98,98A,187,333,502,507,NR5",MDM TENG LAI KWAN,MDM HEATHER SIM SIAW CHENG,MDM ZOEY LIM CHING SIA,,,,,JURONG EAST,WEST,GOVERNMENT SCHOOL,CO-ED SCHOOL,SINGLE SESSION,PRIMARY,No,No,No,No,Chinese,Malay,Tamil,"Yuhua Primary School, 158, Jurong East Street 24, Jurong East, Southwest, 609558, Singapore",1.3428913,103.74096003566154
YUHUA SECONDARY SCHOOL,http://www.yuhuasec.moe.edu.sg,35   JURONG WEST STREET 41,649406,65661985,na,65696689,na,YUHUA_SS@MOE.EDU.SG,LAKESIDE MRT,"49, 98, 99, 157, 180, 185, 187, 198, 334, 335, 502","MR PANG CHIN KEAT, KEVIN",MR TAN WEIMING BRIAN,MR CHNG PUAY KEONG,,,,,JURONG WEST,WEST,GOVERNMENT SCHOOL,CO-ED SCHOOL,SINGLE SESSION,SECONDARY,No,No,No,No,Chinese,Malay,Tamil,"Jurong West Street 41, Jurong West, Southwest, 640481, Singapore",1.3465703,103.725619
YUMIN PRIMARY SCHOOL,http://www.yuminpri.moe.edu.sg,3    TAMPINES STREET 21,529393,67811262,na,67845554,na,YUMIN_PS@MOE.EDU.SG,Tampines MRT Station,na,MDM CHILUKURI DIMPS RAO,MR ABDUL MUTALIB B MOHAMMED AMIN,MRS SHARON CLARISSA FOO,,,,,TAMPINES,EAST,GOVERNMENT SCHOOL,CO-ED SCHOOL,SINGLE SESSION,PRIMARY,No,No,No,No,Chinese,Malay,na,"Yumin Primary School, 3, Tampines Street 21, Tampines, Northeast, 529393, Singapore",1.3512643,103.95087354401925
YUSOF ISHAK SECONDARY SCHOOL,http://www.yusofishaksec.moe.edu.sg,11   BUKIT BATOK STREET 25,658712,65009800,na,65675502,na,yiss@moe.edu.sg,BUKIT BATOK MRT,"61, 66, 77, 106, 157, 174, 178, 506, 852, 963",MDM LEE WEE LIN MAUREEN,MR WILSON TAY SWEE KIAT,,,,,,BUKIT BATOK,WEST,GOVERNMENT SCHOOL,CO-ED SCHOOL,SINGLE SESSION,SECONDARY,No,No,No,No,Chinese,Malay,Tamil,"Yusof Ishak Secondary School, 11, Bukit Batok Street 25, Bukit Batok, Southwest, 658712, Singapore",1.3426976000000002,103.76000794940666
YUYING SECONDARY SCHOOL,http://www.yuyingsec.moe.edu.sg,47   HOUGANG AVENUE 1,538884,62827968,na,62871607,na,yuying_ss@moe.edu.sg,"KOVAN MRT, SERANGOON MRT, HOUGANG MRT","25, 51, 53, 53M, 55, 62, 87, 113, 119, 151, 854",MR LO CHEE LIN,MDM NIAM HWEE PENG,MR FOO JUNG HIN SIMON,,,,,HOUGANG,SOUTH,GOVERNMENT-AIDED SCH,CO-ED SCHOOL,SINGLE SESSION,SECONDARY,No,No,No,No,Chinese,Malay,Tamil,"Yuying Secondary School, 47, Hougang Avenue 1, Hougang, Northeast, 538884, Singapore",1.3570939499999999,103.89070897403971
ZHANGDE PRIMARY SCHOOL,http://www.zhangdepri.moe.edu.sg/,51   Jalan Membina,169485,62740357,na,62763042,na,ZHANGDE_PS@MOE.EDU.SG,Tiong Bahru MRT Station,"16,33,63,123,195,605,851,14,65,147,167,196,197,961",MDM RITA RAJLAL,MISS TAY HWEE LIN,MRS PEGGY KOH,,,,,BUKIT MERAH,SOUTH,GOVERNMENT SCHOOL,CO-ED SCHOOL,SINGLE SESSION,PRIMARY,No,No,No,No,Chinese,Malay,Tamil,"Zhangde Primary School, 51, Jalan Membina, Bukit Merah, Central, 169485, Singapore",1.2842497000000002,103.82608192459686
ZHENGHUA PRIMARY SCHOOL,http://www.zhenghuapri.moe.edu.sg,9    Fajar Road,679002,67697478,na,67636459,na,zhenghua_ps@moe.edu.sg,LRT: Fajar Station,"190, 184, 187, 700, 700A, 921",MDM WONG HIAN HWEE CONSTANCE,MDM JOSEPHINE SNG,MISS SANTHANA MARY D/O POOBALAN,,,,,BUKIT PANJANG,WEST,GOVERNMENT SCHOOL,CO-ED SCHOOL,SINGLE SESSION,PRIMARY,No,No,No,No,Chinese,Malay,Tamil,"Zhenghua Primary School, 9, Fajar Road, Bukit Panjang, Northwest, 679002, Singapore",1.37942415,103.76967649681461
ZHENGHUA SECONDARY SCHOOL,http://www.zhenghuasec.moe.edu.sg,91   SENJA ROAD,677741,67639455,na,67633577,na,ZHENGHUA_SS@MOE.EDU.SG,JELAPANG LRT,"920, 922, 976",MR LIN YUCHENG EUGENE,MR PHOR HOAY GUAN,MDM TAN PEI LEE ELAINE,,,,,BUKIT PANJANG,WEST,GOVERNMENT SCHOOL,CO-ED SCHOOL,SINGLE SESSION,SECONDARY,No,No,No,No,Chinese,Malay,Tamil,"Zhenghua Secondary School, 91, Senja Road, Bukit Panjang, Northwest, 677741, Singapore",1.3888414,103.76520736341934
ZHONGHUA PRIMARY SCHOOL,http://www.zhonghuapri.moe.edu.sg,12   SERANGOON AVENUE 4,556095,62835413,na,62823882,na,zhonghua_ps@moe.edu.sg,"Ang Mo Kio MRT, Bishan MRT, Serangoon MRT","Boundary Road: 22,24,53,105,156,315,853,501,502 Yio Chu Kang Road: 70,76,103,147,156,501,502",MDM ROSTINAH BTE MOHAMAD SAID,MDM THAM SIEW LENG,MRS TRINA YEE-POOK SIM NAR,,,,,SERANGOON,SOUTH,GOVERNMENT SCHOOL,CO-ED SCHOOL,SINGLE SESSION,PRIMARY,No,No,No,No,Chinese,Malay,Tamil,"Zhonghua Primary School, 12, Serangoon Avenue 4, Serangoon Green, Serangoon, Southeast, 556095, Singapore",1.3599114,103.86971022260559
ZHONGHUA SECONDARY SCHOOL,http://www.zhonghuasec.moe.edu.sg,13   SERANGOON AVENUE 3,556123,62824339,na,62823472,na,ZHONGHUA_SS@MOE.EDU.SG,SERANGOON MRT,"22, 43, 45, 53, 58, 70, 81, 82, 100, 101, 103, 105, 107, 109, 133, 135, 147, 153, 158, 315, 317, 853",MISS LOW SHIOK CHENG CINDY,MR KOH KAI HONG,,,,,,SERANGOON,SOUTH,GOVERNMENT SCHOOL,CO-ED SCHOOL,SINGLE SESSION,SECONDARY,No,Yes,No,No,Chinese,Malay,na,"Zhonghua Secondary School, 13, Serangoon Avenue 3, Serangoon, Southeast, 556123, Singapore",1.3486042999999999,103.8693704480504
